{
"type": "FeatureCollection",
"crs": { "type": "name", "properties": { "name": "urn:ogc:def:crs:OGC:1.3:CRS84" } },
"features": [
{ "type": "Feature", "properties": { "name": "پارک ملت", "name:fa": null, "name:en": "Mellat Park", "addr:street": null, "area_m2": 61290.734839504905, "lat": 36.272128506531338, "lon": 50.013396641417629 }, "geometry": { "type": "Point", "coordinates": [ 50.013396641417629, 36.272128506531338 ] } },
{ "type": "Feature", "properties": { "name": "بوستان ملاخلیلا", "name:fa": null, "name:en": "Molla Khalila Park", "addr:street": null, "area_m2": 55701.779172322407, "lat": 36.257095786743136, "lon": 49.989219453858389 }, "geometry": { "type": "Point", "coordinates": [ 49.989219453858389, 36.257095786743136 ] } },
{ "type": "Feature", "properties": { "name": "بوستان الغدیر", "name:fa": null, "name:en": "AlQadir Park", "addr:street": null, "area_m2": 43566.356229079953, "lat": 36.299578737578692, "lon": 50.018810637108928 }, "geometry": { "type": "Point", "coordinates": [ 50.018810637108928, 36.299578737578692 ] } },
{ "type": "Feature", "properties": { "name": "بوستان پامچال", "name:fa": null, "name:en": "Pamchal Park", "addr:street": null, "area_m2": 41837.520120408226, "lat": 36.316266498245227, "lon": 49.995990485451735 }, "geometry": { "type": "Point", "coordinates": [ 49.995990485451735, 36.316266498245227 ] } },
{ "type": "Feature", "properties": { "name": "بوستان مادر و کودک", "name:fa": "بوستان مادر و کودک", "name:en": "Mother and Child Park", "addr:street": "کنارگذر جمهوری اسلامی", "area_m2": 40674.311006697084, "lat": 36.251199589953799, "lon": 50.00948790790212 }, "geometry": { "type": "Point", "coordinates": [ 50.00948790790212, 36.251199589953799 ] } }
]
}
