{
"type": "FeatureCollection",
"crs": { "type": "name", "properties": { "name": "urn:ogc:def:crs:OGC:1.3:CRS84" } },
"features": [
{ "type": "Feature", "properties": { "name": "بازارچه سپه", "name:en": "Sepah Market", "lat": 36.2604674, "lon": 50.0042017 }, "geometry": { "type": "Point", "coordinates": [ 50.0042017, 36.2604674 ] } },
{ "type": "Feature", "properties": { "name": "بازارچه مهدیه", "name:en": "Mahdiye Market", "lat": 36.309124839610938, "lon": 50.020885845318851 }, "geometry": { "type": "Point", "coordinates": [ 50.020885845318851, 36.309124839610938 ] } },
{ "type": "Feature", "properties": { "name": "میدان تره بار قزوین", "name:en": null, "lat": 36.25938085951978, "lon": 49.989393597214999 }, "geometry": { "type": "Point", "coordinates": [ 49.989393597214999, 36.25938085951978 ] } },
{ "type": "Feature", "properties": { "name": "بازار میوه و سبزیجات مینودر", "name:en": "بازار میوه و سبزیجات مینودر", "lat": 36.3060744, "lon": 50.0033785 }, "geometry": { "type": "Point", "coordinates": [ 50.0033785, 36.3060744 ] } },
{ "type": "Feature", "properties": { "name": "بخش میوه بازار قزوین", "name:en": "Qazvin Bazar fruits part", "lat": 36.269423513266503, "lon": 49.997253144306285 }, "geometry": { "type": "Point", "coordinates": [ 49.997253144306285, 36.269423513266503 ] } },
{ "type": "Feature", "properties": { "name": "بازارچه برکت صیاد شیرازی شهرداری", "name:en": "SayyadShirazi Barekat market", "lat": 36.307433001382634, "lon": 49.990485349764398 }, "geometry": { "type": "Point", "coordinates": [ 49.990485349764398, 36.307433001382634 ] } },
{ "type": "Feature", "properties": { "name": "بازارچه برکت کاسپین (الهیه) شهرداری", "name:en": "Caspian (Elahieh) Barekat market", "lat": 36.319181924393305, "lon": 49.98958555226195 }, "geometry": { "type": "Point", "coordinates": [ 49.98958555226195, 36.319181924393305 ] } }
]
}
