{
"type": "FeatureCollection",
"crs": { "type": "name", "properties": { "name": "urn:ogc:def:crs:OGC:1.3:CRS84" } },
"features": [
{ "type": "Feature", "properties": { "element_type": "node", "osmid": 5020194024, "name": "درمانگاه و اورژانس کوثر", "name:en": "Kowsar Clinics and Emergency", "operator": null, "addr:street": "کوثر", "addr:housenumber": null, "description": null, "lat": 36.2691757, "lon": 50.0144158 }, "geometry": { "type": "Point", "coordinates": [ 50.0144158, 36.2691757 ] } },
{ "type": "Feature", "properties": { "element_type": "node", "osmid": 5263105621, "name": "اورژانس بوعلی", "name:en": "Bou-Ali emergency(ER)", "operator": null, "addr:street": "نادری شمالی", "addr:housenumber": null, "description": null, "lat": 36.2749754, "lon": 50.0038772 }, "geometry": { "type": "Point", "coordinates": [ 50.0038772, 36.2749754 ] } },
{ "type": "Feature", "properties": { "element_type": "node", "osmid": 7057479906, "name": "مجتمع پزشکی جهاد دانشگاهی", "name:en": "Jahad Daneshgahi Medical Institute", "operator": null, "addr:street": "طالقانی", "addr:housenumber": null, "description": "درمان #ناباروری #شیمی_درمانی آزمایشگاه تشخیص طبی و پاتوبیولوژی مرکز جامع توانبخشی متخصصین قلب و جراحی و طب فیزیک و ..", "lat": 36.2685524, "lon": 50.0077855 }, "geometry": { "type": "Point", "coordinates": [ 50.0077855, 36.2685524 ] } },
{ "type": "Feature", "properties": { "element_type": "node", "osmid": 7648905443, "name": "کلینیک فوق تخصصی رویانا", "name:en": "Royana specialized clinic", "operator": "arad andishan caspian", "addr:street": "فردوسی", "addr:housenumber": "120", "description": null, "lat": 36.2717787, "lon": 50.0056553 }, "geometry": { "type": "Point", "coordinates": [ 50.0056553, 36.2717787 ] } },
{ "type": "Feature", "properties": { "element_type": "way", "osmid": 258606122, "name": "بیمارستان در دست تجهیز(فعلا راه اندازی نشده است)", "name:en": "Hospital in construction(Not opened yet)", "operator": null, "addr:street": null, "addr:housenumber": null, "description": null, "lat": 36.322395305993908, "lon": 49.986477244874123 }, "geometry": { "type": "Polygon", "coordinates": [ [ [ 49.9875359, 36.322497 ], [ 49.9873262, 36.3222647 ], [ 49.9871862, 36.322041 ], [ 49.9866218, 36.3220377 ], [ 49.9866234, 36.322142 ], [ 49.9855319, 36.3221117 ], [ 49.9855265, 36.322408 ], [ 49.9855996, 36.3226864 ], [ 49.9870109, 36.3227115 ], [ 49.9871018, 36.3226963 ], [ 49.9875359, 36.322497 ] ] ] } },
{ "type": "Feature", "properties": { "element_type": "way", "osmid": 258606430, "name": "بیمارستان ولایت", "name:en": "Velayat Hospital", "operator": null, "addr:street": null, "addr:housenumber": null, "description": null, "lat": 36.323598087470643, "lon": 49.997641651982114 }, "geometry": { "type": "Polygon", "coordinates": [ [ [ 49.9962214, 36.324361 ], [ 49.9961654, 36.323642 ], [ 49.9961508, 36.3235487 ], [ 49.9961243, 36.3233787 ], [ 49.9960739, 36.3231892 ], [ 49.9959731, 36.3229221 ], [ 49.9959936, 36.3228823 ], [ 49.9966936, 36.3228912 ], [ 49.9982259, 36.3229107 ], [ 49.9984779, 36.3229139 ], [ 49.9992359, 36.3229236 ], [ 49.9993582, 36.3229274 ], [ 49.9994226, 36.322968 ], [ 49.9994936, 36.3230665 ], [ 49.9994992, 36.3231448 ], [ 49.9994712, 36.3232568 ], [ 49.9993498, 36.3235404 ], [ 49.9991687, 36.3237811 ], [ 49.998968, 36.3239729 ], [ 49.9987253, 36.3241459 ], [ 49.9984657, 36.3242798 ], [ 49.9982277, 36.3243625 ], [ 49.9979485, 36.3244152 ], [ 49.9970245, 36.3244078 ], [ 49.9968282, 36.3244062 ], [ 49.9968292, 36.324434 ], [ 49.9962933, 36.3244317 ], [ 49.9962438, 36.3244077 ], [ 49.9962214, 36.324361 ] ] ] } },
{ "type": "Feature", "properties": { "element_type": "way", "osmid": 320553607, "name": "بیمارستان شهید رجایی", "name:en": "Shahid Rajayi Hospital", "operator": null, "addr:street": null, "addr:housenumber": null, "description": null, "lat": 36.280473139179819, "lon": 50.018834831147032 }, "geometry": { "type": "Polygon", "coordinates": [ [ [ 50.0186988, 36.281165 ], [ 50.0180432, 36.2801282 ], [ 50.0185129, 36.2800243 ], [ 50.0189164, 36.2798959 ], [ 50.0190258, 36.2798558 ], [ 50.0196105, 36.2806731 ], [ 50.0193738, 36.2808011 ], [ 50.0186988, 36.281165 ] ] ] } },
{ "type": "Feature", "properties": { "element_type": "way", "osmid": 320561453, "name": "بیمارستان بوعلی سینا", "name:en": "Bouali Sina(Avecina) Hospital", "operator": null, "addr:street": null, "addr:housenumber": null, "description": null, "lat": 36.274875474540913, "lon": 50.005135103832977 }, "geometry": { "type": "Polygon", "coordinates": [ [ [ 50.0064784, 36.2752274 ], [ 50.0043219, 36.2755517 ], [ 50.0042629, 36.2753139 ], [ 50.0038123, 36.2753917 ], [ 50.0037513, 36.2749191 ], [ 50.0037258, 36.2747443 ], [ 50.0037208, 36.2747108 ], [ 50.0037235, 36.2746917 ], [ 50.0037353, 36.2746644 ], [ 50.0037478, 36.2746446 ], [ 50.0037619, 36.2746266 ], [ 50.0037811, 36.274612 ], [ 50.003925, 36.2745787 ], [ 50.004485, 36.2744697 ], [ 50.006237, 36.2741289 ], [ 50.0064784, 36.2752274 ] ] ] } },
{ "type": "Feature", "properties": { "element_type": "way", "osmid": 361433491, "name": null, "name:en": null, "operator": null, "addr:street": null, "addr:housenumber": null, "description": null, "lat": 36.266854933000118, "lon": 50.024868720526023 }, "geometry": { "type": "Polygon", "coordinates": [ [ [ 50.0245697, 36.2662958 ], [ 50.0244699, 36.266285 ], [ 50.0244631, 36.2663094 ], [ 50.0245826, 36.26678 ], [ 50.0246434, 36.2670197 ], [ 50.0247989, 36.2674492 ], [ 50.0252146, 36.2674193 ], [ 50.025216, 36.2672694 ], [ 50.0251678, 36.2670597 ], [ 50.0251843, 36.2668566 ], [ 50.0251279, 36.2668166 ], [ 50.0250785, 36.2666382 ], [ 50.0250068, 36.2662972 ], [ 50.0247659, 36.266325 ], [ 50.0246888, 36.2663283 ], [ 50.0246241, 36.2663106 ], [ 50.0245697, 36.2662958 ] ] ] } },
{ "type": "Feature", "properties": { "element_type": "way", "osmid": 364853000, "name": ";کلینیک تخصصی محمدزاده", "name:en": "Medical Clinic", "operator": null, "addr:street": "امیر کبیر ۱۲ - ارکیده سابق", "addr:housenumber": null, "description": null, "lat": 36.311545439674255, "lon": 50.030430147431382 }, "geometry": { "type": "Polygon", "coordinates": [ [ [ 50.0304253, 36.3121439 ], [ 50.0309131, 36.3120151 ], [ 50.0306429, 36.3113639 ], [ 50.0304815, 36.3110132 ], [ 50.0300395, 36.3109605 ], [ 50.0300247, 36.3111042 ], [ 50.0300315, 36.3112653 ], [ 50.0301521, 36.3116014 ], [ 50.0304253, 36.3121439 ] ] ] } },
{ "type": "Feature", "properties": { "element_type": "way", "osmid": 408446744, "name": "بیمارستان ۵۵۳ ارتش", "name:en": "Hospital 553 Of Army", "operator": null, "addr:street": null, "addr:housenumber": null, "description": null, "lat": 36.286539998955554, "lon": 50.022069729839082 }, "geometry": { "type": "Polygon", "coordinates": [ [ [ 50.0233052, 36.2875683 ], [ 50.0230591, 36.2855071 ], [ 50.0230392, 36.2853406 ], [ 50.0216195, 36.2854508 ], [ 50.0208342, 36.2855117 ], [ 50.0211003, 36.2877394 ], [ 50.0233052, 36.2875683 ] ] ] } },
{ "type": "Feature", "properties": { "element_type": "way", "osmid": 443105773, "name": "بیمارستان قدس", "name:en": "Qods Hospital", "operator": null, "addr:street": null, "addr:housenumber": null, "description": null, "lat": 36.275890910730269, "lon": 50.02503627755776 }, "geometry": { "type": "Polygon", "coordinates": [ [ [ 50.0244894, 36.2770763 ], [ 50.0251975, 36.2769163 ], [ 50.0263026, 36.2765228 ], [ 50.0257608, 36.2758611 ], [ 50.0256749, 36.2755973 ], [ 50.0256588, 36.2754546 ], [ 50.0256146, 36.2753688 ], [ 50.0255784, 36.2753335 ], [ 50.0253799, 36.2751475 ], [ 50.0253176, 36.2750768 ], [ 50.0252648, 36.2749978 ], [ 50.0252234, 36.274916 ], [ 50.0251784, 36.274817 ], [ 50.0250844, 36.2746406 ], [ 50.0241171, 36.2747857 ], [ 50.0243151, 36.2756632 ], [ 50.0244894, 36.2770763 ] ] ] } },
{ "type": "Feature", "properties": { "element_type": "way", "osmid": 453412007, "name": null, "name:en": null, "operator": null, "addr:street": null, "addr:housenumber": null, "description": null, "lat": 36.275044395265283, "lon": 50.006910698637228 }, "geometry": { "type": "Polygon", "coordinates": [ [ [ 50.0067217, 36.2752604 ], [ 50.0071195, 36.2752006 ], [ 50.0071996, 36.2751874 ], [ 50.0070789, 36.2748241 ], [ 50.0066385, 36.2748954 ], [ 50.0066608, 36.2749969 ], [ 50.0067217, 36.2752604 ] ] ] } },
{ "type": "Feature", "properties": { "element_type": "way", "osmid": 471734965, "name": "بیمارستان زکریای رازی", "name:en": "Zakariyaye Razi Hospital", "operator": null, "addr:street": "بلوار شهید بابایی", "addr:housenumber": null, "description": null, "lat": 36.304265792008344, "lon": 50.022688331180426 }, "geometry": { "type": "Polygon", "coordinates": [ [ [ 50.0234467, 36.3056477 ], [ 50.0211869, 36.3052095 ], [ 50.0220816, 36.3022924 ], [ 50.022564, 36.3025233 ], [ 50.0234417, 36.3035584 ], [ 50.0242535, 36.3043405 ], [ 50.0239077, 36.3054573 ], [ 50.023586, 36.3056332 ], [ 50.0234467, 36.3056477 ] ] ] } },
{ "type": "Feature", "properties": { "element_type": "way", "osmid": 818553225, "name": "مرکز فوق تخصصی زنان و نازایی رویانا", "name:en": null, "operator": "arad andishan caspian", "addr:street": "فردوسی", "addr:housenumber": "120", "description": "مرکز فوق تخصصی زنان و درمان نازایی رویانا دارای کلینیک های زنان و نازایی قلب و عروق و واریس تغذیه و رژیم درمانی انکولوژی ارولوژی", "lat": 36.271788697667716, "lon": 50.005621674732268 }, "geometry": { "type": "Polygon", "coordinates": [ [ [ 50.0056869, 36.2718138 ], [ 50.0056701, 36.2717432 ], [ 50.0055639, 36.2717539 ], [ 50.0055719, 36.2718402 ], [ 50.0056869, 36.2718138 ] ] ] } },
{ "type": "Feature", "properties": { "element_type": "way", "osmid": 941824479, "name": "بیمارستان ۲۲ بهمن", "name:en": null, "operator": null, "addr:street": "پاستور", "addr:housenumber": null, "description": null, "lat": 36.244947462900392, "lon": 50.008891625145054 }, "geometry": { "type": "Polygon", "coordinates": [ [ [ 50.0086389, 36.244995 ], [ 50.0087148, 36.2447973 ], [ 50.0091397, 36.2449009 ], [ 50.0090779, 36.2450958 ], [ 50.0086389, 36.244995 ] ] ] } },
{ "type": "Feature", "properties": { "element_type": "way", "osmid": 1138037149, "name": null, "name:en": null, "operator": null, "addr:street": null, "addr:housenumber": null, "description": null, "lat": 36.302790989354506, "lon": 50.02110607441589 }, "geometry": { "type": "Polygon", "coordinates": [ [ [ 50.0217279, 36.3024753 ], [ 50.0214362, 36.303261 ], [ 50.0205187, 36.3031187 ], [ 50.0207316, 36.3023294 ], [ 50.0217279, 36.3024753 ] ] ] } }
]
}
