{
"type": "FeatureCollection",
"crs": { "type": "name", "properties": { "name": "urn:ogc:def:crs:OGC:1.3:CRS84" } },
"features": [
{ "type": "Feature", "properties": { "name": "سجادیه", "name:fa": null, "name:en": "Sajadiye Mosque", "addr:street": null, "religion": "muslim", "lon": 50.0107014, "lat": 36.2559632 }, "geometry": { "type": "Point", "coordinates": [ 50.0107014, 36.2559632 ] } },
{ "type": "Feature", "properties": { "name": "حلیمه و رمیمه خاتون", "name:fa": null, "name:en": "Halime khatun", "addr:street": null, "religion": "muslim", "lon": 49.9989704, "lat": 36.2730441 }, "geometry": { "type": "Point", "coordinates": [ 49.9989704, 36.2730441 ] } },
{ "type": "Feature", "properties": { "name": "مسجد حضرت فاطمه زهرا", "name:fa": null, "name:en": "Masjed Hazrate Fateme Zahra", "addr:street": null, "religion": "muslim", "lon": 50.001296, "lat": 36.2723514 }, "geometry": { "type": "Point", "coordinates": [ 50.001296, 36.2723514 ] } },
{ "type": "Feature", "properties": { "name": "ملاباشی", "name:fa": null, "name:en": "Molabashi", "addr:street": null, "religion": "muslim", "lon": 50.0023421, "lat": 36.2715494 }, "geometry": { "type": "Point", "coordinates": [ 50.0023421, 36.2715494 ] } },
{ "type": "Feature", "properties": { "name": "حسینیه رضوی", "name:fa": null, "name:en": "Hoseynie Razavi", "addr:street": null, "religion": "muslim", "lon": 50.0000118, "lat": 36.2738423 }, "geometry": { "type": "Point", "coordinates": [ 50.0000118, 36.2738423 ] } },
{ "type": "Feature", "properties": { "name": "سوخته چنار", "name:fa": null, "name:en": "Soukhte chenar Mosque", "addr:street": null, "religion": "muslim", "lon": 50.0037011, "lat": 36.2735336 }, "geometry": { "type": "Point", "coordinates": [ 50.0037011, 36.2735336 ] } },
{ "type": "Feature", "properties": { "name": "مسجد ستوده", "name:fa": null, "name:en": "Sotudeh Mosque", "addr:street": null, "religion": "muslim", "lon": 50.0032387, "lat": 36.2739138 }, "geometry": { "type": "Point", "coordinates": [ 50.0032387, 36.2739138 ] } },
{ "type": "Feature", "properties": { "name": "آقا سید علی", "name:fa": null, "name:en": "Agha seyed Ali Mosque", "addr:street": null, "religion": "muslim", "lon": 49.9985316, "lat": 36.2702232 }, "geometry": { "type": "Point", "coordinates": [ 49.9985316, 36.2702232 ] } },
{ "type": "Feature", "properties": { "name": "مسجد شیشه گر", "name:fa": null, "name:en": "Shishegar Mosque", "addr:street": "بوعلی سینا", "religion": "muslim", "lon": 49.9985248, "lat": 36.2747812 }, "geometry": { "type": "Point", "coordinates": [ 49.9985248, 36.2747812 ] } },
{ "type": "Feature", "properties": { "name": "امامزاده علی", "name:fa": null, "name:en": "Emamzadeh Ali", "addr:street": null, "religion": "muslim", "lon": 50.0107462, "lat": 36.2626942 }, "geometry": { "type": "Point", "coordinates": [ 50.0107462, 36.2626942 ] } },
{ "type": "Feature", "properties": { "name": "مسجد فاطمه الزهرای پونک", "name:fa": null, "name:en": "Fatemeh AlZahra Mosque", "addr:street": "بلوار نخبگان", "religion": "muslim", "lon": 50.0314173, "lat": 36.3109377 }, "geometry": { "type": "Point", "coordinates": [ 50.0314173, 36.3109377 ] } },
{ "type": "Feature", "properties": { "name": "حاج موسی", "name:fa": null, "name:en": "Haj Mousa", "addr:street": "sa'adiسعدی", "religion": "muslim", "lon": 49.9972016, "lat": 36.2713907 }, "geometry": { "type": "Point", "coordinates": [ 49.9972016, 36.2713907 ] } },
{ "type": "Feature", "properties": { "name": "مسجد حاج کاظم", "name:fa": null, "name:en": "Haj Kazem Mosque", "addr:street": null, "religion": "muslim", "lon": 49.9993889, "lat": 36.2764346 }, "geometry": { "type": "Point", "coordinates": [ 49.9993889, 36.2764346 ] } },
{ "type": "Feature", "properties": { "name": "مسجد امام حسن عسگری (ع)", "name:fa": null, "name:en": "Imamا Hasan Asgari Mosque", "addr:street": "بلوار رزمندگان", "religion": "muslim", "lon": 50.0033259, "lat": 36.3091663 }, "geometry": { "type": "Point", "coordinates": [ 50.0033259, 36.3091663 ] } },
{ "type": "Feature", "properties": { "name": "امامزاده اسماعیل", "name:fa": null, "name:en": "Emamzadeh Esmaeil", "addr:street": null, "religion": "muslim", "lon": 50.0023529, "lat": 36.2648372 }, "geometry": { "type": "Point", "coordinates": [ 50.0023529, 36.2648372 ] } },
{ "type": "Feature", "properties": { "name": "مسجد ثاراالله", "name:fa": null, "name:en": "Sar Allah Masque", "addr:street": null, "religion": "muslim", "lon": 50.0025879, "lat": 36.2802969 }, "geometry": { "type": "Point", "coordinates": [ 50.0025879, 36.2802969 ] } },
{ "type": "Feature", "properties": { "name": "امامزاده آمنه خاتون", "name:fa": null, "name:en": "Ameneh Khatoon", "addr:street": null, "religion": "muslim", "lon": 50.0100324, "lat": 36.2654177 }, "geometry": { "type": "Point", "coordinates": [ 50.0100324, 36.2654177 ] } },
{ "type": "Feature", "properties": { "name": "مسجد محمدیه", "name:fa": null, "name:en": "Mohammadie Mosque", "addr:street": null, "religion": "muslim", "lon": 50.0060046, "lat": 36.2633958 }, "geometry": { "type": "Point", "coordinates": [ 50.0060046, 36.2633958 ] } },
{ "type": "Feature", "properties": { "name": "مسجد سبز", "name:fa": null, "name:en": "Sabz Mosque", "addr:street": null, "religion": "muslim", "lon": 49.9952259, "lat": 36.2632542 }, "geometry": { "type": "Point", "coordinates": [ 49.9952259, 36.2632542 ] } },
{ "type": "Feature", "properties": { "name": "Station ۴", "name:fa": null, "name:en": null, "addr:street": null, "religion": "muslim", "lon": 49.9977193, "lat": 36.2782377 }, "geometry": { "type": "Point", "coordinates": [ 49.9977193, 36.2782377 ] } },
{ "type": "Feature", "properties": { "name": "Station ۲", "name:fa": null, "name:en": null, "addr:street": null, "religion": "muslim", "lon": 49.998247, "lat": 36.2668964 }, "geometry": { "type": "Point", "coordinates": [ 49.998247, 36.2668964 ] } },
{ "type": "Feature", "properties": { "name": "مسجد امام جعفر صادق", "name:fa": null, "name:en": "Imam Jafar Sadegh Mosque", "addr:street": "بلوار دانشگاه بین‌المللی امام خمینی", "religion": "muslim", "lon": 50.0129348, "lat": 36.3104879 }, "geometry": { "type": "Point", "coordinates": [ 50.0129348, 36.3104879 ] } },
{ "type": "Feature", "properties": { "name": "مسجد جواد الائمه", "name:fa": null, "name:en": "Javad Aemmeh Mosque", "addr:street": null, "religion": "muslim", "lon": 50.027772, "lat": 36.3034303 }, "geometry": { "type": "Point", "coordinates": [ 50.027772, 36.3034303 ] } },
{ "type": "Feature", "properties": { "name": "مسجد امام حسین", "name:fa": null, "name:en": "Imam Hossein Mosque", "addr:street": null, "religion": "muslim", "lon": 50.0123429, "lat": 36.2681785 }, "geometry": { "type": "Point", "coordinates": [ 50.0123429, 36.2681785 ] } },
{ "type": "Feature", "properties": { "name": "مسجد ابوالفضل", "name:fa": null, "name:en": "Abolfazl Mosque", "addr:street": null, "religion": "muslim", "lon": 50.022794, "lat": 36.2723402 }, "geometry": { "type": "Point", "coordinates": [ 50.022794, 36.2723402 ] } },
{ "type": "Feature", "properties": { "name": "مکتب الزهرا", "name:fa": null, "name:en": "Maktab Zehra", "addr:street": null, "religion": null, "lon": 50.020388, "lat": 36.2789456 }, "geometry": { "type": "Point", "coordinates": [ 50.020388, 36.2789456 ] } },
{ "type": "Feature", "properties": { "name": "مسجد احمد بیک", "name:fa": null, "name:en": "Ahmad Beik Mosque", "addr:street": null, "religion": "muslim", "lon": 49.9975522, "lat": 36.2772944 }, "geometry": { "type": "Point", "coordinates": [ 49.9975522, 36.2772944 ] } },
{ "type": "Feature", "properties": { "name": "مسجد المهدی", "name:fa": null, "name:en": "Almahdi Mosque", "addr:street": null, "religion": "muslim", "lon": 50.0082796, "lat": 36.2718099 }, "geometry": { "type": "Point", "coordinates": [ 50.0082796, 36.2718099 ] } },
{ "type": "Feature", "properties": { "name": "مسجد فاطمه زهرا", "name:fa": null, "name:en": "Fateme Zahra Mosque", "addr:street": null, "religion": "muslim", "lon": 49.9917254, "lat": 36.2997626 }, "geometry": { "type": "Point", "coordinates": [ 49.9917254, 36.2997626 ] } },
{ "type": "Feature", "properties": { "name": "مسجد راه چمان", "name:fa": null, "name:en": "Rah Chaman Mosque", "addr:street": null, "religion": "muslim", "lon": 50.0098543, "lat": 36.2590818 }, "geometry": { "type": "Point", "coordinates": [ 50.0098543, 36.2590818 ] } },
{ "type": "Feature", "properties": { "name": "مسجد هفت درب", "name:fa": null, "name:en": "Haft Dar Mosque", "addr:street": null, "religion": "muslim", "lon": 50.0002068, "lat": 36.2650547 }, "geometry": { "type": "Point", "coordinates": [ 50.0002068, 36.2650547 ] } },
{ "type": "Feature", "properties": { "name": "مسجد", "name:fa": null, "name:en": "Mosque", "addr:street": null, "religion": "muslim", "lon": 50.0178633, "lat": 36.2740592 }, "geometry": { "type": "Point", "coordinates": [ 50.0178633, 36.2740592 ] } },
{ "type": "Feature", "properties": { "name": "مسجد لعل", "name:fa": null, "name:en": "Laal Mosque", "addr:street": null, "religion": "muslim", "lon": 49.9967591, "lat": 36.2599463 }, "geometry": { "type": "Point", "coordinates": [ 49.9967591, 36.2599463 ] } },
{ "type": "Feature", "properties": { "name": "مسچد امام حسن", "name:fa": null, "name:en": "Imam Hassan Mosque", "addr:street": null, "religion": "muslim", "lon": 49.9985806, "lat": 36.2723771 }, "geometry": { "type": "Point", "coordinates": [ 49.9985806, 36.2723771 ] } },
{ "type": "Feature", "properties": { "name": "مسجد چهارده معصوم", "name:fa": null, "name:en": "14th Masoom Mosque", "addr:street": null, "religion": "muslim", "lon": 49.9988891, "lat": 36.2880926 }, "geometry": { "type": "Point", "coordinates": [ 49.9988891, 36.2880926 ] } },
{ "type": "Feature", "properties": { "name": "مسجد امامیه", "name:fa": null, "name:en": null, "addr:street": null, "religion": null, "lon": 49.9946687, "lat": 36.2601421 }, "geometry": { "type": "Point", "coordinates": [ 49.9946687, 36.2601421 ] } },
{ "type": "Feature", "properties": { "name": "مسجد امام علی", "name:fa": null, "name:en": "Emam Ali Mosque", "addr:street": null, "religion": null, "lon": 49.9875314, "lat": 36.3266128 }, "geometry": { "type": "Point", "coordinates": [ 49.9875314, 36.3266128 ] } },
{ "type": "Feature", "properties": { "name": "مسجد صاحب‌الزمان عج.", "name:fa": null, "name:en": null, "addr:street": null, "religion": "muslim", "lon": 50.0225501, "lat": 36.2929384 }, "geometry": { "type": "Point", "coordinates": [ 50.0225501, 36.2929384 ] } },
{ "type": "Feature", "properties": { "name": "درب آشپزخانه مسجد صالحيه", "name:fa": null, "name:en": null, "addr:street": null, "religion": "muslim", "lon": 49.9958412, "lat": 36.267204 }, "geometry": { "type": "Point", "coordinates": [ 49.9958412, 36.267204 ] } },
{ "type": "Feature", "properties": { "name": "مسجد میمنت (امام صادق(ع)", "name:fa": null, "name:en": null, "addr:street": "شهید جعفری", "religion": "muslim", "lon": 49.9975596, "lat": 36.2637256 }, "geometry": { "type": "Point", "coordinates": [ 49.9975596, 36.2637256 ] } },
{ "type": "Feature", "properties": { "name": "Abul Fazl (AS) Mosque", "name:fa": "مسجد حضرت ابوالفضل", "name:en": null, "addr:street": null, "religion": "muslim", "lon": 50.0242641, "lat": 36.3085912 }, "geometry": { "type": "Point", "coordinates": [ 50.0242641, 36.3085912 ] } },
{ "type": "Feature", "properties": { "name": "حسینیه مرحوم سید باقر محمدی نسب", "name:fa": null, "name:en": null, "addr:street": null, "religion": "muslim", "lon": 50.0002029, "lat": 36.2670014 }, "geometry": { "type": "Point", "coordinates": [ 50.0002029, 36.2670014 ] } },
{ "type": "Feature", "properties": { "name": "مسجد فاطمه الزهراء", "name:fa": null, "name:en": null, "addr:street": null, "religion": "muslim", "lon": 50.0152014, "lat": 36.3077123 }, "geometry": { "type": "Point", "coordinates": [ 50.0152014, 36.3077123 ] } },
{ "type": "Feature", "properties": { "name": "حسینیه امام علی", "name:fa": null, "name:en": null, "addr:street": null, "religion": "muslim", "lon": 49.9931118, "lat": 36.3202496 }, "geometry": { "type": "Point", "coordinates": [ 49.9931118, 36.3202496 ] } },
{ "type": "Feature", "properties": { "name": "حسینیه آیت الله سامت (ره)", "name:fa": null, "name:en": null, "addr:street": null, "religion": null, "lon": 50.0020811, "lat": 36.2713821 }, "geometry": { "type": "Point", "coordinates": [ 50.0020811, 36.2713821 ] } },
{ "type": "Feature", "properties": { "name": "مسجد غدیر", "name:fa": null, "name:en": "Qadir mosque", "addr:street": null, "religion": "muslim", "lon": 50.018706692960457, "lat": 36.299162099102666 }, "geometry": { "type": "Point", "coordinates": [ 50.018706692960457, 36.299162099102666 ] } },
{ "type": "Feature", "properties": { "name": "مسجد امام رضا (علیه‌السلام)", "name:fa": null, "name:en": "Imam Reza Mosque", "addr:street": null, "religion": "muslim", "lon": 50.020888437656978, "lat": 36.295767395378867 }, "geometry": { "type": "Point", "coordinates": [ 50.020888437656978, 36.295767395378867 ] } },
{ "type": "Feature", "properties": { "name": "مسجد ولایت", "name:fa": null, "name:en": "Velayat", "addr:street": null, "religion": "muslim", "lon": 50.011537891892864, "lat": 36.287888585437472 }, "geometry": { "type": "Point", "coordinates": [ 50.011537891892864, 36.287888585437472 ] } },
{ "type": "Feature", "properties": { "name": "مسجد محمد رسول الله", "name:fa": null, "name:en": "Mohammad Rasolallah Mosque", "addr:street": null, "religion": "muslim", "lon": 50.013833123199966, "lat": 36.280060843588359 }, "geometry": { "type": "Point", "coordinates": [ 50.013833123199966, 36.280060843588359 ] } },
{ "type": "Feature", "properties": { "name": "امامزاده حسین", "name:fa": null, "name:en": "Emamzadeh Hossein shrine", "addr:street": null, "religion": "muslim", "lon": 50.000666431237946, "lat": 36.257211881998124 }, "geometry": { "type": "Point", "coordinates": [ 50.000666431237946, 36.257211881998124 ] } },
{ "type": "Feature", "properties": { "name": "مسجد سنجیده", "name:fa": null, "name:en": "Sanjideh Mosque", "addr:street": null, "religion": "muslim", "lon": 50.007836940904625, "lat": 36.255106061528835 }, "geometry": { "type": "Point", "coordinates": [ 50.007836940904625, 36.255106061528835 ] } },
{ "type": "Feature", "properties": { "name": "مسجد پنجه علی", "name:fa": null, "name:en": "Panje Ali Mosque", "addr:street": null, "religion": "muslim", "lon": 50.002347359129971, "lat": 36.266633174511746 }, "geometry": { "type": "Point", "coordinates": [ 50.002347359129971, 36.266633174511746 ] } },
{ "type": "Feature", "properties": { "name": "حسینیه حضرت ابوالفضل", "name:fa": null, "name:en": "Hazrat Abolfazl", "addr:street": null, "religion": "muslim", "lon": 50.010519064072177, "lat": 36.300218038837841 }, "geometry": { "type": "Point", "coordinates": [ 50.010519064072177, 36.300218038837841 ] } },
{ "type": "Feature", "properties": { "name": "آرامگاه چهار انبیاء", "name:fa": null, "name:en": "Tomb of The Four Prophets", "addr:street": null, "religion": "muslim", "lon": 50.002946898500056, "lat": 36.268412834843147 }, "geometry": { "type": "Point", "coordinates": [ 50.002946898500056, 36.268412834843147 ] } },
{ "type": "Feature", "properties": { "name": "مسجد امام خمینی", "name:fa": null, "name:en": "Emam Khomeini Mosque", "addr:street": null, "religion": null, "lon": 50.00137805, "lat": 36.29689105 }, "geometry": { "type": "Point", "coordinates": [ 50.00137805, 36.29689105 ] } },
{ "type": "Feature", "properties": { "name": "امامزاده سلطان سید محمد", "name:fa": null, "name:en": "Emamzadeh Soltan Seyed Mohamad", "addr:street": null, "religion": "muslim", "lon": 49.992042936596583, "lat": 36.263880870471752 }, "geometry": { "type": "Point", "coordinates": [ 49.992042936596583, 36.263880870471752 ] } },
{ "type": "Feature", "properties": { "name": "مسجد جامع المهدی مینودر", "name:fa": null, "name:en": "Al Mahdi Mosque", "addr:street": null, "religion": "muslim", "lon": 49.989584335630177, "lat": 36.311165913220748 }, "geometry": { "type": "Point", "coordinates": [ 49.989584335630177, 36.311165913220748 ] } },
{ "type": "Feature", "properties": { "name": "مسجد امام جعفر صادق(ع)", "name:fa": null, "name:en": null, "addr:street": "بلوار دانشگاه بین‌المللی امام خمینی", "religion": "muslim", "lon": 50.012926731752081, "lat": 36.3104528045452 }, "geometry": { "type": "Point", "coordinates": [ 50.012926731752081, 36.3104528045452 ] } },
{ "type": "Feature", "properties": { "name": null, "name:fa": null, "name:en": null, "addr:street": null, "religion": null, "lon": 50.015930943160427, "lat": 36.2872596140569 }, "geometry": { "type": "Point", "coordinates": [ 50.015930943160427, 36.2872596140569 ] } },
{ "type": "Feature", "properties": { "name": "مسجدالنبی", "name:fa": null, "name:en": "Nabi Mosque", "addr:street": null, "religion": "muslim", "lon": 49.999013845287692, "lat": 36.268257539421974 }, "geometry": { "type": "Point", "coordinates": [ 49.999013845287692, 36.268257539421974 ] } },
{ "type": "Feature", "properties": { "name": "مسجد جامع عتیق", "name:fa": null, "name:en": "Jameh Mosque of Qazvin", "addr:street": null, "religion": "muslim", "lon": 50.00193916259677, "lat": 36.261023107386663 }, "geometry": { "type": "Point", "coordinates": [ 50.00193916259677, 36.261023107386663 ] } },
{ "type": "Feature", "properties": { "name": "مسجد شیخ الاسلام", "name:fa": null, "name:en": "Sheykhol Eslam Mosque", "addr:street": null, "religion": null, "lon": 50.004383322834826, "lat": 36.264307539796199 }, "geometry": { "type": "Point", "coordinates": [ 50.004383322834826, 36.264307539796199 ] } },
{ "type": "Feature", "properties": { "name": "مسجد ولیعصر", "name:fa": null, "name:en": "Valiasr Mosque", "addr:street": null, "religion": null, "lon": 50.017873425692564, "lat": 36.266276348839895 }, "geometry": { "type": "Point", "coordinates": [ 50.017873425692564, 36.266276348839895 ] } },
{ "type": "Feature", "properties": { "name": "مسجد جوادالائمه", "name:fa": null, "name:en": "JavadolAemmeh Mosque", "addr:street": null, "religion": null, "lon": 49.997585652617083, "lat": 36.272842573639856 }, "geometry": { "type": "Point", "coordinates": [ 49.997585652617083, 36.272842573639856 ] } },
{ "type": "Feature", "properties": { "name": "مسجد طفلان مسلم", "name:fa": null, "name:en": "Teflane Moslem Mosque", "addr:street": null, "religion": null, "lon": 50.001057353887397, "lat": 36.250346577869408 }, "geometry": { "type": "Point", "coordinates": [ 50.001057353887397, 36.250346577869408 ] } },
{ "type": "Feature", "properties": { "name": "مسجد طاق بهلول مکتب الزهرا", "name:fa": null, "name:en": "Tagh Bohloul Mosque", "addr:street": null, "religion": null, "lon": 50.00440353486411, "lat": 36.258146603401663 }, "geometry": { "type": "Point", "coordinates": [ 50.00440353486411, 36.258146603401663 ] } },
{ "type": "Feature", "properties": { "name": "مسجد شهید ثالث", "name:fa": null, "name:en": "Shahid Sales Mosque", "addr:street": null, "religion": null, "lon": 50.001620331647047, "lat": 36.258802529170495 }, "geometry": { "type": "Point", "coordinates": [ 50.001620331647047, 36.258802529170495 ] } },
{ "type": "Feature", "properties": { "name": "مسجد دباغان", "name:fa": null, "name:en": "Dabbaghan Mosque", "addr:street": null, "religion": null, "lon": 49.999950343180451, "lat": 36.259130049407936 }, "geometry": { "type": "Point", "coordinates": [ 49.999950343180451, 36.259130049407936 ] } },
{ "type": "Feature", "properties": { "name": "مسجد حاج ملاآقا", "name:fa": null, "name:en": "Haj Molla Aqa Mosque", "addr:street": null, "religion": null, "lon": 50.000110255142395, "lat": 36.269724292909203 }, "geometry": { "type": "Point", "coordinates": [ 50.000110255142395, 36.269724292909203 ] } },
{ "type": "Feature", "properties": { "name": "مسجد کریم اهل بیت", "name:fa": null, "name:en": "Karim Ahle Beyt Mosque", "addr:street": null, "religion": null, "lon": 49.990114851324435, "lat": 36.27498862321535 }, "geometry": { "type": "Point", "coordinates": [ 49.990114851324435, 36.27498862321535 ] } },
{ "type": "Feature", "properties": { "name": "مسجد قدس رضوی", "name:fa": null, "name:en": "Ghods Razavi Mosque", "addr:street": null, "religion": null, "lon": 50.016792707031442, "lat": 36.275926310440106 }, "geometry": { "type": "Point", "coordinates": [ 50.016792707031442, 36.275926310440106 ] } },
{ "type": "Feature", "properties": { "name": "مسجد عدل قائم", "name:fa": null, "name:en": "Adl Ghaem Mosque", "addr:street": null, "religion": null, "lon": 50.006282683418753, "lat": 36.27809155427159 }, "geometry": { "type": "Point", "coordinates": [ 50.006282683418753, 36.27809155427159 ] } },
{ "type": "Feature", "properties": { "name": "مسجد حضرت ابوالفضل", "name:fa": null, "name:en": "Hazrat Abolfazl Mosque", "addr:street": null, "religion": null, "lon": 49.998478173830783, "lat": 36.281503158671306 }, "geometry": { "type": "Point", "coordinates": [ 49.998478173830783, 36.281503158671306 ] } },
{ "type": "Feature", "properties": { "name": "مسجد امام موسی جعفر", "name:fa": null, "name:en": "Imam Musa Bn Ja'far Mosque", "addr:street": null, "religion": null, "lon": 50.001514468430834, "lat": 36.28820178212144 }, "geometry": { "type": "Point", "coordinates": [ 50.001514468430834, 36.28820178212144 ] } },
{ "type": "Feature", "properties": { "name": "مسجد سیدالشهدا", "name:fa": null, "name:en": "Seyedoshohada Mosque", "addr:street": null, "religion": null, "lon": 49.998216722432367, "lat": 36.289594922722962 }, "geometry": { "type": "Point", "coordinates": [ 49.998216722432367, 36.289594922722962 ] } },
{ "type": "Feature", "properties": { "name": "مسجد صاحب الزمان", "name:fa": null, "name:en": "Sahebazaman Mosque", "addr:street": null, "religion": null, "lon": 49.999425285471538, "lat": 36.290640338377479 }, "geometry": { "type": "Point", "coordinates": [ 49.999425285471538, 36.290640338377479 ] } },
{ "type": "Feature", "properties": { "name": "مسجد امام حسین", "name:fa": null, "name:en": "Imam Hosein Mosque", "addr:street": null, "religion": null, "lon": 49.999106997069731, "lat": 36.291522116190364 }, "geometry": { "type": "Point", "coordinates": [ 49.999106997069731, 36.291522116190364 ] } },
{ "type": "Feature", "properties": { "name": "مسجد حضرت مهدی", "name:fa": null, "name:en": "Hazrat Mahdi Mosque", "addr:street": null, "religion": null, "lon": 50.006886582981615, "lat": 36.291565970978802 }, "geometry": { "type": "Point", "coordinates": [ 50.006886582981615, 36.291565970978802 ] } },
{ "type": "Feature", "properties": { "name": "مسجد صاحب الزمان", "name:fa": null, "name:en": "Sahebazaman Mosque", "addr:street": null, "religion": null, "lon": 50.007988656609548, "lat": 36.295203285570601 }, "geometry": { "type": "Point", "coordinates": [ 50.007988656609548, 36.295203285570601 ] } },
{ "type": "Feature", "properties": { "name": "مسجد مسلم بن عقیل", "name:fa": null, "name:en": "Moslem ebn Aghil Mosque", "addr:street": null, "religion": null, "lon": 49.98693074842776, "lat": 36.321991448659084 }, "geometry": { "type": "Point", "coordinates": [ 49.98693074842776, 36.321991448659084 ] } },
{ "type": "Feature", "properties": { "name": "مسجد امام هادی", "name:fa": null, "name:en": "Imam Hadi Mosque", "addr:street": null, "religion": null, "lon": 50.000718243555553, "lat": 36.317120404043891 }, "geometry": { "type": "Point", "coordinates": [ 50.000718243555553, 36.317120404043891 ] } },
{ "type": "Feature", "properties": { "name": "مسجد فاطمه زهرا", "name:fa": null, "name:en": "Fatemeh Al-Zahra Mosque", "addr:street": null, "religion": null, "lon": 50.026064236494705, "lat": 36.312378693147387 }, "geometry": { "type": "Point", "coordinates": [ 50.026064236494705, 36.312378693147387 ] } },
{ "type": "Feature", "properties": { "name": "مسجد صاحب الزمان", "name:fa": null, "name:en": "Sahebazaman Mosque", "addr:street": null, "religion": null, "lon": 50.020080534600424, "lat": 36.310172858032509 }, "geometry": { "type": "Point", "coordinates": [ 50.020080534600424, 36.310172858032509 ] } },
{ "type": "Feature", "properties": { "name": "مسجد امام حسن عسگری", "name:fa": null, "name:en": "Imam Hasan Asgari Mosque", "addr:street": null, "religion": null, "lon": 50.017877391855698, "lat": 36.308082726669554 }, "geometry": { "type": "Point", "coordinates": [ 50.017877391855698, 36.308082726669554 ] } },
{ "type": "Feature", "properties": { "name": "مسجد امام حسین", "name:fa": null, "name:en": "Imam Hosein Mosque", "addr:street": null, "religion": null, "lon": 50.006795012371079, "lat": 36.244472170314104 }, "geometry": { "type": "Point", "coordinates": [ 50.006795012371079, 36.244472170314104 ] } },
{ "type": "Feature", "properties": { "name": "مسجد جواد الائمه", "name:fa": null, "name:en": "JavadoAemeh Mosque", "addr:street": null, "religion": null, "lon": 50.005587893560161, "lat": 36.248143397420961 }, "geometry": { "type": "Point", "coordinates": [ 50.005587893560161, 36.248143397420961 ] } },
{ "type": "Feature", "properties": { "name": "مسجد حسینی", "name:fa": null, "name:en": "Hossein Mosque", "addr:street": null, "religion": null, "lon": 50.004712353342377, "lat": 36.250331665386284 }, "geometry": { "type": "Point", "coordinates": [ 50.004712353342377, 36.250331665386284 ] } },
{ "type": "Feature", "properties": { "name": "مسجد خواجه شهدا", "name:fa": null, "name:en": "Khajeh Shohada Mosque", "addr:street": null, "religion": null, "lon": 49.990803212543817, "lat": 36.26114925528951 }, "geometry": { "type": "Point", "coordinates": [ 49.990803212543817, 36.26114925528951 ] } },
{ "type": "Feature", "properties": { "name": "مسجد حضرت فاطمه زهرا", "name:fa": null, "name:en": "Fatemeh Zahra Mosque", "addr:street": null, "religion": null, "lon": 49.9851623680212, "lat": 36.259535308507772 }, "geometry": { "type": "Point", "coordinates": [ 49.9851623680212, 36.259535308507772 ] } },
{ "type": "Feature", "properties": { "name": "مسجد آقا میرعبدالصمد تقوی", "name:fa": null, "name:en": "AghaMirAbdolSamad Taghavi Mosque", "addr:street": null, "religion": null, "lon": 49.997808998859433, "lat": 36.262122604918403 }, "geometry": { "type": "Point", "coordinates": [ 49.997808998859433, 36.262122604918403 ] } },
{ "type": "Feature", "properties": { "name": "مسجد شهید ثالث", "name:fa": null, "name:en": "Shahid thales Mosque", "addr:street": null, "religion": null, "lon": 49.99670943509701, "lat": 36.267933633015751 }, "geometry": { "type": "Point", "coordinates": [ 49.99670943509701, 36.267933633015751 ] } },
{ "type": "Feature", "properties": { "name": "مسجد چهارده معصوم", "name:fa": null, "name:en": "Chahardah Masoum Mosque", "addr:street": null, "religion": null, "lon": 49.993592848868261, "lat": 36.265797330002755 }, "geometry": { "type": "Point", "coordinates": [ 49.993592848868261, 36.265797330002755 ] } },
{ "type": "Feature", "properties": { "name": "مسجد حاج غلامحسین توحید", "name:fa": null, "name:en": "Haj GholamHosein Mosque", "addr:street": null, "religion": null, "lon": 49.993118138381398, "lat": 36.26721868425566 }, "geometry": { "type": "Point", "coordinates": [ 49.993118138381398, 36.26721868425566 ] } },
{ "type": "Feature", "properties": { "name": "مسجد حجتی", "name:fa": null, "name:en": "Hojjati Mosque", "addr:street": null, "religion": null, "lon": 49.994995479695561, "lat": 36.270693559070324 }, "geometry": { "type": "Point", "coordinates": [ 49.994995479695561, 36.270693559070324 ] } },
{ "type": "Feature", "properties": { "name": "مسجد محمدخان بیگ", "name:fa": null, "name:en": "Mohammad Khan Beg Mosque", "addr:street": null, "religion": null, "lon": 49.994051962166246, "lat": 36.274298839142027 }, "geometry": { "type": "Point", "coordinates": [ 49.994051962166246, 36.274298839142027 ] } },
{ "type": "Feature", "properties": { "name": "مسجد ملکی جنوبی", "name:fa": null, "name:en": "Maleki Jonoubi Mosque", "addr:street": null, "religion": null, "lon": 49.997223100037516, "lat": 36.274787871049533 }, "geometry": { "type": "Point", "coordinates": [ 49.997223100037516, 36.274787871049533 ] } },
{ "type": "Feature", "properties": { "name": "مسجد ملکی شمالی", "name:fa": null, "name:en": "Maleki Shomali Mosque", "addr:street": null, "religion": null, "lon": 49.997455176082546, "lat": 36.275350659019701 }, "geometry": { "type": "Point", "coordinates": [ 49.997455176082546, 36.275350659019701 ] } },
{ "type": "Feature", "properties": { "name": "حسینیه مسلم ابن عقیل", "name:fa": null, "name:en": "Molem ebn Aghil Hosseinieh", "addr:street": null, "religion": null, "lon": 49.991557451789753, "lat": 36.292979821613002 }, "geometry": { "type": "Point", "coordinates": [ 49.991557451789753, 36.292979821613002 ] } },
{ "type": "Feature", "properties": { "name": "حسینیه یادگار امام", "name:fa": null, "name:en": "Yadegar Imam Hosseinieh", "addr:street": null, "religion": null, "lon": 50.026428257627153, "lat": 36.318034296696894 }, "geometry": { "type": "Point", "coordinates": [ 50.026428257627153, 36.318034296696894 ] } },
{ "type": "Feature", "properties": { "name": "مسجد شهید آیت اله دستغیب", "name:fa": null, "name:en": "Dastgheyb Mosque", "addr:street": null, "religion": null, "lon": 49.996196584475207, "lat": 36.268342054336919 }, "geometry": { "type": "Point", "coordinates": [ 49.996196584475207, 36.268342054336919 ] } },
{ "type": "Feature", "properties": { "name": "حسینیه آقاسیدجمال", "name:fa": null, "name:en": "Agha Seyyed Jamal Hosseinieh", "addr:street": null, "religion": null, "lon": 50.000171459014673, "lat": 36.261834931590506 }, "geometry": { "type": "Point", "coordinates": [ 50.000171459014673, 36.261834931590506 ] } }
]
}
