{
"type": "FeatureCollection",
"crs": { "type": "name", "properties": { "name": "urn:ogc:def:crs:OGC:1.3:CRS84" } },
"features": [
{ "type": "Feature", "properties": { "element_type": "node", "osmid": 5020194024.0, "name": "بیمارستان کوثر", "name:en": "Kowsar Hospital", "operator": "public", "lat": "36.2691757", "lon": "50.0144158", "id": "Kowsar Hospital" }, "geometry": { "type": "Point", "coordinates": [ 50.0144158, 36.2691757 ] } },
{ "type": "Feature", "properties": { "element_type": "way", "osmid": 258606430.0, "name": "بیمارستان ولایت", "name:en": "Velayat Hospital", "operator": "public", "lat": "36.32359808747064", "lon": "49.99764165198211", "id": "Velayat Hospital" }, "geometry": { "type": "Point", "coordinates": [ 49.997641651982114, 36.323598087470643 ] } },
{ "type": "Feature", "properties": { "element_type": "way", "osmid": 320553607.0, "name": "بیمارستان شهید رجایی", "name:en": "Shahid Rajayi Hospital", "operator": "public", "lat": "36.28047313917982", "lon": "50.01883483114703", "id": "Shahid Rajayi Hospital" }, "geometry": { "type": "Point", "coordinates": [ 50.018834831147032, 36.280473139179819 ] } },
{ "type": "Feature", "properties": { "element_type": "way", "osmid": 320561453.0, "name": "بیمارستان بوعلی سینا", "name:en": "Bouali Sina(Avecina) Hospital", "operator": "public", "lat": "36.27487547454091", "lon": "50.00513510383298", "id": "Bouali Sina(Avecina) Hospital" }, "geometry": { "type": "Point", "coordinates": [ 50.005135103832977, 36.274875474540913 ] } },
{ "type": "Feature", "properties": { "element_type": "way", "osmid": 361433491.0, "name": "بیمارستان پاستور", "name:en": "Pasteur Hospital", "operator": "private", "lat": "36.26685493300012", "lon": "50.02486872052602", "id": "Pasteur Hospital" }, "geometry": { "type": "Point", "coordinates": [ 50.024868720526023, 36.266854933000118 ] } },
{ "type": "Feature", "properties": { "element_type": "way", "osmid": 408446744.0, "name": "بیمارستان 553 ارتش (شهید بهبودی)", "name:en": "Hospital 553 of Army (Shahid Behboudi)", "operator": "public", "lat": "36.28653999895555", "lon": "50.02206972983908", "id": "Hospital 553 of Army (Shahid Behboudi)" }, "geometry": { "type": "Point", "coordinates": [ 50.022069729839082, 36.286539998955554 ] } },
{ "type": "Feature", "properties": { "element_type": "way", "osmid": 443105773.0, "name": "بیمارستان قدس", "name:en": "Qods Hospital", "operator": "public", "lat": "36.27589091073027", "lon": "50.02503627755776", "id": "Qods Hospital" }, "geometry": { "type": "Point", "coordinates": [ 50.02503627755776, 36.275890910730269 ] } },
{ "type": "Feature", "properties": { "element_type": "way", "osmid": 453412007.0, "name": "بیمارستان مهرگان", "name:en": "Mehregan Hospital", "operator": "private", "lat": "36.27504439526528", "lon": "50.00691069863723", "id": "Mehregan Hospital" }, "geometry": { "type": "Point", "coordinates": [ 50.006910698637228, 36.275044395265283 ] } },
{ "type": "Feature", "properties": { "element_type": "way", "osmid": 471734965.0, "name": "بیمارستان زکریای رازی", "name:en": "Zakariyaye Razi Hospital", "operator": "public", "lat": "36.30426579200834", "lon": "50.02268833118043", "id": "Zakariyaye Razi Hospital" }, "geometry": { "type": "Point", "coordinates": [ 50.022688331180426, 36.304265792008344 ] } },
{ "type": "Feature", "properties": { "element_type": "way", "osmid": 941824479.0, "name": "بیمارستان اعصاب و روان 22 بهمن", "name:en": " 22 Bahman Psychiatric Hospital", "operator": "public", "lat": "36.24494746290039", "lon": "50.00889162514505", "id": " 22 Bahman Psychiatric Hospital" }, "geometry": { "type": "Point", "coordinates": [ 50.008891625145054, 36.244947462900392 ] } },
{ "type": "Feature", "properties": { "element_type": null, "osmid": null, "name": "بیمارستان دهخدا", "name:en": "Dehkhoda Hospital", "operator": "private", "lat": "36.280390735676036", "lon": "50.00756336058157", "id": "Dehkhoda Hospital" }, "geometry": { "type": "Point", "coordinates": [ 50.007563360581571, 36.280390735676036 ] } }
]
}
