{
"type": "FeatureCollection",
"crs": { "type": "name", "properties": { "name": "urn:ogc:def:crs:OGC:1.3:CRS84" } },
"features": [
{ "type": "Feature", "properties": { "name": "دبستان محمد تقی نوروزی", "name:fa": null, "name:en": "Mohammad Taghi Nourozi", "addr:street": "ایرانشهر", "amenity": "school", "building": null }, "geometry": { "type": "Point", "coordinates": [ 50.0175959, 36.2815241 ] } },
{ "type": "Feature", "properties": { "name": "مدرسه استعداد های درخشان (تیز هوشان)", "name:fa": null, "name:en": "Gifted students school", "addr:street": "خیابان پیروزی", "amenity": "school", "building": null }, "geometry": { "type": "Point", "coordinates": [ 50.0239325, 36.3102599 ] } },
{ "type": "Feature", "properties": { "name": "دبستان دخترانه الزهرا", "name:fa": null, "name:en": null, "addr:street": null, "amenity": "school", "building": null }, "geometry": { "type": "Point", "coordinates": [ 50.0049162, 36.3121253 ] } },
{ "type": "Feature", "properties": { "name": "دبیرستان رضی الوالدین - قدس", "name:fa": "دبیرستان رضی الدین - قدس", "name:en": "Qods Highschool", "addr:street": null, "amenity": "school", "building": null }, "geometry": { "type": "Point", "coordinates": [ 50.0175035, 36.272091 ] } },
{ "type": "Feature", "properties": { "name": "دبیرستان استعداد های درخشان شهیدان شالباف", "name:fa": null, "name:en": "استعدادهای درخشان شهیدان شالباف", "addr:street": "عمار", "amenity": "school", "building": null }, "geometry": { "type": "Point", "coordinates": [ 50.0091546, 36.3158715 ] } },
{ "type": "Feature", "properties": { "name": "سپیده کاشانی", "name:fa": null, "name:en": "Sepide Kashani", "addr:street": "سعدی", "amenity": "school", "building": null }, "geometry": { "type": "Point", "coordinates": [ 50.0013084, 36.2861883 ] } },
{ "type": "Feature", "properties": { "name": "ای تی", "name:fa": null, "name:en": "It", "addr:street": "مرجان", "amenity": "school", "building": null }, "geometry": { "type": "Point", "coordinates": [ 50.0083188, 36.276694 ] } },
{ "type": "Feature", "properties": { "name": "دبیرستان حضرت قاسم (ع) و خلیج فارس", "name:fa": null, "name:en": "دبیرستان حضرت قاسم (ع) و خلیج فارس", "addr:street": "آبان", "amenity": "school", "building": null }, "geometry": { "type": "Point", "coordinates": [ 50.0199532, 36.2792369 ] } },
{ "type": "Feature", "properties": { "name": "دبیرستان بخارایی", "name:fa": null, "name:en": "Bokharaei High School", "addr:street": "شفق", "amenity": "school", "building": null }, "geometry": { "type": "Point", "coordinates": [ 50.0067072, 36.3003621 ] } },
{ "type": "Feature", "properties": { "name": "دبیرستان توحید", "name:fa": null, "name:en": "Tohid school", "addr:street": "بلوار آیت الله مدرس", "amenity": "school", "building": null }, "geometry": { "type": "Point", "coordinates": [ 50.0118797, 36.2722958 ] } },
{ "type": "Feature", "properties": { "name": "دبیرستان غیردولتی پاسارگاد", "name:fa": null, "name:en": "Pasargad High Scored", "addr:street": null, "amenity": "school", "building": null }, "geometry": { "type": "Point", "coordinates": [ 50.0193395, 36.278076 ] } },
{ "type": "Feature", "properties": { "name": "دبیرستان فرزانگان", "name:fa": null, "name:en": "Farzanegan Sampad (NODET) High school", "addr:street": null, "amenity": "school", "building": null }, "geometry": { "type": "Point", "coordinates": [ 50.0194005, 36.3005204 ] } },
{ "type": "Feature", "properties": { "name": "مدرسه ی کابل البرز", "name:fa": null, "name:en": null, "addr:street": null, "amenity": "school", "building": null }, "geometry": { "type": "Point", "coordinates": [ 49.9969512, 36.3096302 ] } },
{ "type": "Feature", "properties": { "name": "دبیرستان حضرت قاسم (ع) و خلیج فارس", "name:fa": null, "name:en": null, "addr:street": null, "amenity": "school", "building": null }, "geometry": { "type": "Point", "coordinates": [ 50.019937, 36.2790822 ] } },
{ "type": "Feature", "properties": { "name": "دبیرستان پاسداران", "name:fa": null, "name:en": "Pasdaran highschool", "addr:street": "هلال احمر", "amenity": "school", "building": null }, "geometry": { "type": "Point", "coordinates": [ 50.004097, 36.2677258 ] } },
{ "type": "Feature", "properties": { "name": "مدرسه علوم و معارف اسلامی صدرا ولایت", "name:fa": null, "name:en": null, "addr:street": null, "amenity": "school", "building": null }, "geometry": { "type": "Point", "coordinates": [ 50.0099848, 36.3159534 ] } },
{ "type": "Feature", "properties": { "name": "مدرسه معمارپور", "name:fa": null, "name:en": null, "addr:street": null, "amenity": "school", "building": null }, "geometry": { "type": "Point", "coordinates": [ 50.0190702, 36.2698306 ] } },
{ "type": "Feature", "properties": { "name": "دبیرستان دخترانه  ابوطالب تقوی", "name:fa": null, "name:en": null, "addr:street": "عرفان", "amenity": "school", "building": null }, "geometry": { "type": "Point", "coordinates": [ 49.9982152, 36.2641238 ] } },
{ "type": "Feature", "properties": { "name": "دبستان و پیشدبستانی خردمند", "name:fa": null, "name:en": null, "addr:street": null, "amenity": "school", "building": null }, "geometry": { "type": "Point", "coordinates": [ 50.0260964, 36.3011415 ] } },
{ "type": "Feature", "properties": { "name": "مرکز آموزش مهارت‌های حرفه ای پویش", "name:fa": null, "name:en": null, "addr:street": null, "amenity": "school", "building": null }, "geometry": { "type": "Point", "coordinates": [ 49.9886927, 36.3135279 ] } },
{ "type": "Feature", "properties": { "name": null, "name:fa": null, "name:en": null, "addr:street": null, "amenity": null, "building": "school" }, "geometry": { "type": "Point", "coordinates": [ 50.022736960471981, 36.295750929249856 ] } },
{ "type": "Feature", "properties": { "name": null, "name:fa": null, "name:en": null, "addr:street": null, "amenity": "school", "building": null }, "geometry": { "type": "Point", "coordinates": [ 50.022718543309608, 36.295644563097817 ] } },
{ "type": "Feature", "properties": { "name": "نمونه دولتی صدیقه کبری", "name:fa": null, "name:en": null, "addr:street": null, "amenity": "school", "building": null }, "geometry": { "type": "Point", "coordinates": [ 50.017269390109739, 36.291387971224601 ] } },
{ "type": "Feature", "properties": { "name": "عرفان", "name:fa": null, "name:en": "Erfan", "addr:street": null, "amenity": "school", "building": null }, "geometry": { "type": "Point", "coordinates": [ 50.013351052797248, 36.292643248443795 ] } },
{ "type": "Feature", "properties": { "name": "هنرستان فنی خاتم الانبیا", "name:fa": null, "name:en": "Khatamol anbia Technical School", "addr:street": null, "amenity": "school", "building": null }, "geometry": { "type": "Point", "coordinates": [ 50.022060397291618, 36.2990233119857 ] } },
{ "type": "Feature", "properties": { "name": "هنرستان فنی انقلاب اسلامی", "name:fa": null, "name:en": "Enghelab-e-Eslami Technical school", "addr:street": null, "amenity": "school", "building": null }, "geometry": { "type": "Point", "coordinates": [ 50.022425253532987, 36.299431859453641 ] } },
{ "type": "Feature", "properties": { "name": "مدرسه شاهد", "name:fa": null, "name:en": "Shahed", "addr:street": null, "amenity": "school", "building": null }, "geometry": { "type": "Point", "coordinates": [ 50.01035482035401, 36.290266335565974 ] } },
{ "type": "Feature", "properties": { "name": "مدرسه شاهد", "name:fa": null, "name:en": "Shahed", "addr:street": null, "amenity": "school", "building": null }, "geometry": { "type": "Point", "coordinates": [ 50.010112680394855, 36.289624086000501 ] } },
{ "type": "Feature", "properties": { "name": null, "name:fa": null, "name:en": null, "addr:street": null, "amenity": null, "building": "school" }, "geometry": { "type": "Point", "coordinates": [ 50.013428915813982, 36.292712817007676 ] } },
{ "type": "Feature", "properties": { "name": "مدرسه متوسطه دوم علامه امینی", "name:fa": null, "name:en": null, "addr:street": null, "amenity": "school", "building": null }, "geometry": { "type": "Point", "coordinates": [ 50.00797485451487, 36.282931433234111 ] } },
{ "type": "Feature", "properties": { "name": "هنرستان چمران", "name:fa": null, "name:en": "Chamran", "addr:street": null, "amenity": null, "building": "school" }, "geometry": { "type": "Point", "coordinates": [ 50.000303245819666, 36.27960660894157 ] } },
{ "type": "Feature", "properties": { "name": "دبیرستان نمونه دولتی نوروزیان", "name:fa": null, "name:en": "Nourozian School", "addr:street": "خیام شمالی", "amenity": "school", "building": null }, "geometry": { "type": "Point", "coordinates": [ 50.010317867745968, 36.280708373702467 ] } },
{ "type": "Feature", "properties": { "name": "مدرسه نوروزیان", "name:fa": null, "name:en": "Nourozian School Building", "addr:street": null, "amenity": null, "building": "school" }, "geometry": { "type": "Point", "coordinates": [ 50.010359340480257, 36.28086415444421 ] } },
{ "type": "Feature", "properties": { "name": null, "name:fa": null, "name:en": null, "addr:street": null, "amenity": "school", "building": null }, "geometry": { "type": "Point", "coordinates": [ 50.006846670878133, 36.257210309869279 ] } },
{ "type": "Feature", "properties": { "name": null, "name:fa": null, "name:en": null, "addr:street": null, "amenity": null, "building": "school" }, "geometry": { "type": "Point", "coordinates": [ 50.006678493676638, 36.257340451244261 ] } },
{ "type": "Feature", "properties": { "name": "ذبیرستان ابوطالب تقوی", "name:fa": null, "name:en": null, "addr:street": null, "amenity": "school", "building": null }, "geometry": { "type": "Point", "coordinates": [ 49.998262146843324, 36.263987820915219 ] } },
{ "type": "Feature", "properties": { "name": null, "name:fa": null, "name:en": null, "addr:street": null, "amenity": "school", "building": null }, "geometry": { "type": "Point", "coordinates": [ 50.013142676228718, 36.269914446472768 ] } },
{ "type": "Feature", "properties": { "name": "مدرسه راهنمایی شاهد", "name:fa": null, "name:en": "Shahed School", "addr:street": null, "amenity": "school", "building": null }, "geometry": { "type": "Point", "coordinates": [ 50.0203819, 36.29997395 ] } },
{ "type": "Feature", "properties": { "name": "مرکز آموزشی استعداد های درخشان شهید بابایی قزوین - دوره دوم - دبیرستان", "name:fa": null, "name:en": "Martyr Babayi elites Highschool", "addr:street": null, "amenity": "school", "building": null }, "geometry": { "type": "Point", "coordinates": [ 50.020687210297879, 36.300634914847052 ] } },
{ "type": "Feature", "properties": { "name": null, "name:fa": null, "name:en": null, "addr:street": null, "amenity": "school", "building": null }, "geometry": { "type": "Point", "coordinates": [ 50.007909953793629, 36.282892017210351 ] } },
{ "type": "Feature", "properties": { "name": "مدرسه جابرابن حیان", "name:fa": null, "name:en": "Jaberebn e Hayyan", "addr:street": null, "amenity": "school", "building": null }, "geometry": { "type": "Point", "coordinates": [ 50.018987168906627, 36.306814675884624 ] } },
{ "type": "Feature", "properties": { "name": "مدرسه نجاتیه", "name:fa": null, "name:en": "Nejatiye", "addr:street": null, "amenity": "school", "building": null }, "geometry": { "type": "Point", "coordinates": [ 50.031507253212119, 36.309745091053308 ] } },
{ "type": "Feature", "properties": { "name": null, "name:fa": null, "name:en": null, "addr:street": null, "amenity": null, "building": "school" }, "geometry": { "type": "Point", "coordinates": [ 50.008097370174717, 36.27636648340637 ] } },
{ "type": "Feature", "properties": { "name": null, "name:fa": null, "name:en": null, "addr:street": null, "amenity": null, "building": "school" }, "geometry": { "type": "Point", "coordinates": [ 50.008659734737797, 36.276510548495317 ] } },
{ "type": "Feature", "properties": { "name": "مدرسه فاطمه الزهرا", "name:fa": null, "name:en": null, "addr:street": null, "amenity": "school", "building": null }, "geometry": { "type": "Point", "coordinates": [ 50.010532598699363, 36.269487179895535 ] } },
{ "type": "Feature", "properties": { "name": "دبیرستان غیر دولتی دانشمند", "name:fa": null, "name:en": "Daneshmand High School", "addr:street": null, "amenity": "school", "building": null }, "geometry": { "type": "Point", "coordinates": [ 50.0265915, 36.31849325 ] } },
{ "type": "Feature", "properties": { "name": "دبستان زنده یاد امین رامبد", "name:fa": null, "name:en": "Amin Rambood", "addr:street": null, "amenity": "school", "building": null }, "geometry": { "type": "Point", "coordinates": [ 50.004654311048895, 36.272944188803855 ] } },
{ "type": "Feature", "properties": { "name": null, "name:fa": null, "name:en": null, "addr:street": null, "amenity": null, "building": "school" }, "geometry": { "type": "Point", "coordinates": [ 49.997493356033409, 36.278019831560421 ] } },
{ "type": "Feature", "properties": { "name": null, "name:fa": null, "name:en": null, "addr:street": null, "amenity": null, "building": "school" }, "geometry": { "type": "Point", "coordinates": [ 50.004375317682751, 36.296466650900868 ] } },
{ "type": "Feature", "properties": { "name": null, "name:fa": null, "name:en": null, "addr:street": null, "amenity": null, "building": "school" }, "geometry": { "type": "Point", "coordinates": [ 50.007596374238361, 36.29634021110553 ] } },
{ "type": "Feature", "properties": { "name": "دبستان هیئت امنایی رشادت", "name:fa": null, "name:en": "Reshadat", "addr:street": null, "amenity": "school", "building": null }, "geometry": { "type": "Point", "coordinates": [ 50.007749548531216, 36.29607601674676 ] } },
{ "type": "Feature", "properties": { "name": null, "name:fa": null, "name:en": null, "addr:street": null, "amenity": "school", "building": null }, "geometry": { "type": "Point", "coordinates": [ 50.002811684818731, 36.278917912365486 ] } },
{ "type": "Feature", "properties": { "name": null, "name:fa": null, "name:en": null, "addr:street": null, "amenity": "school", "building": null }, "geometry": { "type": "Point", "coordinates": [ 50.00235189880393, 36.279089422261052 ] } },
{ "type": "Feature", "properties": { "name": null, "name:fa": null, "name:en": null, "addr:street": null, "amenity": "school", "building": null }, "geometry": { "type": "Point", "coordinates": [ 50.026631937367611, 36.311173376294306 ] } },
{ "type": "Feature", "properties": { "name": null, "name:fa": null, "name:en": null, "addr:street": null, "amenity": "school", "building": null }, "geometry": { "type": "Point", "coordinates": [ 50.026245467726682, 36.31113876112736 ] } },
{ "type": "Feature", "properties": { "name": null, "name:fa": null, "name:en": null, "addr:street": null, "amenity": null, "building": "school" }, "geometry": { "type": "Point", "coordinates": [ 50.026598172232681, 36.311374667713267 ] } },
{ "type": "Feature", "properties": { "name": null, "name:fa": null, "name:en": null, "addr:street": null, "amenity": null, "building": "school" }, "geometry": { "type": "Point", "coordinates": [ 50.026186, 36.3113552 ] } },
{ "type": "Feature", "properties": { "name": "دبیرستان استعداد های درخشان شهید بابایی", "name:fa": null, "name:en": null, "addr:street": null, "amenity": "school", "building": null }, "geometry": { "type": "Point", "coordinates": [ 50.02662884676765, 36.310583470741832 ] } },
{ "type": "Feature", "properties": { "name": null, "name:fa": null, "name:en": null, "addr:street": null, "amenity": null, "building": "school" }, "geometry": { "type": "Point", "coordinates": [ 50.026490267282078, 36.310668927058508 ] } },
{ "type": "Feature", "properties": { "name": "هنرستان شهید انصاری", "name:fa": null, "name:en": null, "addr:street": null, "amenity": "school", "building": "yes" }, "geometry": { "type": "Point", "coordinates": [ 50.010793197459876, 36.258604427228178 ] } },
{ "type": "Feature", "properties": { "name": "دبیرستان صدرا", "name:fa": null, "name:en": "Sadra", "addr:street": null, "amenity": "school", "building": null }, "geometry": { "type": "Point", "coordinates": [ 50.011027331179093, 36.282012844937633 ] } },
{ "type": "Feature", "properties": { "name": null, "name:fa": null, "name:en": null, "addr:street": null, "amenity": null, "building": "school" }, "geometry": { "type": "Point", "coordinates": [ 50.011150807382307, 36.282119825506442 ] } },
{ "type": "Feature", "properties": { "name": "دبیرستان هیت امنایی دکتر علی شریعتی", "name:fa": null, "name:en": null, "addr:street": null, "amenity": "school", "building": null }, "geometry": { "type": "Point", "coordinates": [ 49.994930262843724, 36.324072247931142 ] } },
{ "type": "Feature", "properties": { "name": "مدرسه راهنمایی تربیت", "name:fa": null, "name:en": "Tarbiat", "addr:street": null, "amenity": "school", "building": null }, "geometry": { "type": "Point", "coordinates": [ 49.998372477992021, 36.292905007496294 ] } },
{ "type": "Feature", "properties": { "name": "دبستان لوازم خانگی پارس", "name:fa": null, "name:en": null, "addr:street": null, "amenity": "school", "building": null }, "geometry": { "type": "Point", "coordinates": [ 49.987360047420651, 36.309694981362235 ] } },
{ "type": "Feature", "properties": { "name": null, "name:fa": null, "name:en": null, "addr:street": null, "amenity": null, "building": "school" }, "geometry": { "type": "Point", "coordinates": [ 49.987494628804711, 36.309838758869049 ] } },
{ "type": "Feature", "properties": { "name": "مدرسه استثنایی", "name:fa": null, "name:en": "Exceptional Children School", "addr:street": null, "amenity": "school", "building": null }, "geometry": { "type": "Point", "coordinates": [ 49.985647786203216, 36.310380933853772 ] } },
{ "type": "Feature", "properties": { "name": null, "name:fa": null, "name:en": null, "addr:street": null, "amenity": null, "building": "school" }, "geometry": { "type": "Point", "coordinates": [ 49.985689359792289, 36.31055316903236 ] } },
{ "type": "Feature", "properties": { "name": "دبستان شهیدی", "name:fa": null, "name:en": "Shahidi", "addr:street": null, "amenity": "school", "building": null }, "geometry": { "type": "Point", "coordinates": [ 50.005616916021538, 36.269750985853925 ] } },
{ "type": "Feature", "properties": { "name": "مدرسه آینده سازان نوین", "name:fa": null, "name:en": "Ayande Sazan Novin", "addr:street": "خیابان مصیب مرادی", "amenity": "school", "building": null }, "geometry": { "type": "Point", "coordinates": [ 50.033163880730598, 36.316514730851296 ] } },
{ "type": "Feature", "properties": { "name": "دبیرستان عرفان", "name:fa": null, "name:en": "Erfan High School", "addr:street": null, "amenity": "school", "building": null }, "geometry": { "type": "Point", "coordinates": [ 50.012625016449299, 36.297718565239244 ] } },
{ "type": "Feature", "properties": { "name": "دبیرستان دهخدا و فارابی", "name:fa": null, "name:en": "Dehkhoda And Farabi High school", "addr:street": null, "amenity": null, "building": "school" }, "geometry": { "type": "Point", "coordinates": [ 49.999654832203312, 36.272963985850154 ] } },
{ "type": "Feature", "properties": { "name": null, "name:fa": null, "name:en": null, "addr:street": null, "amenity": "school", "building": null }, "geometry": { "type": "Point", "coordinates": [ 49.99961323230972, 36.272850872009492 ] } },
{ "type": "Feature", "properties": { "name": "دبستان شهید شیرودی و حاج سید فضل اله قوام", "name:fa": null, "name:en": "Shirodi and Haj Seyed Fazlollah Ghavam", "addr:street": null, "amenity": "school", "building": null }, "geometry": { "type": "Point", "coordinates": [ 50.008792622952264, 36.272459275077225 ] } },
{ "type": "Feature", "properties": { "name": "دبیرستان هیئت امنایی شیخ طوسی و کلینی", "name:fa": null, "name:en": "Sheykh e Toosi and Kalini", "addr:street": null, "amenity": "school", "building": null }, "geometry": { "type": "Point", "coordinates": [ 50.009085486875279, 36.272361554543643 ] } },
{ "type": "Feature", "properties": { "name": null, "name:fa": null, "name:en": null, "addr:street": null, "amenity": "school", "building": null }, "geometry": { "type": "Point", "coordinates": [ 50.006658757609351, 36.266284779096488 ] } },
{ "type": "Feature", "properties": { "name": "مدرسه عبداللهی", "name:fa": null, "name:en": "Abdollahi School", "addr:street": null, "amenity": "school", "building": null }, "geometry": { "type": "Point", "coordinates": [ 50.017588600710745, 36.307529027045916 ] } },
{ "type": "Feature", "properties": { "name": "مدرسه سعادت", "name:fa": null, "name:en": "Sa'adat School", "addr:street": null, "amenity": "school", "building": null }, "geometry": { "type": "Point", "coordinates": [ 50.017452256601239, 36.307142083272169 ] } },
{ "type": "Feature", "properties": { "name": "Dabirestan Hazrat-e-Ghasem & Khalij-e-Fars", "name:fa": null, "name:en": null, "addr:street": null, "amenity": "school", "building": null }, "geometry": { "type": "Point", "coordinates": [ 50.019638752389959, 36.278786860456677 ] } },
{ "type": "Feature", "properties": { "name": "دبستان ولیعصر", "name:fa": null, "name:en": "Valiasr", "addr:street": null, "amenity": "school", "building": null }, "geometry": { "type": "Point", "coordinates": [ 50.014205574357746, 36.267884194263765 ] } },
{ "type": "Feature", "properties": { "name": null, "name:fa": null, "name:en": null, "addr:street": null, "amenity": "school", "building": null }, "geometry": { "type": "Point", "coordinates": [ 50.011691152346991, 36.272054779825432 ] } },
{ "type": "Feature", "properties": { "name": "دبیرستان نمونه دولتی اقمشه", "name:fa": null, "name:en": "Aghmashe High School", "addr:street": null, "amenity": "school", "building": null }, "geometry": { "type": "Point", "coordinates": [ 50.021026001030471, 36.272474759459868 ] } },
{ "type": "Feature", "properties": { "name": null, "name:fa": null, "name:en": null, "addr:street": null, "amenity": "school", "building": null }, "geometry": { "type": "Point", "coordinates": [ 50.002324537725677, 36.281381607295302 ] } },
{ "type": "Feature", "properties": { "name": "مدرسه صادقین", "name:fa": null, "name:en": null, "addr:street": null, "amenity": null, "building": "school" }, "geometry": { "type": "Point", "coordinates": [ 50.00048604320942, 36.295106229696103 ] } },
{ "type": "Feature", "properties": { "name": "مدرسه عبادی", "name:fa": null, "name:en": null, "addr:street": null, "amenity": null, "building": "school" }, "geometry": { "type": "Point", "coordinates": [ 50.001367200064749, 36.29521974834946 ] } },
{ "type": "Feature", "properties": { "name": null, "name:fa": null, "name:en": null, "addr:street": null, "amenity": null, "building": "school" }, "geometry": { "type": "Point", "coordinates": [ 50.002381236478406, 36.281494225740147 ] } },
{ "type": "Feature", "properties": { "name": "مدرسه همت", "name:fa": null, "name:en": "Hemmat School", "addr:street": null, "amenity": "school", "building": null }, "geometry": { "type": "Point", "coordinates": [ 50.002068411904624, 36.280998165566103 ] } },
{ "type": "Feature", "properties": { "name": null, "name:fa": null, "name:en": null, "addr:street": null, "amenity": null, "building": "school" }, "geometry": { "type": "Point", "coordinates": [ 50.002103033043944, 36.281066552141603 ] } },
{ "type": "Feature", "properties": { "name": "مدرسه ابتدایی رضا دشتی", "name:fa": null, "name:en": null, "addr:street": null, "amenity": null, "building": "school" }, "geometry": { "type": "Point", "coordinates": [ 50.011949619149235, 36.256589400137159 ] } },
{ "type": "Feature", "properties": { "name": null, "name:fa": null, "name:en": null, "addr:street": null, "amenity": "school", "building": null }, "geometry": { "type": "Point", "coordinates": [ 50.016063176827984, 36.31040373061456 ] } },
{ "type": "Feature", "properties": { "name": "دبیرستان زنده یاد مجابی", "name:fa": null, "name:en": null, "addr:street": null, "amenity": "school", "building": null }, "geometry": { "type": "Point", "coordinates": [ 49.994464324535436, 36.324058511927355 ] } },
{ "type": "Feature", "properties": { "name": "دبیرستان دخترانه اندیشه سبز", "name:fa": null, "name:en": null, "addr:street": null, "amenity": "school", "building": null }, "geometry": { "type": "Point", "coordinates": [ 49.993341146623465, 36.311146124696272 ] } },
{ "type": "Feature", "properties": { "name": null, "name:fa": null, "name:en": null, "addr:street": null, "amenity": "school", "building": null }, "geometry": { "type": "Point", "coordinates": [ 49.997624368287838, 36.29249584350616 ] } },
{ "type": "Feature", "properties": { "name": null, "name:fa": null, "name:en": null, "addr:street": null, "amenity": "school", "building": null }, "geometry": { "type": "Point", "coordinates": [ 49.998279951248648, 36.293743289913202 ] } },
{ "type": "Feature", "properties": { "name": null, "name:fa": null, "name:en": null, "addr:street": null, "amenity": "school", "building": null }, "geometry": { "type": "Point", "coordinates": [ 49.998614735161375, 36.293390815266214 ] } },
{ "type": "Feature", "properties": { "name": null, "name:fa": null, "name:en": null, "addr:street": null, "amenity": "school", "building": null }, "geometry": { "type": "Point", "coordinates": [ 49.993332129901781, 36.31157778300522 ] } },
{ "type": "Feature", "properties": { "name": "دبیرستان دخترانه متانت", "name:fa": null, "name:en": null, "addr:street": null, "amenity": "school", "building": null }, "geometry": { "type": "Point", "coordinates": [ 49.993338683971359, 36.312183523176394 ] } },
{ "type": "Feature", "properties": { "name": "دبیرستان علامه جعفری", "name:fa": null, "name:en": "Allame Jafari High school", "addr:street": null, "amenity": "school", "building": null }, "geometry": { "type": "Point", "coordinates": [ 49.991056621430822, 36.320292821647456 ] } },
{ "type": "Feature", "properties": { "name": "دبیرستان سعادت", "name:fa": null, "name:en": null, "addr:street": null, "amenity": "school", "building": null }, "geometry": { "type": "Point", "coordinates": [ 50.023702489401813, 36.29481388166954 ] } },
{ "type": "Feature", "properties": { "name": "دبیرستان ایران دخت", "name:fa": null, "name:en": null, "addr:street": null, "amenity": "school", "building": null }, "geometry": { "type": "Point", "coordinates": [ 50.022723724766699, 36.273097072564653 ] } },
{ "type": "Feature", "properties": { "name": null, "name:fa": null, "name:en": null, "addr:street": null, "amenity": null, "building": "school" }, "geometry": { "type": "Point", "coordinates": [ 50.008464763698647, 36.276219317327978 ] } }
]
}
