{
"type": "FeatureCollection",
"crs": { "type": "name", "properties": { "name": "urn:ogc:def:crs:OGC:1.3:CRS84" } },
"features": [
{ "type": "Feature", "properties": { "name": "وین مارکت طلائیه", "brand": "وین مارکت", "lat": 36.3231819, "lon": 49.9897715 }, "geometry": { "type": "Point", "coordinates": [ 49.9897715, 36.3231819 ] } },
{ "type": "Feature", "properties": { "name": "افق کوروش", "brand": "افق کوروش", "lat": 36.3092932, "lon": 50.0009271 }, "geometry": { "type": "Point", "coordinates": [ 50.0009271, 36.3092932 ] } },
{ "type": "Feature", "properties": { "name": "افق کوروش", "brand": "افق کوروش", "lat": 36.3248614, "lon": 49.9978285 }, "geometry": { "type": "Point", "coordinates": [ 49.9978285, 36.3248614 ] } },
{ "type": "Feature", "properties": { "name": "افق کوروش", "brand": "افق کوروش", "lat": 36.319524, "lon": 49.9940724 }, "geometry": { "type": "Point", "coordinates": [ 49.9940724, 36.319524 ] } },
{ "type": "Feature", "properties": { "name": "فروشگاه وین مارکت", "brand": "وین مارکت", "lat": 36.2904083, "lon": 50.0166162 }, "geometry": { "type": "Point", "coordinates": [ 50.0166162, 36.2904083 ] } },
{ "type": "Feature", "properties": { "name": "افق کوروش", "brand": "افق کوروش", "lat": 36.2907414, "lon": 50.0173027 }, "geometry": { "type": "Point", "coordinates": [ 50.0173027, 36.2907414 ] } },
{ "type": "Feature", "properties": { "name": "دیلی مارکت", "brand": "دیلی مارکت", "lat": 36.2916516, "lon": 50.0142234 }, "geometry": { "type": "Point", "coordinates": [ 50.0142234, 36.2916516 ] } },
{ "type": "Feature", "properties": { "name": "فروشگاه مواد غذایی سورنا", "brand": "سورنا", "lat": 36.2953948, "lon": 50.0100285 }, "geometry": { "type": "Point", "coordinates": [ 50.0100285, 36.2953948 ] } },
{ "type": "Feature", "properties": { "name": "دیلی مارکت بلوار", "brand": "دیلی مارکت", "lat": 36.2799937, "lon": 50.0135276 }, "geometry": { "type": "Point", "coordinates": [ 50.0135276, 36.2799937 ] } },
{ "type": "Feature", "properties": { "name": "رفاه", "brand": "رفاه", "lat": 36.296596464279446, "lon": 49.996790563326641 }, "geometry": { "type": "Point", "coordinates": [ 49.996790563326641, 36.296596464279446 ] } },
{ "type": "Feature", "properties": { "name": "افق کوروش", "brand": "افق کوروش", "lat": 36.26319546725329, "lon": 50.015680748473365 }, "geometry": { "type": "Point", "coordinates": [ 50.015680748473365, 36.26319546725329 ] } },
{ "type": "Feature", "properties": { "name": "افق کوروش بلوار نخبگان(بعد از تقاطع پیروزی)", "brand": "افق کوروش", "lat": 36.312094516138295, "lon": 50.032844861191982 }, "geometry": { "type": "Point", "coordinates": [ 50.032844861191982, 36.312094516138295 ] } },
{ "type": "Feature", "properties": { "name": "افق کوروش روبروی دانشگاه رجاء", "brand": "افق کوروش", "lat": 36.307691529802234, "lon": 50.012751280770338 }, "geometry": { "type": "Point", "coordinates": [ 50.012751280770338, 36.307691529802234 ] } },
{ "type": "Feature", "properties": { "name": "افق کوروش نوروزیان (جنوب شرقی تقاطع بلوار معلم)", "brand": "افق کوروش", "lat": 36.300537272390024, "lon": 50.01037549785913 }, "geometry": { "type": "Point", "coordinates": [ 50.01037549785913, 36.300537272390024 ] } },
{ "type": "Feature", "properties": { "name": "افق کوروش بلوار آزادگان غیاث آباد", "brand": "افق کوروش", "lat": 36.292770815379306, "lon": 50.004682757619364 }, "geometry": { "type": "Point", "coordinates": [ 50.004682757619364, 36.292770815379306 ] } },
{ "type": "Feature", "properties": { "name": "افق کوروش خ منتظری", "brand": "افق کوروش", "lat": 36.260257140441297, "lon": 49.992468653063177 }, "geometry": { "type": "Point", "coordinates": [ 49.992468653063177, 36.260257140441297 ] } },
{ "type": "Feature", "properties": { "name": "افق کوروش میدان عارف(روبروی پارک ملت)", "brand": "افق کوروش", "lat": 36.273897083210102, "lon": 50.013286562110238 }, "geometry": { "type": "Point", "coordinates": [ 50.013286562110238, 36.273897083210102 ] } },
{ "type": "Feature", "properties": { "name": "زنجیره ای یاس شمال شرقی میدان انقلاب", "brand": "زنجیره ای یاس", "lat": 36.30987342521486, "lon": 50.003246358249477 }, "geometry": { "type": "Point", "coordinates": [ 50.003246358249477, 36.30987342521486 ] } },
{ "type": "Feature", "properties": { "name": "زنجیره ای یاس خ سعدی روبروی خ یاسین", "brand": "زنجیره ای یاس", "lat": 36.276675969691901, "lon": 49.99813154340611 }, "geometry": { "type": "Point", "coordinates": [ 49.99813154340611, 36.276675969691901 ] } },
{ "type": "Feature", "properties": { "name": "حیات مارکت جنوب میدان جانبازان", "brand": "حیات مارکت", "lat": 36.306033337346314, "lon": 50.026412597507282 }, "geometry": { "type": "Point", "coordinates": [ 50.026412597507282, 36.306033337346314 ] } },
{ "type": "Feature", "properties": { "name": "جانبو مینودر نبش خ قیام", "brand": "جانبو", "lat": 36.324348291397357, "lon": 49.992737886842697 }, "geometry": { "type": "Point", "coordinates": [ 49.992737886842697, 36.324348291397357 ] } },
{ "type": "Feature", "properties": { "name": "جانبو خ پیروزی محل چهارشنبه بازار", "brand": "جانبو", "lat": 36.309589175482202, "lon": 50.020917687861889 }, "geometry": { "type": "Point", "coordinates": [ 50.020917687861889, 36.309589175482202 ] } },
{ "type": "Feature", "properties": { "name": "جانبو اول خ نادری", "brand": "جانبو", "lat": 36.270650344041215, "lon": 50.003390901194592 }, "geometry": { "type": "Point", "coordinates": [ 50.003390901194592, 36.270650344041215 ] } },
{ "type": "Feature", "properties": { "name": "جانبو چهارراه ولیعصر", "brand": "جانبو", "lat": 36.267219296151573, "lon": 50.016980409203377 }, "geometry": { "type": "Point", "coordinates": [ 50.016980409203377, 36.267219296151573 ] } },
{ "type": "Feature", "properties": { "name": "هایپر کیپر اول خ ولایت", "brand": "هایپر کیپر", "lat": 36.285349731738222, "lon": 50.021237418121565 }, "geometry": { "type": "Point", "coordinates": [ 50.021237418121565, 36.285349731738222 ] } },
{ "type": "Feature", "properties": { "name": "هفت در میدان لوازم خانگی (طفلان مسلم)", "brand": "هفت", "lat": 36.306618186595372, "lon": 49.992072865096155 }, "geometry": { "type": "Point", "coordinates": [ 49.992072865096155, 36.306618186595372 ] } },
{ "type": "Feature", "properties": { "name": "هفت خ پیروزی نزدیک تقاطع بلوار ایران", "brand": "هفت", "lat": 36.310266136934167, "lon": 50.025955569295064 }, "geometry": { "type": "Point", "coordinates": [ 50.025955569295064, 36.310266136934167 ] } },
{ "type": "Feature", "properties": { "name": "هفت بلوار شهید بابایی نبش خ مهاجر", "brand": "هفت", "lat": 36.296228950415511, "lon": 50.018405355521239 }, "geometry": { "type": "Point", "coordinates": [ 50.018405355521239, 36.296228950415511 ] } },
{ "type": "Feature", "properties": { "name": "هفت خ سعدی روبروی خ یاسین", "brand": "هفت", "lat": 36.277195473942399, "lon": 49.998294900407664 }, "geometry": { "type": "Point", "coordinates": [ 49.998294900407664, 36.277195473942399 ] } },
{ "type": "Feature", "properties": { "name": "هفت بلوار حکم آباد پایین پارک ملت", "brand": "هفت", "lat": 36.270872046203912, "lon": 50.015295435292344 }, "geometry": { "type": "Point", "coordinates": [ 50.015295435292344, 36.270872046203912 ] } },
{ "type": "Feature", "properties": { "name": "دیلی مارکت خ بوعلی بین تقاطع با خ نادری و خ سعدی", "brand": "دیلی مارکت", "lat": 36.274887378313537, "lon": 49.99990089855951 }, "geometry": { "type": "Point", "coordinates": [ 49.99990089855951, 36.274887378313537 ] } },
{ "type": "Feature", "properties": { "name": "دیلی مارکت خ سعدی روبروی خ شیخ آباد", "brand": "دیلی مارکت", "lat": 36.272262730027137, "lon": 49.997397859888963 }, "geometry": { "type": "Point", "coordinates": [ 49.997397859888963, 36.272262730027137 ] } },
{ "type": "Feature", "properties": { "name": "دیلی مارکت خ منتظری نزدیک مسجد راه چمن", "brand": "دیلی مارکت", "lat": 36.259113916639237, "lon": 50.00915621670778 }, "geometry": { "type": "Point", "coordinates": [ 50.00915621670778, 36.259113916639237 ] } },
{ "type": "Feature", "properties": { "name": "هایپرمی میدان میرعماد", "brand": "هایپرمی", "lat": 36.280566509152337, "lon": 50.005281948833748 }, "geometry": { "type": "Point", "coordinates": [ 50.005281948833748, 36.280566509152337 ] } },
{ "type": "Feature", "properties": { "name": "وال مارکت بلوار شهیدبابایی نبش کوچه ارادت", "brand": "وال مارکت", "lat": 36.289434551370512, "lon": 50.013088149837984 }, "geometry": { "type": "Point", "coordinates": [ 50.013088149837984, 36.289434551370512 ] } },
{ "type": "Feature", "properties": { "name": "اتکا بلوار حکیم کنار بوستان ارکیده", "brand": "اتکا", "lat": 36.314344282133092, "lon": 50.019098402311137 }, "geometry": { "type": "Point", "coordinates": [ 50.019098402311137, 36.314344282133092 ] } },
{ "type": "Feature", "properties": { "name": "اتکا بلوار شهید محلاتی", "brand": "اتکا", "lat": 36.30965688002388, "lon": 49.998386073718521 }, "geometry": { "type": "Point", "coordinates": [ 49.998386073718521, 36.30965688002388 ] } },
{ "type": "Feature", "properties": { "name": "اتکا میدان ارتش", "brand": "اتکا", "lat": 36.28016490246722, "lon": 50.026132918783375 }, "geometry": { "type": "Point", "coordinates": [ 50.026132918783375, 36.28016490246722 ] } },
{ "type": "Feature", "properties": { "name": "رفاه نوروزیان روبروی کوچه حکمت بیستم", "brand": "رفاه", "lat": 36.29775609399627, "lon": 50.009125138136653 }, "geometry": { "type": "Point", "coordinates": [ 50.009125138136653, 36.29775609399627 ] } },
{ "type": "Feature", "properties": { "name": "رفاه پل طالقانی", "brand": "رفاه", "lat": 36.268000594448253, "lon": 50.01287070703323 }, "geometry": { "type": "Point", "coordinates": [ 50.01287070703323, 36.268000594448253 ] } },
{ "type": "Feature", "properties": { "name": "سورنا خ آبگینه", "brand": "سورنا", "lat": 36.308100206597992, "lon": 49.994208021380331 }, "geometry": { "type": "Point", "coordinates": [ 49.994208021380331, 36.308100206597992 ] } },
{ "type": "Feature", "properties": { "name": "سورنا بلوار ارتباطات نزدیک میدان مادر", "brand": "سورنا", "lat": 36.295789621627605, "lon": 49.998826857499111 }, "geometry": { "type": "Point", "coordinates": [ 49.998826857499111, 36.295789621627605 ] } },
{ "type": "Feature", "properties": { "name": "سورنا محله توحید روبروی پارک توحید", "brand": "سورنا", "lat": 36.270868932570366, "lon": 50.018338451434779 }, "geometry": { "type": "Point", "coordinates": [ 50.018338451434779, 36.270868932570366 ] } },
{ "type": "Feature", "properties": { "name": "وین مارکت خ پیروزی روبروی خ وحدت هفتم", "brand": "وین مارکت", "lat": 36.309989794238589, "lon": 50.024008643994321 }, "geometry": { "type": "Point", "coordinates": [ 50.024008643994321, 36.309989794238589 ] } },
{ "type": "Feature", "properties": { "name": "وین مارکت بلوار آزادگان نبش خ ذوالقدر", "brand": "وین مارکت", "lat": 36.298675986583241, "lon": 50.001776981948602 }, "geometry": { "type": "Point", "coordinates": [ 50.001776981948602, 36.298675986583241 ] } },
{ "type": "Feature", "properties": { "name": "وین مارکت خ منتظری روبروی خ سلامگاه", "brand": "وین مارکت", "lat": 36.259829618486307, "lon": 50.00141483535036 }, "geometry": { "type": "Point", "coordinates": [ 50.00141483535036, 36.259829618486307 ] } },
{ "type": "Feature", "properties": { "name": "وین مارکت خ راه آهن نبش کوچه صفری", "brand": "وین مارکت", "lat": 36.251360416278651, "lon": 50.005027967905747 }, "geometry": { "type": "Point", "coordinates": [ 50.005027967905747, 36.251360416278651 ] } },
{ "type": "Feature", "properties": { "name": "تعاونی مصرف فرهنگیان اول خ نادری", "brand": "تعاونی مصرف فرهنگیان", "lat": 36.276019017008274, "lon": 50.004002163498406 }, "geometry": { "type": "Point", "coordinates": [ 50.004002163498406, 36.276019017008274 ] } },
{ "type": "Feature", "properties": { "name": "امیران در تقاطع بلوار نخبگان و خ پیروزی", "brand": "امیران", "lat": 36.310723317740681, "lon": 50.031906199066256 }, "geometry": { "type": "Point", "coordinates": [ 50.031906199066256, 36.310723317740681 ] } },
{ "type": "Feature", "properties": { "name": "گندم در الهیه خ توانا", "brand": "گندم", "lat": 36.325930967428626, "lon": 49.99916496195231 }, "geometry": { "type": "Point", "coordinates": [ 49.99916496195231, 36.325930967428626 ] } },
{ "type": "Feature", "properties": { "name": "مینومارت بلوار ملاصدرا", "brand": "مینومارت", "lat": 36.304577583853593, "lon": 50.028807889784709 }, "geometry": { "type": "Point", "coordinates": [ 50.028807889784709, 36.304577583853593 ] } },
{ "type": "Feature", "properties": { "name": "هفت در خ منتظری (تهران قدیم) نزدیک هتل بیگلر بین کوچه اسوه و هدایت فر", "brand": "هفت", "lat": 36.259108182530198, "lon": 50.00705666298046 }, "geometry": { "type": "Point", "coordinates": [ 50.00705666298046, 36.259108182530198 ] } },
{ "type": "Feature", "properties": { "name": "هایپراستار مجتمع نیایش در چهارراه ویعصر", "brand": "هایپراستار", "lat": 36.266120035404185, "lon": 50.023607156468188 }, "geometry": { "type": "Point", "coordinates": [ 50.023607156468188, 36.266120035404185 ] } }
]
}
