{
"type": "FeatureCollection",
"crs": { "type": "name", "properties": { "name": "urn:ogc:def:crs:OGC:1.3:CRS84" } },
"features": [
{ "type": "Feature", "properties": { "name": "سالن ورزشی شهید رجایی دانشگاه پیام نور\nPayam Nour Gym", "name:fa": null, "name:en": null, "sport": null, "building": null, "leisure": "sports_centre" }, "geometry": { "type": "Point", "coordinates": [ 49.9958297, 36.3176505 ] } },
{ "type": "Feature", "properties": { "name": "باشگاه ورزشی سیمرغ", "name:fa": null, "name:en": null, "sport": "taekwondo;martial_arts;sport", "building": null, "leisure": "sports_centre" }, "geometry": { "type": "Point", "coordinates": [ 50.0057513, 36.2498175 ] } },
{ "type": "Feature", "properties": { "name": "مرکز تخصصی vip یوگا و پیلاتس      هارمونی", "name:fa": null, "name:en": null, "sport": "yoga;pilates", "building": null, "leisure": "stadium" }, "geometry": { "type": "Point", "coordinates": [ 50.0057499, 36.2811205 ] } },
{ "type": "Feature", "properties": { "name": "خانه بدمینتون قزوین", "name:fa": null, "name:en": null, "sport": null, "building": null, "leisure": "sports_centre" }, "geometry": { "type": "Point", "coordinates": [ 49.9933503, 36.3145034 ] } },
{ "type": "Feature", "properties": { "name": "سالن ورزشی صالحین", "name:fa": null, "name:en": null, "sport": null, "building": null, "leisure": "sports_centre" }, "geometry": { "type": "Point", "coordinates": [ 49.992986, 36.3208256 ] } },
{ "type": "Feature", "properties": { "name": "ورزشگاه شهید رجایی", "name:fa": "ورزشگاه شهید رجایی", "name:en": "Shahid Rajaei Stadium", "sport": null, "building": null, "leisure": "stadium" }, "geometry": { "type": "Point", "coordinates": [ 50.02201261762233, 36.267123037616017 ] } },
{ "type": "Feature", "properties": { "name": "ورزشگاه سردار آزادگان", "name:fa": null, "name:en": "Sardar Azadegan Stadium", "sport": "soccer", "building": null, "leisure": "stadium" }, "geometry": { "type": "Point", "coordinates": [ 50.019973376168423, 36.32606584358544 ] } },
{ "type": "Feature", "properties": { "name": "مجموعه ورزشی کانون رشد", "name:fa": null, "name:en": "Kanoon Roshd Sport Complex", "sport": null, "building": "yes", "leisure": "sports_centre" }, "geometry": { "type": "Point", "coordinates": [ 49.994050296009327, 36.325188866705361 ] } },
{ "type": "Feature", "properties": { "name": "مجموعه ورزشی امینی", "name:fa": null, "name:en": "Amini Sport Complex", "sport": null, "building": "yes", "leisure": "sports_centre" }, "geometry": { "type": "Point", "coordinates": [ 50.035695552113182, 36.320506573972686 ] } },
{ "type": "Feature", "properties": { "name": "سالنهای ورزشی یادگار امام", "name:fa": null, "name:en": "Yadegar Imam Sport Salons", "sport": null, "building": "yes", "leisure": "sports_centre" }, "geometry": { "type": "Point", "coordinates": [ 50.03277105, 36.3232541 ] } },
{ "type": "Feature", "properties": { "name": null, "name:fa": null, "name:en": null, "sport": "running", "building": null, "leisure": "sports_centre" }, "geometry": { "type": "Point", "coordinates": [ 49.995274796008523, 36.258497303310918 ] } },
{ "type": "Feature", "properties": { "name": null, "name:fa": null, "name:en": null, "sport": null, "building": "sports_centre", "leisure": null }, "geometry": { "type": "Point", "coordinates": [ 50.006699507245024, 36.282779146576409 ] } },
{ "type": "Feature", "properties": { "name": null, "name:fa": null, "name:en": null, "sport": null, "building": "yes", "leisure": "sports_centre" }, "geometry": { "type": "Point", "coordinates": [ 50.007458032441093, 36.283128955677739 ] } },
{ "type": "Feature", "properties": { "name": "سالن ورزشی", "name:fa": null, "name:en": "Sport Salon", "sport": "futsal", "building": "yes", "leisure": "sports_centre" }, "geometry": { "type": "Point", "coordinates": [ 50.020482820938177, 36.307826161261282 ] } },
{ "type": "Feature", "properties": { "name": "مجتمع ورزشی الغدیر", "name:fa": null, "name:en": "Ghadir Sport complex", "sport": null, "building": null, "leisure": "sports_centre" }, "geometry": { "type": "Point", "coordinates": [ 50.003311216945406, 36.291117378463042 ] } },
{ "type": "Feature", "properties": { "name": "مجموعه فرهنگی ورزشی چمران", "name:fa": null, "name:en": "Chamran Sport Complex", "sport": null, "building": "yes", "leisure": "sports_centre" }, "geometry": { "type": "Point", "coordinates": [ 50.005050144437369, 36.308355703640089 ] } },
{ "type": "Feature", "properties": { "name": "سالن ورزشی", "name:fa": null, "name:en": "Sport Salon", "sport": null, "building": "yes", "leisure": "sports_centre" }, "geometry": { "type": "Point", "coordinates": [ 49.989790608202448, 36.314165482597119 ] } },
{ "type": "Feature", "properties": { "name": "مجموعه ورزشی هلال احمر", "name:fa": null, "name:en": "Helal Ahmar Complex", "sport": null, "building": "yes", "leisure": "sports_centre" }, "geometry": { "type": "Point", "coordinates": [ 50.025257362570308, 36.277719173813168 ] } },
{ "type": "Feature", "properties": { "name": "مجموعه ورزشی هلال احمر", "name:fa": null, "name:en": "Helal Ahmar Sport Complex", "sport": null, "building": null, "leisure": "sports_centre" }, "geometry": { "type": "Point", "coordinates": [ 50.025503655476165, 36.277457639019033 ] } },
{ "type": "Feature", "properties": { "name": "مجتمع ورزشی شهید لشگری", "name:fa": null, "name:en": "Shahid Lashgari Sport Complex", "sport": null, "building": "yes", "leisure": "sports_centre" }, "geometry": { "type": "Point", "coordinates": [ 50.025253404498493, 36.295729323319172 ] } },
{ "type": "Feature", "properties": { "name": "سالن ورزشی", "name:fa": null, "name:en": null, "sport": "basketball;volleyball;table_tennis;fitness;football", "building": null, "leisure": "sports_centre" }, "geometry": { "type": "Point", "coordinates": [ 50.002673815631219, 36.320519351285476 ] } },
{ "type": "Feature", "properties": { "name": "سالن ورزشی امام علی (ع)", "name:fa": null, "name:en": "Sports Hall of Imam Ali", "sport": null, "building": "yes", "leisure": "sports_centre" }, "geometry": { "type": "Point", "coordinates": [ 49.989707125367353, 36.3200549840235 ] } }
]
}
