{
"type": "FeatureCollection",
"crs": { "type": "name", "properties": { "name": "urn:ogc:def:crs:OGC:1.3:CRS84" } },
"features": [
{ "type": "Feature", "properties": { "name": "پاساژ علاء الدین", "name:fa": null, "name:en": "Alla-ed-din Shopping Mall", "description": null, "addr:street": null, "shop": "mall", "building": null }, "geometry": { "type": "Point", "coordinates": [ 50.0013602, 36.2995936 ] } },
{ "type": "Feature", "properties": { "name": "کیف و کفش 313", "name:fa": null, "name:en": null, "description": "فروشگاه کیف و کفش زنانه", "addr:street": "خیابان ساحل", "shop": "leather", "building": "retail" }, "geometry": { "type": "Point", "coordinates": [ 50.0029498, 36.2967613 ] } },
{ "type": "Feature", "properties": { "name": "ستاره شهر", "name:fa": null, "name:en": "City Star Shopping Center", "description": null, "addr:street": null, "shop": null, "building": "commercial" }, "geometry": { "type": "Point", "coordinates": [ 50.00901236691125, 36.272798343921174 ] } },
{ "type": "Feature", "properties": { "name": "مجتمع تجاری اداری نیایش", "name:fa": null, "name:en": "Niayesh shopping center", "description": null, "addr:street": null, "shop": "mall", "building": "yes" }, "geometry": { "type": "Point", "coordinates": [ 50.023885501190442, 36.266580431094283 ] } },
{ "type": "Feature", "properties": { "name": "برج تجارت قزوین", "name:fa": null, "name:en": "Tejarat Tower of Qazvin", "description": null, "addr:street": null, "shop": null, "building": "commercial" }, "geometry": { "type": "Point", "coordinates": [ 50.005426257975678, 36.280787498962098 ] } },
{ "type": "Feature", "properties": { "name": "مرکز خرید نارون", "name:fa": null, "name:en": "Narvan Shopping Center", "description": null, "addr:street": null, "shop": null, "building": "commercial" }, "geometry": { "type": "Point", "coordinates": [ 50.010758616796132, 36.285558596587173 ] } },
{ "type": "Feature", "properties": { "name": "پاساژ مرندی", "name:fa": null, "name:en": "Marandi Shopping Center", "description": null, "addr:street": "خیام شمالی", "shop": null, "building": "commercial" }, "geometry": { "type": "Point", "coordinates": [ 50.009686077445011, 36.277441826885514 ] } },
{ "type": "Feature", "properties": { "name": "برج خلیج فارس", "name:fa": null, "name:en": "Tower of Persian Gulf", "description": null, "addr:street": null, "shop": null, "building": "commercial" }, "geometry": { "type": "Point", "coordinates": [ 50.013479623566994, 36.267987313264129 ] } },
{ "type": "Feature", "properties": { "name": "مجتمع تجاری مهر و ماه", "name:fa": null, "name:en": "Mehr o Mah", "description": null, "addr:street": null, "shop": null, "building": "commercial" }, "geometry": { "type": "Point", "coordinates": [ 50.008138210715018, 36.274294000548025 ] } },
{ "type": "Feature", "properties": { "name": "مجتمع تجاری و اداری آبادگران", "name:fa": null, "name:en": "Abadgaran Shopping Center", "description": null, "addr:street": null, "shop": null, "building": "commercial" }, "geometry": { "type": "Point", "coordinates": [ 50.005851323384334, 36.270567884991685 ] } },
{ "type": "Feature", "properties": { "name": "مجتمع تجاری خیام", "name:fa": "پاساژ خیام", "name:en": "Khayyam Shopping Mall", "description": null, "addr:street": null, "shop": null, "building": "commercial" }, "geometry": { "type": "Point", "coordinates": [ 50.0085694, 36.2714863 ] } },
{ "type": "Feature", "properties": { "name": "فروشگاه تعاونی کشاورزی قزوین", "name:fa": null, "name:en": "Keshavarzi Tavoni Cooperative Store", "description": null, "addr:street": null, "shop": "supermarket", "building": "retail" }, "geometry": { "type": "Point", "coordinates": [ 50.004081384857507, 36.28426748522034 ] } },
{ "type": "Feature", "properties": { "name": "برج خلیج فارس", "name:fa": null, "name:en": "Persian Gulf Tower", "description": null, "addr:street": null, "shop": "mall", "building": "commercial" }, "geometry": { "type": "Point", "coordinates": [ 50.013521980968513, 36.26791058446284 ] } },
{ "type": "Feature", "properties": { "name": "پاساژ", "name:fa": null, "name:en": "Mall", "description": null, "addr:street": null, "shop": null, "building": "commercial" }, "geometry": { "type": "Point", "coordinates": [ 50.007662183011391, 36.268380411306644 ] } },
{ "type": "Feature", "properties": { "name": "هارمونی  (مرکز تخصصی یوگا و پیلاتس )", "name:fa": null, "name:en": null, "description": null, "addr:street": "بلوار میرعماد", "shop": null, "building": "commercial" }, "geometry": { "type": "Point", "coordinates": [ 50.005548171879738, 36.281044291859892 ] } },
{ "type": "Feature", "properties": { "name": "تعطیلات", "name:fa": null, "name:en": "Holiday", "description": null, "addr:street": null, "shop": null, "building": "commercial" }, "geometry": { "type": "Point", "coordinates": [ 50.018415342171409, 36.278629988096363 ] } },
{ "type": "Feature", "properties": { "name": "صتسا", "name:fa": null, "name:en": null, "description": null, "addr:street": null, "shop": null, "building": "commercial" }, "geometry": { "type": "Point", "coordinates": [ 50.027080578982364, 36.306137594083665 ] } },
{ "type": "Feature", "properties": { "name": "مجتمع تجاری البرز", "name:fa": null, "name:en": "Alborz Commerical", "description": null, "addr:street": null, "shop": null, "building": "commercial" }, "geometry": { "type": "Point", "coordinates": [ 50.008815902007058, 36.268851132604809 ] } },
{ "type": "Feature", "properties": { "name": "بازار مبل", "name:fa": null, "name:en": "Mobl", "description": null, "addr:street": null, "shop": null, "building": "commercial" }, "geometry": { "type": "Point", "coordinates": [ 50.02052542142998, 36.276220628906898 ] } },
{ "type": "Feature", "properties": { "name": "مرکز خرید مهستان", "name:fa": null, "name:en": "Mahestan Shopping Center", "description": null, "addr:street": null, "shop": "mall", "building": "commercial" }, "geometry": { "type": "Point", "coordinates": [ 50.00132206013199, 36.298092056345141 ] } },
{ "type": "Feature", "properties": { "name": "پاساژ مرکزی", "name:fa": null, "name:en": "Central Mall", "description": null, "addr:street": null, "shop": null, "building": "commercial" }, "geometry": { "type": "Point", "coordinates": [ 50.002396866814102, 36.269809076411711 ] } },
{ "type": "Feature", "properties": { "name": "میدان تره بار قزوین", "name:fa": "میدان تره بار قزوین", "name:en": null, "description": null, "addr:street": null, "shop": null, "building": "commercial" }, "geometry": { "type": "Point", "coordinates": [ 49.989393597214999, 36.25938085951978 ] } },
{ "type": "Feature", "properties": { "name": "میدان تره بار قزوین", "name:fa": "میدان تره بار قزوین", "name:en": null, "description": null, "addr:street": null, "shop": null, "building": "commercial" }, "geometry": { "type": "Point", "coordinates": [ 49.988645811595134, 36.259738925119777 ] } },
{ "type": "Feature", "properties": { "name": "Apple Store Qazvin", "name:fa": null, "name:en": "Apple Store Qazvin", "description": null, "addr:street": null, "shop": null, "building": "commercial" }, "geometry": { "type": "Point", "coordinates": [ 50.012543029790166, 36.278361865911229 ] } },
{ "type": "Feature", "properties": { "name": "tadbirhesab hamkaran", "name:fa": "شرکت حسابداری تدبیرحساب همکاران", "name:en": null, "description": null, "addr:street": "فلسطین", "shop": null, "building": "commercial" }, "geometry": { "type": "Point", "coordinates": [ 50.016502859939635, 36.27948147979189 ] } },
{ "type": "Feature", "properties": { "name": "مجتمع تجاری پارس", "name:fa": null, "name:en": null, "description": null, "addr:street": null, "shop": "mall", "building": "yes" }, "geometry": { "type": "Point", "coordinates": [ 49.991074824246276, 36.306771652075575 ] } },
{ "type": "Feature", "properties": { "name": "فروشگاه لوازم آرایشی میرکمالی", "name:fa": null, "name:en": null, "description": "ارائه بهترین محصولات آرایشی و بهداشتی با نیم قرن سابقه درخشان", "addr:street": "طالقانی", "shop": null, "building": "commercial" }, "geometry": { "type": "Point", "coordinates": [ 50.008600628789665, 36.268535017585585 ] } },
{ "type": "Feature", "properties": { "name": "مجتمع تجاری دیاکو", "name:fa": "مجتمع تجاری دیاکو", "name:en": "Diaco Commercial Complex", "description": null, "addr:street": null, "shop": null, "building": "commercial" }, "geometry": { "type": "Point", "coordinates": [ 49.987754794180795, 36.264360810045325 ] } },
{ "type": "Feature", "properties": { "name": "لوازم قنادی سوروسات", "name:fa": null, "name:en": null, "description": "فروش انواع وسایل و مواد اولیه نان و شیرینی و کیک", "addr:street": "خیابان ساحل", "shop": "confectionery_tools", "building": "retail" }, "geometry": { "type": "Point", "coordinates": [ 50.003687138109129, 36.297348161691602 ] } },
{ "type": "Feature", "properties": { "name": "کیف و کفش 313", "name:fa": null, "name:en": null, "description": "فروشگاه کیف و کفش زنانه", "addr:street": "خیابان ساحل", "shop": "leather", "building": "retail" }, "geometry": { "type": "Point", "coordinates": [ 50.002950101411749, 36.296762232098054 ] } },
{ "type": "Feature", "properties": { "name": "خانه موی مینا", "name:fa": null, "name:en": null, "description": "خانه موی مینا", "addr:street": "صدری (شفق سابق)", "shop": "hairdresser", "building": "commercial" }, "geometry": { "type": "Point", "coordinates": [ 50.02476735, 36.3029277 ] } },
{ "type": "Feature", "properties": { "name": "Nill Cake", "name:fa": null, "name:en": null, "description": "انواع کیک های تولد، کافی شاپی، عصرانه، چیز کیک و دسرهای مدرن", "addr:street": null, "shop": "pastry", "building": "commercial" }, "geometry": { "type": "Point", "coordinates": [ 49.994527052524305, 36.297998966160947 ] } },
{ "type": "Feature", "properties": { "name": "بانک سرمایه", "name:fa": "بانک سرمایه", "name:en": "Sarmayeh Bank", "description": null, "addr:street": null, "shop": null, "building": "commercial" }, "geometry": { "type": "Point", "coordinates": [ 50.007357433195317, 36.277168408314701 ] } },
{ "type": "Feature", "properties": { "name": "بانک صادرات", "name:fa": "بانک صادرات", "name:en": "Bank Saderat Iran", "description": null, "addr:street": null, "shop": null, "building": "commercial" }, "geometry": { "type": "Point", "coordinates": [ 50.007952881324982, 36.282182076590836 ] } },
{ "type": "Feature", "properties": { "name": "نمایشگاه ماشین", "name:fa": null, "name:en": null, "description": null, "addr:street": null, "shop": "car", "building": "commercial" }, "geometry": { "type": "Point", "coordinates": [ 50.008935596522498, 36.282527505320694 ] } }
]
}
