{
"type": "FeatureCollection",
"crs": { "type": "name", "properties": { "name": "urn:ogc:def:crs:OGC:1.3:CRS84" } },
"features": [
{ "type": "Feature", "properties": { "name": "بانک ملی", "name:fa": null, "name:en": "Bank Melli Iran", "brand": "بانک ملی", "brand:fa": null, "brand:en": "Bank Melli Iran", "atm": "yes", "building:levels": null, "brand:wikidata": "Q806640", "area_m2": 0.0, "lon": 50.0136315, "lat": 36.2909971 }, "geometry": { "type": "Point", "coordinates": [ 50.0136315, 36.2909971 ] } },
{ "type": "Feature", "properties": { "name": "بانک مسکن", "name:fa": null, "name:en": "Bank Maskan", "brand": "بانک مسکن", "brand:fa": null, "brand:en": "Bank Maskan", "atm": "yes", "building:levels": null, "brand:wikidata": "Q4855942", "area_m2": 0.0, "lon": 50.020341, "lat": 36.2988386 }, "geometry": { "type": "Point", "coordinates": [ 50.020341, 36.2988386 ] } },
{ "type": "Feature", "properties": { "name": "بانک سپه", "name:fa": null, "name:en": "Bank Sepah", "brand": "بانک سپه", "brand:fa": null, "brand:en": "Bank Sepah", "atm": "yes", "building:levels": null, "brand:wikidata": "Q2882624", "area_m2": 0.0, "lon": 50.0128142, "lat": 36.2896887 }, "geometry": { "type": "Point", "coordinates": [ 50.0128142, 36.2896887 ] } },
{ "type": "Feature", "properties": { "name": "بانک ملت", "name:fa": null, "name:en": "Bank Mellat", "brand": "بانک ملت", "brand:fa": null, "brand:en": "Bank Mellat", "atm": "yes", "building:levels": null, "brand:wikidata": "Q4855944", "area_m2": 0.0, "lon": 50.0124044, "lat": 36.2890158 }, "geometry": { "type": "Point", "coordinates": [ 50.0124044, 36.289015799999987 ] } },
{ "type": "Feature", "properties": { "name": "بانک صادرات", "name:fa": "بانک صادرات", "name:en": "Bank Saderat Iran", "brand": "بانک صادرات", "brand:fa": "بانک صادرات", "brand:en": "Bank Saderat Iran", "atm": "yes", "building:levels": null, "brand:wikidata": "Q2882608", "area_m2": 0.0, "lon": 50.0192897, "lat": 36.2974123 }, "geometry": { "type": "Point", "coordinates": [ 50.0192897, 36.2974123 ] } },
{ "type": "Feature", "properties": { "name": "بانک ملت", "name:fa": null, "name:en": "Bank Mellat", "brand": "بانک ملت", "brand:fa": null, "brand:en": "Bank Mellat", "atm": "yes", "building:levels": null, "brand:wikidata": "Q4855944", "area_m2": 0.0, "lon": 50.0174741, "lat": 36.2954644 }, "geometry": { "type": "Point", "coordinates": [ 50.0174741, 36.2954644 ] } },
{ "type": "Feature", "properties": { "name": "بانک مهر", "name:fa": null, "name:en": "Mehr", "brand": null, "brand:fa": null, "brand:en": null, "atm": "yes", "building:levels": null, "brand:wikidata": null, "area_m2": 0.0, "lon": 50.0188637, "lat": 36.2968318 }, "geometry": { "type": "Point", "coordinates": [ 50.0188637, 36.2968318 ] } },
{ "type": "Feature", "properties": { "name": "بانک رفاه", "name:fa": null, "name:en": "Refah Bank", "brand": "بانک رفاه", "brand:fa": null, "brand:en": "Refah Bank", "atm": "yes", "building:levels": null, "brand:wikidata": "Q7307083", "area_m2": 0.0, "lon": 50.0189508, "lat": 36.2969425 }, "geometry": { "type": "Point", "coordinates": [ 50.0189508, 36.2969425 ] } },
{ "type": "Feature", "properties": { "name": "بانک مسکن", "name:fa": null, "name:en": "Bank Maskan", "brand": "بانک مسکن", "brand:fa": null, "brand:en": "Bank Maskan", "atm": "yes", "building:levels": null, "brand:wikidata": "Q4855942", "area_m2": 0.0, "lon": 50.0090602, "lat": 36.2842973 }, "geometry": { "type": "Point", "coordinates": [ 50.0090602, 36.2842973 ] } },
{ "type": "Feature", "properties": { "name": "بانک سپه", "name:fa": null, "name:en": "Bank Sepah", "brand": "بانک سپه", "brand:fa": null, "brand:en": "Bank Sepah", "atm": "yes", "building:levels": null, "brand:wikidata": "Q2882624", "area_m2": 0.0, "lon": 50.0038568, "lat": 36.2621808 }, "geometry": { "type": "Point", "coordinates": [ 50.0038568, 36.2621808 ] } },
{ "type": "Feature", "properties": { "name": "بانک سپه", "name:fa": null, "name:en": "Bank Sepah", "brand": "بانک سپه", "brand:fa": null, "brand:en": "Bank Sepah", "atm": "yes", "building:levels": null, "brand:wikidata": "Q2882624", "area_m2": 0.0, "lon": 50.0009069, "lat": 36.2844211 }, "geometry": { "type": "Point", "coordinates": [ 50.0009069, 36.2844211 ] } },
{ "type": "Feature", "properties": { "name": "بانک ملی", "name:fa": null, "name:en": "Melli Bank", "brand": null, "brand:fa": null, "brand:en": null, "atm": "yes", "building:levels": null, "brand:wikidata": null, "area_m2": 0.0, "lon": 49.9953776, "lat": 36.285617 }, "geometry": { "type": "Point", "coordinates": [ 49.9953776, 36.285617 ] } },
{ "type": "Feature", "properties": { "name": "بانک اقتصاد نوین", "name:fa": null, "name:en": "EN Bank", "brand": "بانک اقتصاد نوین", "brand:fa": null, "brand:en": "EN Bank", "atm": "yes", "building:levels": null, "brand:wikidata": "Q5323768", "area_m2": 0.0, "lon": 50.0034025, "lat": 36.2705205 }, "geometry": { "type": "Point", "coordinates": [ 50.0034025, 36.270520499999989 ] } },
{ "type": "Feature", "properties": { "name": "بانک مسکن", "name:fa": null, "name:en": "Bank Maskan", "brand": "بانک مسکن", "brand:fa": null, "brand:en": "Bank Maskan", "atm": null, "building:levels": null, "brand:wikidata": "Q4855942", "area_m2": 0.0, "lon": 50.0134178, "lat": 36.3091883 }, "geometry": { "type": "Point", "coordinates": [ 50.0134178, 36.3091883 ] } },
{ "type": "Feature", "properties": { "name": "بانک مسکن", "name:fa": null, "name:en": "Bank Maskan", "brand": "بانک مسکن", "brand:fa": null, "brand:en": "Bank Maskan", "atm": null, "building:levels": null, "brand:wikidata": "Q4855942", "area_m2": 0.0, "lon": 50.0193505, "lat": 36.2664037 }, "geometry": { "type": "Point", "coordinates": [ 50.0193505, 36.2664037 ] } },
{ "type": "Feature", "properties": { "name": "بانک صادرات", "name:fa": null, "name:en": "Bank Saderat Iran", "brand": "بانک صادرات", "brand:fa": null, "brand:en": "Bank Saderat Iran", "atm": null, "building:levels": null, "brand:wikidata": "Q2882608", "area_m2": 0.0, "lon": 50.0188852, "lat": 36.2664797 }, "geometry": { "type": "Point", "coordinates": [ 50.0188852, 36.2664797 ] } },
{ "type": "Feature", "properties": { "name": "بانک ملت", "name:fa": null, "name:en": "Bank Mellat", "brand": "بانک ملت", "brand:fa": null, "brand:en": "Bank Mellat", "atm": "yes", "building:levels": null, "brand:wikidata": "Q4855944", "area_m2": 0.0, "lon": 50.0200771, "lat": 36.2666363 }, "geometry": { "type": "Point", "coordinates": [ 50.0200771, 36.2666363 ] } },
{ "type": "Feature", "properties": { "name": "بانک سامان", "name:fa": null, "name:en": "Saman Bank", "brand": "بانک سامان", "brand:fa": null, "brand:en": "Saman Bank", "atm": "yes", "building:levels": null, "brand:wikidata": "Q4117676", "area_m2": 0.0, "lon": 50.0096557, "lat": 36.2800427 }, "geometry": { "type": "Point", "coordinates": [ 50.0096557, 36.2800427 ] } },
{ "type": "Feature", "properties": { "name": "بانک ملی", "name:fa": "بانک ملی", "name:en": "Bank Melli Iran", "brand": "بانک ملی", "brand:fa": "بانک ملی", "brand:en": "Bank Melli Iran", "atm": null, "building:levels": null, "brand:wikidata": "Q806640", "area_m2": 0.0, "lon": 49.9920089, "lat": 36.2712345 }, "geometry": { "type": "Point", "coordinates": [ 49.9920089, 36.2712345 ] } },
{ "type": "Feature", "properties": { "name": "بانک گردشگری", "name:fa": null, "name:en": "Gardeshgari", "brand": null, "brand:fa": null, "brand:en": null, "atm": "yes", "building:levels": null, "brand:wikidata": null, "area_m2": 0.0, "lon": 50.008093, "lat": 36.2822285 }, "geometry": { "type": "Point", "coordinates": [ 50.008093, 36.2822285 ] } },
{ "type": "Feature", "properties": { "name": "بانک مسکن", "name:fa": null, "name:en": "Bank Maskan", "brand": "بانک مسکن", "brand:fa": null, "brand:en": "Bank Maskan", "atm": null, "building:levels": null, "brand:wikidata": "Q4855942", "area_m2": 0.0, "lon": 50.0098207, "lat": 36.2976276 }, "geometry": { "type": "Point", "coordinates": [ 50.0098207, 36.2976276 ] } },
{ "type": "Feature", "properties": { "name": "موسسه اعتباری ثامن", "name:fa": null, "name:en": "Samen Bank", "brand": null, "brand:fa": null, "brand:en": null, "atm": null, "building:levels": null, "brand:wikidata": null, "area_m2": 0.0, "lon": 50.0097636, "lat": 36.2806284 }, "geometry": { "type": "Point", "coordinates": [ 50.0097636, 36.2806284 ] } },
{ "type": "Feature", "properties": { "name": "بانک تجارت", "name:fa": null, "name:en": "Tejarat Bank", "brand": "بانک تجارت", "brand:fa": null, "brand:en": null, "atm": "yes", "building:levels": null, "brand:wikidata": "Q7695198", "area_m2": 0.0, "lon": 50.0122286, "lat": 36.2779331 }, "geometry": { "type": "Point", "coordinates": [ 50.0122286, 36.2779331 ] } },
{ "type": "Feature", "properties": { "name": "بانک مسکن", "name:fa": null, "name:en": "Bank Maskan", "brand": "بانک مسکن", "brand:fa": null, "brand:en": "Bank Maskan", "atm": "yes", "building:levels": null, "brand:wikidata": "Q4855942", "area_m2": 0.0, "lon": 50.0119453, "lat": 36.2775209 }, "geometry": { "type": "Point", "coordinates": [ 50.0119453, 36.2775209 ] } },
{ "type": "Feature", "properties": { "name": "بانک ملی", "name:fa": null, "name:en": "Bank Melli Iran", "brand": "بانک ملی", "brand:fa": null, "brand:en": "Bank Melli Iran", "atm": null, "building:levels": null, "brand:wikidata": "Q806640", "area_m2": 0.0, "lon": 49.9981612, "lat": 36.2750811 }, "geometry": { "type": "Point", "coordinates": [ 49.9981612, 36.2750811 ] } },
{ "type": "Feature", "properties": { "name": "بانک کشاورزی", "name:fa": null, "name:en": "Bank Keshavarzi Iran", "brand": "بانک کشاورزی", "brand:fa": null, "brand:en": "Bank Keshavarzi Iran", "atm": null, "building:levels": null, "brand:wikidata": "Q6395007", "area_m2": 0.0, "lon": 49.9974156, "lat": 36.2721726 }, "geometry": { "type": "Point", "coordinates": [ 49.9974156, 36.2721726 ] } },
{ "type": "Feature", "properties": { "name": "بانک صادرات", "name:fa": "بانک صادرات", "name:en": "Bank Saderat Iran", "brand": "بانک صادرات", "brand:fa": "بانک صادرات", "brand:en": "Bank Saderat Iran", "atm": null, "building:levels": null, "brand:wikidata": "Q2882608", "area_m2": 0.0, "lon": 50.0141564, "lat": 36.2599158 }, "geometry": { "type": "Point", "coordinates": [ 50.0141564, 36.2599158 ] } },
{ "type": "Feature", "properties": { "name": "بانک صادرات", "name:fa": "بانک صادرات", "name:en": "Bank Saderat Iran", "brand": "بانک صادرات", "brand:fa": "بانک صادرات", "brand:en": "Bank Saderat Iran", "atm": "yes", "building:levels": null, "brand:wikidata": "Q2882608", "area_m2": 0.0, "lon": 50.0055085, "lat": 36.2712844 }, "geometry": { "type": "Point", "coordinates": [ 50.0055085, 36.2712844 ] } },
{ "type": "Feature", "properties": { "name": "بانک کشاورزی", "name:fa": null, "name:en": "Bank Keshavarzi Iran", "brand": "بانک کشاورزی", "brand:fa": null, "brand:en": "Bank Keshavarzi Iran", "atm": "yes", "building:levels": null, "brand:wikidata": "Q6395007", "area_m2": 0.0, "lon": 50.0067944, "lat": 36.2590942 }, "geometry": { "type": "Point", "coordinates": [ 50.0067944, 36.2590942 ] } },
{ "type": "Feature", "properties": { "name": "بانک سپه", "name:fa": null, "name:en": "Bank Sepah", "brand": "بانک سپه", "brand:fa": null, "brand:en": "Bank Sepah", "atm": "yes", "building:levels": null, "brand:wikidata": "Q2882624", "area_m2": 0.0, "lon": 50.0057732, "lat": 36.259407 }, "geometry": { "type": "Point", "coordinates": [ 50.0057732, 36.259407 ] } },
{ "type": "Feature", "properties": { "name": "بانک رفاه", "name:fa": null, "name:en": "Refah Bank", "brand": "بانک رفاه", "brand:fa": null, "brand:en": "Refah Bank", "atm": "yes", "building:levels": null, "brand:wikidata": "Q7307083", "area_m2": 0.0, "lon": 50.0053627, "lat": 36.2594438 }, "geometry": { "type": "Point", "coordinates": [ 50.0053627, 36.2594438 ] } },
{ "type": "Feature", "properties": { "name": "بانک شهر", "name:fa": "بانک شهر", "name:en": "Shahr Bank", "brand": "بانک شهر", "brand:fa": "بانک شهر", "brand:en": "Shahr Bank", "atm": null, "building:levels": null, "brand:wikidata": "Q5941033", "area_m2": 0.0, "lon": 50.0148479, "lat": 36.2919228 }, "geometry": { "type": "Point", "coordinates": [ 50.0148479, 36.2919228 ] } },
{ "type": "Feature", "properties": { "name": "بانک سپه", "name:fa": null, "name:en": "Sepah Bank", "brand": null, "brand:fa": null, "brand:en": null, "atm": null, "building:levels": null, "brand:wikidata": null, "area_m2": 0.0, "lon": 50.0197531, "lat": 36.2804098 }, "geometry": { "type": "Point", "coordinates": [ 50.01975310000001, 36.2804098 ] } },
{ "type": "Feature", "properties": { "name": "بانک صنعت و معدن", "name:fa": null, "name:en": "Bank of Industry and Mine", "brand": null, "brand:fa": null, "brand:en": null, "atm": "yes", "building:levels": null, "brand:wikidata": null, "area_m2": 0.0, "lon": 50.020861, "lat": 36.2821849 }, "geometry": { "type": "Point", "coordinates": [ 50.020861, 36.2821849 ] } },
{ "type": "Feature", "properties": { "name": "بانک قوامین", "name:fa": "بانک قوامین", "name:en": "Ghavamin Bank", "brand": "بانک قوامین", "brand:fa": "بانک قوامین", "brand:en": "Ghavamin Bank", "atm": null, "building:levels": null, "brand:wikidata": "Q10860253", "area_m2": 0.0, "lon": 50.017739, "lat": 36.2953154 }, "geometry": { "type": "Point", "coordinates": [ 50.017739, 36.2953154 ] } },
{ "type": "Feature", "properties": { "name": "بانک مهر اقتصاد", "name:fa": null, "name:en": "Mehr Eqtesad Bank", "brand": "بانک مهر اقتصاد", "brand:fa": null, "brand:en": null, "atm": "yes", "building:levels": null, "brand:wikidata": "Q5942921", "area_m2": 0.0, "lon": 50.0036922, "lat": 36.2595774 }, "geometry": { "type": "Point", "coordinates": [ 50.0036922, 36.2595774 ] } },
{ "type": "Feature", "properties": { "name": "بانک ملی", "name:fa": null, "name:en": "Bank Melli Iran", "brand": "بانک ملی", "brand:fa": null, "brand:en": "Bank Melli Iran", "atm": null, "building:levels": null, "brand:wikidata": "Q806640", "area_m2": 0.0, "lon": 49.9971289, "lat": 36.2601245 }, "geometry": { "type": "Point", "coordinates": [ 49.9971289, 36.260124499999989 ] } },
{ "type": "Feature", "properties": { "name": "بانک تجارت", "name:fa": null, "name:en": "Tejarat Bank", "brand": "بانک تجارت", "brand:fa": null, "brand:en": null, "atm": "yes", "building:levels": null, "brand:wikidata": "Q7695198", "area_m2": 0.0, "lon": 50.0036076, "lat": 36.2614525 }, "geometry": { "type": "Point", "coordinates": [ 50.0036076, 36.2614525 ] } },
{ "type": "Feature", "properties": { "name": "بانک ملی", "name:fa": null, "name:en": "Bank Melli Iran", "brand": "بانک ملی", "brand:fa": null, "brand:en": "Bank Melli Iran", "atm": "yes", "building:levels": null, "brand:wikidata": "Q806640", "area_m2": 0.0, "lon": 50.0034878, "lat": 36.2623536 }, "geometry": { "type": "Point", "coordinates": [ 50.0034878, 36.2623536 ] } },
{ "type": "Feature", "properties": { "name": "بانک ملت", "name:fa": null, "name:en": "Bank Mellat", "brand": "بانک ملت", "brand:fa": null, "brand:en": "Bank Mellat", "atm": "yes", "building:levels": null, "brand:wikidata": "Q4855944", "area_m2": 0.0, "lon": 50.0034703, "lat": 36.2624621 }, "geometry": { "type": "Point", "coordinates": [ 50.0034703, 36.2624621 ] } },
{ "type": "Feature", "properties": { "name": "بانک ملی", "name:fa": null, "name:en": "Bank Melli Iran", "brand": "بانک ملی", "brand:fa": null, "brand:en": "Bank Melli Iran", "atm": "yes", "building:levels": null, "brand:wikidata": "Q806640", "area_m2": 0.0, "lon": 50.0031821, "lat": 36.2732704 }, "geometry": { "type": "Point", "coordinates": [ 50.0031821, 36.2732704 ] } },
{ "type": "Feature", "properties": { "name": "بانک صادرات", "name:fa": null, "name:en": "Bank Saderat Iran", "brand": "بانک صادرات", "brand:fa": null, "brand:en": "Bank Saderat Iran", "atm": null, "building:levels": null, "brand:wikidata": "Q2882608", "area_m2": 0.0, "lon": 50.0067577, "lat": 36.2689216 }, "geometry": { "type": "Point", "coordinates": [ 50.0067577, 36.2689216 ] } },
{ "type": "Feature", "properties": { "name": "بانک سپه", "name:fa": null, "name:en": "Bank Sepah", "brand": "بانک سپه", "brand:fa": null, "brand:en": "Bank Sepah", "atm": "yes", "building:levels": null, "brand:wikidata": "Q2882624", "area_m2": 0.0, "lon": 50.0101429, "lat": 36.268096 }, "geometry": { "type": "Point", "coordinates": [ 50.0101429, 36.268096 ] } },
{ "type": "Feature", "properties": { "name": "بانک مسکن", "name:fa": null, "name:en": "Bank Maskan", "brand": "بانک مسکن", "brand:fa": null, "brand:en": "Bank Maskan", "atm": "yes", "building:levels": null, "brand:wikidata": "Q4855942", "area_m2": 0.0, "lon": 50.0235935, "lat": 36.3031066 }, "geometry": { "type": "Point", "coordinates": [ 50.0235935, 36.3031066 ] } },
{ "type": "Feature", "properties": { "name": "بانک تجارت", "name:fa": null, "name:en": "Tejarat Bank", "brand": null, "brand:fa": null, "brand:en": null, "atm": null, "building:levels": null, "brand:wikidata": null, "area_m2": 0.0, "lon": 49.9897279, "lat": 36.2605364 }, "geometry": { "type": "Point", "coordinates": [ 49.9897279, 36.2605364 ] } },
{ "type": "Feature", "properties": { "name": "بانک صادرات", "name:fa": "بانک صادرات", "name:en": "Bank Saderat Iran", "brand": "بانک صادرات", "brand:fa": "بانک صادرات", "brand:en": "Bank Saderat Iran", "atm": null, "building:levels": null, "brand:wikidata": "Q2882608", "area_m2": 0.0, "lon": 50.0091581, "lat": 36.2966626 }, "geometry": { "type": "Point", "coordinates": [ 50.0091581, 36.2966626 ] } },
{ "type": "Feature", "properties": { "name": "بانک تجارت", "name:fa": null, "name:en": "Tejarat Bank", "brand": null, "brand:fa": null, "brand:en": null, "atm": null, "building:levels": null, "brand:wikidata": null, "area_m2": 0.0, "lon": 50.0092112, "lat": 36.2972146 }, "geometry": { "type": "Point", "coordinates": [ 50.0092112, 36.2972146 ] } },
{ "type": "Feature", "properties": { "name": "بانک انصار", "name:fa": "بانک انصار", "name:en": "Ansar Bank", "brand": "بانک انصار", "brand:fa": "بانک انصار", "brand:en": "Ansar Bank", "atm": null, "building:levels": null, "brand:wikidata": "Q5862675", "area_m2": 0.0, "lon": 50.0075344, "lat": 36.2772425 }, "geometry": { "type": "Point", "coordinates": [ 50.0075344, 36.2772425 ] } },
{ "type": "Feature", "properties": { "name": "بانک دی", "name:fa": "بانک دی", "name:en": "Bank Day", "brand": "بانک دی", "brand:fa": "بانک دی", "brand:en": "Bank Day", "atm": null, "building:levels": null, "brand:wikidata": "Q5942230", "area_m2": 0.0, "lon": 50.0081797, "lat": 36.2769914 }, "geometry": { "type": "Point", "coordinates": [ 50.0081797, 36.2769914 ] } },
{ "type": "Feature", "properties": { "name": "بانک صادرات", "name:fa": null, "name:en": "Bank Saderat Iran", "brand": "بانک صادرات", "brand:fa": null, "brand:en": "Bank Saderat Iran", "atm": null, "building:levels": null, "brand:wikidata": "Q2882608", "area_m2": 0.0, "lon": 50.0087153, "lat": 36.2740114 }, "geometry": { "type": "Point", "coordinates": [ 50.0087153, 36.274011399999985 ] } },
{ "type": "Feature", "properties": { "name": "موسسه اعتباری کوثر", "name:fa": null, "name:en": "Kosar Financial Institute", "brand": null, "brand:fa": null, "brand:en": null, "atm": null, "building:levels": null, "brand:wikidata": null, "area_m2": 0.0, "lon": 50.0087956, "lat": 36.2739317 }, "geometry": { "type": "Point", "coordinates": [ 50.0087956, 36.2739317 ] } },
{ "type": "Feature", "properties": { "name": "بانک ملت", "name:fa": null, "name:en": "Bank Mellat", "brand": "بانک ملت", "brand:fa": null, "brand:en": "Bank Mellat", "atm": null, "building:levels": null, "brand:wikidata": "Q4855944", "area_m2": 0.0, "lon": 50.0080103, "lat": 36.2688454 }, "geometry": { "type": "Point", "coordinates": [ 50.0080103, 36.268845399999989 ] } },
{ "type": "Feature", "properties": { "name": "پست بانک", "name:fa": null, "name:en": "Post Bank of Iran", "brand": "پست بانک", "brand:fa": null, "brand:en": "Post Bank of Iran", "atm": null, "building:levels": null, "brand:wikidata": "Q7233625", "area_m2": 0.0, "lon": 50.0152415, "lat": 36.2672112 }, "geometry": { "type": "Point", "coordinates": [ 50.0152415, 36.2672112 ] } },
{ "type": "Feature", "properties": { "name": "بانک تجارت", "name:fa": null, "name:en": "Tejarat Bank", "brand": "بانک تجارت", "brand:fa": null, "brand:en": null, "atm": null, "building:levels": null, "brand:wikidata": "Q7695198", "area_m2": 0.0, "lon": 50.0109812, "lat": 36.2679919 }, "geometry": { "type": "Point", "coordinates": [ 50.0109812, 36.2679919 ] } },
{ "type": "Feature", "properties": { "name": "بانک کشاورزی", "name:fa": null, "name:en": "Bank Keshavarzi Iran", "brand": "بانک کشاورزی", "brand:fa": null, "brand:en": "Bank Keshavarzi Iran", "atm": null, "building:levels": null, "brand:wikidata": "Q6395007", "area_m2": 0.0, "lon": 50.0118891, "lat": 36.2679563 }, "geometry": { "type": "Point", "coordinates": [ 50.0118891, 36.2679563 ] } },
{ "type": "Feature", "properties": { "name": "بانک انصار", "name:fa": null, "name:en": "Ansar Bank", "brand": "بانک انصار", "brand:fa": null, "brand:en": null, "atm": null, "building:levels": null, "brand:wikidata": "Q5862675", "area_m2": 0.0, "lon": 50.0119651, "lat": 36.2679441 }, "geometry": { "type": "Point", "coordinates": [ 50.0119651, 36.2679441 ] } },
{ "type": "Feature", "properties": { "name": "بانک ملی", "name:fa": null, "name:en": "Bank Melli Iran", "brand": "بانک ملی", "brand:fa": null, "brand:en": "Bank Melli Iran", "atm": null, "building:levels": null, "brand:wikidata": "Q806640", "area_m2": 0.0, "lon": 50.0105279, "lat": 36.2680794 }, "geometry": { "type": "Point", "coordinates": [ 50.0105279, 36.2680794 ] } },
{ "type": "Feature", "properties": { "name": "بانک ملی", "name:fa": null, "name:en": "Bank Melli Iran", "brand": "بانک ملی", "brand:fa": null, "brand:en": "Bank Melli Iran", "atm": null, "building:levels": null, "brand:wikidata": "Q806640", "area_m2": 0.0, "lon": 50.0148936, "lat": 36.267248 }, "geometry": { "type": "Point", "coordinates": [ 50.0148936, 36.267248 ] } },
{ "type": "Feature", "properties": { "name": "بانک صادرات", "name:fa": null, "name:en": "Bank Saderat Iran", "brand": "بانک صادرات", "brand:fa": null, "brand:en": "Bank Saderat Iran", "atm": "yes", "building:levels": null, "brand:wikidata": "Q2882608", "area_m2": 0.0, "lon": 50.0267644, "lat": 36.3061461 }, "geometry": { "type": "Point", "coordinates": [ 50.0267644, 36.3061461 ] } },
{ "type": "Feature", "properties": { "name": "بانک ملت", "name:fa": null, "name:en": "Bank Mellat", "brand": "بانک ملت", "brand:fa": null, "brand:en": "Bank Mellat", "atm": null, "building:levels": null, "brand:wikidata": "Q4855944", "area_m2": 0.0, "lon": 50.0116719, "lat": 36.319273 }, "geometry": { "type": "Point", "coordinates": [ 50.0116719, 36.319273 ] } },
{ "type": "Feature", "properties": { "name": "بانک توسعه تعاون", "name:fa": null, "name:en": "TT Bank", "brand": "بانک توسعه تعاون", "brand:fa": null, "brand:en": null, "atm": null, "building:levels": null, "brand:wikidata": "Q5684450", "area_m2": 0.0, "lon": 50.0104297, "lat": 36.2853155 }, "geometry": { "type": "Point", "coordinates": [ 50.0104297, 36.2853155 ] } },
{ "type": "Feature", "properties": { "name": "بانک سپه", "name:fa": null, "name:en": "Bank Sepah", "brand": "بانک سپه", "brand:fa": null, "brand:en": "Bank Sepah", "atm": null, "building:levels": null, "brand:wikidata": "Q2882624", "area_m2": 0.0, "lon": 50.0037836, "lat": 36.2782156 }, "geometry": { "type": "Point", "coordinates": [ 50.0037836, 36.2782156 ] } },
{ "type": "Feature", "properties": { "name": "بانک حکمت ایرانیان", "name:fa": null, "name:en": "Hekmat Iranian Bank", "brand": null, "brand:fa": null, "brand:en": null, "atm": null, "building:levels": null, "brand:wikidata": null, "area_m2": 0.0, "lon": 49.9985767, "lat": 36.2773292 }, "geometry": { "type": "Point", "coordinates": [ 49.9985767, 36.2773292 ] } },
{ "type": "Feature", "properties": { "name": "بانک ملت", "name:fa": null, "name:en": "Bank Mellat", "brand": "بانک ملت", "brand:fa": null, "brand:en": "Bank Mellat", "atm": null, "building:levels": null, "brand:wikidata": "Q4855944", "area_m2": 0.0, "lon": 49.9985359, "lat": 36.2771246 }, "geometry": { "type": "Point", "coordinates": [ 49.9985359, 36.2771246 ] } },
{ "type": "Feature", "properties": { "name": "پست بانک", "name:fa": null, "name:en": "Post Bank of Iran", "brand": "پست بانک", "brand:fa": null, "brand:en": "Post Bank of Iran", "atm": null, "building:levels": null, "brand:wikidata": "Q7233625", "area_m2": 0.0, "lon": 50.0052493, "lat": 36.2675659 }, "geometry": { "type": "Point", "coordinates": [ 50.0052493, 36.2675659 ] } },
{ "type": "Feature", "properties": { "name": "بانک رفاه", "name:fa": null, "name:en": "Refah Bank", "brand": "بانک رفاه", "brand:fa": null, "brand:en": "Refah Bank", "atm": null, "building:levels": null, "brand:wikidata": "Q7307083", "area_m2": 0.0, "lon": 50.0184268, "lat": 36.278823 }, "geometry": { "type": "Point", "coordinates": [ 50.0184268, 36.278823 ] } },
{ "type": "Feature", "properties": { "name": "بانک کشاورزی", "name:fa": null, "name:en": "Bank Keshavarzi Iran", "brand": "بانک کشاورزی", "brand:fa": null, "brand:en": "Bank Keshavarzi Iran", "atm": null, "building:levels": null, "brand:wikidata": "Q6395007", "area_m2": 0.0, "lon": 49.9968616, "lat": 36.2707117 }, "geometry": { "type": "Point", "coordinates": [ 49.9968616, 36.2707117 ] } },
{ "type": "Feature", "properties": { "name": "بانک  رفاه", "name:fa": null, "name:en": "Refah Bank", "brand": null, "brand:fa": null, "brand:en": null, "atm": "yes", "building:levels": null, "brand:wikidata": null, "area_m2": 0.0, "lon": 49.9967924, "lat": 36.3236654 }, "geometry": { "type": "Point", "coordinates": [ 49.9967924, 36.3236654 ] } },
{ "type": "Feature", "properties": { "name": "بانک کشاورزی", "name:fa": null, "name:en": "Bank Keshavarzi Iran", "brand": null, "brand:fa": null, "brand:en": null, "atm": null, "building:levels": null, "brand:wikidata": null, "area_m2": 0.0, "lon": 49.9912021, "lat": 36.3113699 }, "geometry": { "type": "Point", "coordinates": [ 49.99120210000001, 36.3113699 ] } },
{ "type": "Feature", "properties": { "name": "بانک ملی", "name:fa": null, "name:en": "Bank Melli Iran", "brand": "بانک ملی", "brand:fa": null, "brand:en": "Bank Melli Iran", "atm": null, "building:levels": null, "brand:wikidata": "Q806640", "area_m2": 0.0, "lon": 49.9912581, "lat": 36.3116872 }, "geometry": { "type": "Point", "coordinates": [ 49.9912581, 36.3116872 ] } },
{ "type": "Feature", "properties": { "name": "بانک صادرات", "name:fa": null, "name:en": "Bank Saderat Iran", "brand": "بانک صادرات", "brand:fa": null, "brand:en": "Bank Saderat Iran", "atm": null, "building:levels": null, "brand:wikidata": "Q2882608", "area_m2": 0.0, "lon": 49.9910553, "lat": 36.3111905 }, "geometry": { "type": "Point", "coordinates": [ 49.9910553, 36.311190500000016 ] } },
{ "type": "Feature", "properties": { "name": "بانک قرض الحسنه مهر ایران", "name:fa": "بانک قرض الحسنه مهر ایران", "name:en": "Qarz Al-Hasaneh Mehr Iran Bank", "brand": "بانک قرض الحسنه مهر ایران", "brand:fa": "بانک قرض الحسنه مهر ایران", "brand:en": "Qarz Al-Hasaneh Mehr Iran Bank", "atm": null, "building:levels": null, "brand:wikidata": "Q18327813", "area_m2": 0.0, "lon": 49.9909563, "lat": 36.3111154 }, "geometry": { "type": "Point", "coordinates": [ 49.9909563, 36.3111154 ] } },
{ "type": "Feature", "properties": { "name": "بانک مسکن", "name:fa": null, "name:en": "Bank Maskan", "brand": "بانک مسکن", "brand:fa": null, "brand:en": "Bank Maskan", "atm": null, "building:levels": null, "brand:wikidata": "Q4855942", "area_m2": 0.0, "lon": 49.9920567, "lat": 36.307339 }, "geometry": { "type": "Point", "coordinates": [ 49.9920567, 36.307339 ] } },
{ "type": "Feature", "properties": { "name": "بانک صادرات", "name:fa": null, "name:en": "Bank Saderat Iran", "brand": "بانک صادرات", "brand:fa": null, "brand:en": "Bank Saderat Iran", "atm": null, "building:levels": null, "brand:wikidata": "Q2882608", "area_m2": 0.0, "lon": 49.9908293, "lat": 36.2710416 }, "geometry": { "type": "Point", "coordinates": [ 49.9908293, 36.2710416 ] } },
{ "type": "Feature", "properties": { "name": "بانک سپه", "name:fa": null, "name:en": "Bank Sepah", "brand": "بانک سپه", "brand:fa": null, "brand:en": "Bank Sepah", "atm": null, "building:levels": null, "brand:wikidata": "Q2882624", "area_m2": 0.0, "lon": 49.9911417, "lat": 36.2709942 }, "geometry": { "type": "Point", "coordinates": [ 49.9911417, 36.2709942 ] } },
{ "type": "Feature", "properties": { "name": "بانک تجارت", "name:fa": null, "name:en": "Tejarat Bank", "brand": "بانک تجارت", "brand:fa": null, "brand:en": null, "atm": "yes", "building:levels": null, "brand:wikidata": "Q7695198", "area_m2": 0.0, "lon": 50.0191249, "lat": 36.2664569 }, "geometry": { "type": "Point", "coordinates": [ 50.0191249, 36.2664569 ] } },
{ "type": "Feature", "properties": { "name": "بانک ملی ایران", "name:fa": null, "name:en": "Bank Melli Iran", "brand": "بانک ملی ایران", "brand:fa": null, "brand:en": "Bank Melli Iran", "atm": null, "building:levels": null, "brand:wikidata": "Q806640", "area_m2": 0.0, "lon": 50.0086567, "lat": 36.2910352 }, "geometry": { "type": "Point", "coordinates": [ 50.0086567, 36.2910352 ] } },
{ "type": "Feature", "properties": { "name": "بانک مهر ایران", "name:fa": null, "name:en": "Bank mehr iran", "brand": null, "brand:fa": null, "brand:en": null, "atm": null, "building:levels": null, "brand:wikidata": null, "area_m2": 0.0, "lon": 50.0023184, "lat": 36.2875482 }, "geometry": { "type": "Point", "coordinates": [ 50.0023184, 36.2875482 ] } },
{ "type": "Feature", "properties": { "name": "بانک سپه", "name:fa": null, "name:en": "Bank Sepah", "brand": "بانک سپه", "brand:fa": null, "brand:en": "Bank Sepah", "atm": null, "building:levels": null, "brand:wikidata": "Q2882624", "area_m2": 0.0, "lon": 50.0251944, "lat": 36.3102153 }, "geometry": { "type": "Point", "coordinates": [ 50.0251944, 36.31021530000001 ] } },
{ "type": "Feature", "properties": { "name": "بانک سپه", "name:fa": null, "name:en": "Bank Sepah", "brand": null, "brand:fa": null, "brand:en": null, "atm": null, "building:levels": null, "brand:wikidata": null, "area_m2": 0.0, "lon": 50.0011155, "lat": 36.2840294 }, "geometry": { "type": "Point", "coordinates": [ 50.0011155, 36.2840294 ] } },
{ "type": "Feature", "properties": { "name": "بانک ملی", "name:fa": null, "name:en": "Bank Melli Iran", "brand": "بانک ملی", "brand:fa": null, "brand:en": "Bank Melli Iran", "atm": "yes", "building:levels": "1", "brand:wikidata": "Q806640", "area_m2": 173.97528257841319, "lon": 50.01687095, "lat": 36.3008385 }, "geometry": { "type": "Point", "coordinates": [ 50.01687095, 36.3008385 ] } },
{ "type": "Feature", "properties": { "name": "بانک شهر", "name:fa": null, "name:en": "Shahr Bank", "brand": "بانک شهر", "brand:fa": null, "brand:en": "Shahr Bank", "atm": "yes", "building:levels": "4", "brand:wikidata": "Q5941033", "area_m2": 410.46966211949245, "lon": 50.00855375187691, "lat": 36.282110587642926 }, "geometry": { "type": "Point", "coordinates": [ 50.00855375187691, 36.282110587642926 ] } },
{ "type": "Feature", "properties": { "name": "بانک سپه", "name:fa": "بانک سپه", "name:en": "Bank Sepah", "brand": "بانک سپه", "brand:fa": "بانک سپه", "brand:en": "Bank Sepah", "atm": null, "building:levels": "2", "brand:wikidata": "Q2882624", "area_m2": 258.32121849851978, "lon": 50.016923039131242, "lat": 36.278834617091071 }, "geometry": { "type": "Point", "coordinates": [ 50.016923039131242, 36.278834617091071 ] } },
{ "type": "Feature", "properties": { "name": "بانک ملی", "name:fa": null, "name:en": "Bank Melli Iran", "brand": "بانک ملی", "brand:fa": null, "brand:en": "Bank Melli Iran", "atm": null, "building:levels": "6", "brand:wikidata": "Q806640", "area_m2": 802.61362269806455, "lon": 50.012876736634752, "lat": 36.280359862020049 }, "geometry": { "type": "Point", "coordinates": [ 50.012876736634752, 36.280359862020049 ] } },
{ "type": "Feature", "properties": { "name": "بانک صادرات", "name:fa": "بانک صادرات", "name:en": "Bank Saderat Iran", "brand": "بانک صادرات", "brand:fa": "بانک صادرات", "brand:en": "Bank Saderat Iran", "atm": "yes", "building:levels": "3.5", "brand:wikidata": "Q2882608", "area_m2": 1928.1973983202374, "lon": 50.018178709755574, "lat": 36.279147104710674 }, "geometry": { "type": "Point", "coordinates": [ 50.018178709755574, 36.279147104710674 ] } },
{ "type": "Feature", "properties": { "name": "بانک سپه", "name:fa": null, "name:en": "Bank Sepah", "brand": "بانک سپه", "brand:fa": null, "brand:en": "Bank Sepah", "atm": "yes", "building:levels": "3", "brand:wikidata": "Q2882624", "area_m2": 218.25482111102917, "lon": 50.009815353708404, "lat": 36.278266400627182 }, "geometry": { "type": "Point", "coordinates": [ 50.009815353708404, 36.278266400627182 ] } },
{ "type": "Feature", "properties": { "name": "بانک کشاورزی", "name:fa": "بانک کشاورزی", "name:en": "Bank Keshavarzi Iran", "brand": "بانک کشاورزی", "brand:fa": "بانک کشاورزی", "brand:en": "Bank Keshavarzi Iran", "atm": "yes", "building:levels": "4", "brand:wikidata": "Q6395007", "area_m2": 936.62612752090001, "lon": 50.007274030446048, "lat": 36.274134005436579 }, "geometry": { "type": "Point", "coordinates": [ 50.007274030446048, 36.274134005436579 ] } },
{ "type": "Feature", "properties": { "name": "بانک سپه", "name:fa": null, "name:en": "Bank Sepah", "brand": "بانک سپه", "brand:fa": null, "brand:en": "Bank Sepah", "atm": "yes", "building:levels": "3", "brand:wikidata": "Q2882624", "area_m2": 145.26279325627621, "lon": 50.006895281937354, "lat": 36.277202742117652 }, "geometry": { "type": "Point", "coordinates": [ 50.006895281937354, 36.277202742117652 ] } },
{ "type": "Feature", "properties": { "name": "بانک سپه", "name:fa": null, "name:en": "Bank Sepah", "brand": "بانک سپه", "brand:fa": null, "brand:en": "Bank Sepah", "atm": "yes", "building:levels": "5", "brand:wikidata": null, "area_m2": 437.61821269661044, "lon": 50.004414717231043, "lat": 36.269886482753385 }, "geometry": { "type": "Point", "coordinates": [ 50.004414717231043, 36.269886482753385 ] } },
{ "type": "Feature", "properties": { "name": "بانک ملی", "name:fa": null, "name:en": "Bank Melli Iran", "brand": "بانک ملی", "brand:fa": null, "brand:en": "Bank Melli Iran", "atm": "yes", "building:levels": "7", "brand:wikidata": "Q806640", "area_m2": 773.53968573552243, "lon": 50.016918239265166, "lat": 36.265781888677424 }, "geometry": { "type": "Point", "coordinates": [ 50.016918239265166, 36.265781888677424 ] } },
{ "type": "Feature", "properties": { "name": "بانک آینده", "name:fa": null, "name:en": "Ayandeh Bank", "brand": "بانک آینده", "brand:fa": null, "brand:en": "Ayandeh Bank", "atm": null, "building:levels": "3", "brand:wikidata": "Q5938144", "area_m2": 266.32186982765194, "lon": 50.009069265883447, "lat": 36.27707645192995 }, "geometry": { "type": "Point", "coordinates": [ 50.009069265883447, 36.27707645192995 ] } },
{ "type": "Feature", "properties": { "name": "بانک پاسارگاد", "name:fa": null, "name:en": "Bank Pasargad", "brand": "بانک پاسارگاد", "brand:fa": null, "brand:en": "Bank Pasargad", "atm": "yes", "building:levels": "2", "brand:wikidata": "Q4855962", "area_m2": 154.89458659042666, "lon": 50.013974264582011, "lat": 36.280484742659844 }, "geometry": { "type": "Point", "coordinates": [ 50.013974264582011, 36.280484742659844 ] } },
{ "type": "Feature", "properties": { "name": "بانک ملی", "name:fa": null, "name:en": "Bank Melli Iran", "brand": "بانک ملی", "brand:fa": null, "brand:en": "Bank Melli Iran", "atm": "yes", "building:levels": "2", "brand:wikidata": "Q806640", "area_m2": 309.30516299714816, "lon": 50.017683701010675, "lat": 36.27842495296494 }, "geometry": { "type": "Point", "coordinates": [ 50.017683701010675, 36.27842495296494 ] } },
{ "type": "Feature", "properties": { "name": "بانک ملت", "name:fa": null, "name:en": "Bank Mellat", "brand": "بانک ملت", "brand:fa": null, "brand:en": "Bank Mellat", "atm": "yes", "building:levels": "3", "brand:wikidata": "Q4855944", "area_m2": 157.12399303690526, "lon": 50.009660790247253, "lat": 36.277654060049265 }, "geometry": { "type": "Point", "coordinates": [ 50.009660790247253, 36.277654060049265 ] } },
{ "type": "Feature", "properties": { "name": "بانک مهر اقتصاد", "name:fa": null, "name:en": "Mehr Eqtesad Bank", "brand": "بانک مهر اقتصاد", "brand:fa": null, "brand:en": null, "atm": "yes", "building:levels": "3", "brand:wikidata": "Q5942921", "area_m2": 217.90299864827691, "lon": 50.00920608613945, "lat": 36.277776930403114 }, "geometry": { "type": "Point", "coordinates": [ 50.00920608613945, 36.277776930403114 ] } },
{ "type": "Feature", "properties": { "name": "بانک اقتصاد نوین", "name:fa": null, "name:en": "EN Bank", "brand": "بانک اقتصاد نوین", "brand:fa": null, "brand:en": "EN Bank", "atm": "yes", "building:levels": "2", "brand:wikidata": "Q5323768", "area_m2": 214.51408182881613, "lon": 50.007954811788188, "lat": 36.270357260532599 }, "geometry": { "type": "Point", "coordinates": [ 50.007954811788188, 36.270357260532599 ] } },
{ "type": "Feature", "properties": { "name": "بانک کشاورزی", "name:fa": null, "name:en": "Bank Keshavarzi Iran", "brand": "بانک کشاورزی", "brand:fa": null, "brand:en": "Bank Keshavarzi Iran", "atm": "yes", "building:levels": "3", "brand:wikidata": "Q6395007", "area_m2": 464.24049546878518, "lon": 49.987240032045534, "lat": 36.261254331390347 }, "geometry": { "type": "Point", "coordinates": [ 49.987240032045534, 36.261254331390347 ] } },
{ "type": "Feature", "properties": { "name": "بانک تجارت", "name:fa": null, "name:en": "Tejarat Bank", "brand": "بانک تجارت", "brand:fa": null, "brand:en": null, "atm": "yes", "building:levels": "6", "brand:wikidata": "Q7695198", "area_m2": 791.30850448349133, "lon": 50.006083414814434, "lat": 36.269223907548451 }, "geometry": { "type": "Point", "coordinates": [ 50.006083414814434, 36.269223907548451 ] } },
{ "type": "Feature", "properties": { "name": "بانک ملی", "name:fa": null, "name:en": "Bank Melli Iran", "brand": "بانک ملی", "brand:fa": null, "brand:en": "Bank Melli Iran", "atm": "yes", "building:levels": "3", "brand:wikidata": "Q806640", "area_m2": 1340.897974264456, "lon": 50.00538280259633, "lat": 36.268794512064538 }, "geometry": { "type": "Point", "coordinates": [ 50.00538280259633, 36.268794512064538 ] } },
{ "type": "Feature", "properties": { "name": "بانک کشاورزی", "name:fa": null, "name:en": "Bank Keshavarzi Iran", "brand": "بانک کشاورزی", "brand:fa": null, "brand:en": "Bank Keshavarzi Iran", "atm": "yes", "building:levels": "1", "brand:wikidata": "Q6395007", "area_m2": 310.71156568869316, "lon": 50.003949902127879, "lat": 36.284150987915559 }, "geometry": { "type": "Point", "coordinates": [ 50.003949902127879, 36.284150987915559 ] } },
{ "type": "Feature", "properties": { "name": "بانک ملی", "name:fa": null, "name:en": "Bank Melli Iran", "brand": "بانک ملی", "brand:fa": null, "brand:en": "Bank Melli Iran", "atm": "yes", "building:levels": "4", "brand:wikidata": "Q806640", "area_m2": 330.33564588467709, "lon": 50.009577245656111, "lat": 36.279907443785625 }, "geometry": { "type": "Point", "coordinates": [ 50.009577245656111, 36.279907443785625 ] } },
{ "type": "Feature", "properties": { "name": "بانک ملت", "name:fa": null, "name:en": "Bank Mellat", "brand": "بانک ملت", "brand:fa": null, "brand:en": "Bank Mellat", "atm": "yes", "building:levels": "8", "brand:wikidata": "Q4855944", "area_m2": 566.73400303641961, "lon": 50.013050804675693, "lat": 36.307980468500723 }, "geometry": { "type": "Point", "coordinates": [ 50.013050804675693, 36.307980468500723 ] } },
{ "type": "Feature", "properties": { "name": "بانک مسکن", "name:fa": null, "name:en": "Bank Maskan", "brand": "بانک مسکن", "brand:fa": null, "brand:en": "Bank Maskan", "atm": "yes", "building:levels": "3", "brand:wikidata": "Q4855942", "area_m2": 1142.8482320298467, "lon": 50.007304904035557, "lat": 36.269079833038404 }, "geometry": { "type": "Point", "coordinates": [ 50.007304904035557, 36.269079833038404 ] } },
{ "type": "Feature", "properties": { "name": "بانک تجارت", "name:fa": null, "name:en": "Tejarat Bank", "brand": "بانک تجارت", "brand:fa": null, "brand:en": null, "atm": "yes", "building:levels": "2.5", "brand:wikidata": "Q7695198", "area_m2": 210.50877140668098, "lon": 50.009105286001542, "lat": 36.277202298099482 }, "geometry": { "type": "Point", "coordinates": [ 50.009105286001542, 36.277202298099482 ] } },
{ "type": "Feature", "properties": { "name": "بانک مسکن", "name:fa": "بانک مسکن خیام شمالی قزوین", "name:en": "Bank Maskan", "brand": "بانک مسکن", "brand:fa": null, "brand:en": "Bank Maskan", "atm": "yes", "building:levels": "3.1", "brand:wikidata": "Q4855942", "area_m2": 211.13992821532241, "lon": 50.009432148868058, "lat": 36.278900856334602 }, "geometry": { "type": "Point", "coordinates": [ 50.009432148868058, 36.278900856334602 ] } },
{ "type": "Feature", "properties": { "name": "بانک سرمایه", "name:fa": null, "name:en": "Sarmayeh Bank", "brand": "بانک سرمایه", "brand:fa": null, "brand:en": "Sarmayeh Bank", "atm": "yes", "building:levels": "3", "brand:wikidata": "Q7424291", "area_m2": 280.2426166353431, "lon": 50.009387641132363, "lat": 36.278745778405657 }, "geometry": { "type": "Point", "coordinates": [ 50.009387641132363, 36.278745778405657 ] } },
{ "type": "Feature", "properties": { "name": "بانک سپه", "name:fa": "بانک سپه", "name:en": "Bank Sepah", "brand": "بانک سپه", "brand:fa": "بانک سپه", "brand:en": "Bank Sepah", "atm": null, "building:levels": "3", "brand:wikidata": "Q2882624", "area_m2": 264.64196288508248, "lon": 50.01135894543053, "lat": 36.268180607804311 }, "geometry": { "type": "Point", "coordinates": [ 50.01135894543053, 36.268180607804311 ] } },
{ "type": "Feature", "properties": { "name": "بانک ملی", "name:fa": null, "name:en": "Bank Melli Iran", "brand": "بانک ملی", "brand:fa": null, "brand:en": "Bank Melli Iran", "atm": null, "building:levels": "2", "brand:wikidata": "Q806640", "area_m2": 354.85402290586939, "lon": 50.008476523206845, "lat": 36.273387409005643 }, "geometry": { "type": "Point", "coordinates": [ 50.008476523206845, 36.273387409005643 ] } },
{ "type": "Feature", "properties": { "name": "بانک سرمایه", "name:fa": "بانک سرمایه", "name:en": "Sarmayeh Bank", "brand": "بانک سرمایه", "brand:fa": "بانک سرمایه", "brand:en": "Sarmayeh Bank", "atm": null, "building:levels": "1", "brand:wikidata": "Q7424291", "area_m2": 167.91312660296575, "lon": 50.00735743319531, "lat": 36.277168408314694 }, "geometry": { "type": "Point", "coordinates": [ 50.00735743319531, 36.277168408314694 ] } },
{ "type": "Feature", "properties": { "name": "بانک صادرات", "name:fa": "بانک صادرات", "name:en": "Bank Saderat Iran", "brand": "بانک صادرات", "brand:fa": "بانک صادرات", "brand:en": "Bank Saderat Iran", "atm": null, "building:levels": "2", "brand:wikidata": "Q2882608", "area_m2": 257.37238884339104, "lon": 50.007952881324975, "lat": 36.282182076590829 }, "geometry": { "type": "Point", "coordinates": [ 50.007952881324975, 36.282182076590829 ] } }
]
}
