{
"type": "FeatureCollection",
"crs": { "type": "name", "properties": { "name": "urn:ogc:def:crs:OGC:1.3:CRS84" } },
"features": [
{ "type": "Feature", "properties": { "name": "کلینیک فرهنگیان", "name:fa": null, "name:en": "Farhangian Clinic", "addr:street": "عبیدزاکانی", "lon": 50.0028658, "lat": 36.2742393 }, "geometry": { "type": "Point", "coordinates": [ 50.0028658, 36.2742393 ] } },
{ "type": "Feature", "properties": { "name": "درمانگاه شبانه روزی قائم", "name:fa": null, "name:en": "Ghaem Clinic", "addr:street": null, "lon": 50.0045325, "lat": 36.269786 }, "geometry": { "type": "Point", "coordinates": [ 50.0045325, 36.269786 ] } },
{ "type": "Feature", "properties": { "name": "درمانگاه شبانه روزی بوعلی", "name:fa": null, "name:en": "Boo Alii Sina Clinic", "addr:street": null, "lon": 50.0054781, "lat": 36.270055 }, "geometry": { "type": "Point", "coordinates": [ 50.0054781, 36.270055 ] } },
{ "type": "Feature", "properties": { "name": "درمانگاه شبانه روزی امام علی", "name:fa": null, "name:en": "Emam Ali Clinic 24hours", "addr:street": null, "lon": 50.0038705, "lat": 36.2619818 }, "geometry": { "type": "Point", "coordinates": [ 50.0038705, 36.2619818 ] } },
{ "type": "Feature", "properties": { "name": "درمانگاه سینا", "name:fa": null, "name:en": "Sina Clinic", "addr:street": null, "lon": 50.0128485, "lat": 36.2959118 }, "geometry": { "type": "Point", "coordinates": [ 50.0128485, 36.2959118 ] } },
{ "type": "Feature", "properties": { "name": "درمانگاه عمومی و تخصصی هلال احمر", "name:fa": null, "name:en": "Red Crescent General and Specialized Clinic", "addr:street": null, "lon": 50.0053826, "lat": 36.2662683 }, "geometry": { "type": "Point", "coordinates": [ 50.0053826, 36.2662683 ] } },
{ "type": "Feature", "properties": { "name": "درمانگاه شبانه روزی مینودر", "name:fa": null, "name:en": "24h Clinic of Minoudar", "addr:street": null, "lon": 49.9937511, "lat": 36.3103122 }, "geometry": { "type": "Point", "coordinates": [ 49.9937511, 36.3103122 ] } },
{ "type": "Feature", "properties": { "name": "درمانگاه گوهرشاد", "name:fa": "درمانگاه گوهرشاد - پزشکی و دندانپزشکی، لیزر، حجامت و زالو درمانی", "name:en": "Goharshad Clinic", "addr:street": "بلوار سید الشهدا", "lon": 49.9865971, "lat": 36.3218079 }, "geometry": { "type": "Point", "coordinates": [ 49.9865971, 36.3218079 ] } },
{ "type": "Feature", "properties": { "name": "پارسیان", "name:fa": null, "name:en": "Parsian", "addr:street": null, "lon": 50.0194321, "lat": 36.2972397 }, "geometry": { "type": "Point", "coordinates": [ 50.0194321, 36.2972397 ] } },
{ "type": "Feature", "properties": { "name": "درمانگاههای تخصصی بیمارستان ولایت", "name:fa": null, "name:en": "Specialized Clinics of Velayat Hospital", "addr:street": "هفده شهریور", "lon": 49.9967713, "lat": 36.3227314 }, "geometry": { "type": "Point", "coordinates": [ 49.9967713, 36.3227314 ] } },
{ "type": "Feature", "properties": { "name": "درمانگاه شبانه روزی امام خمینی(ره)", "name:fa": null, "name:en": "Imam Khomeini Clinic", "addr:street": "شهید محلاتی", "lon": 50.0005269922016, "lat": 36.309734045823888 }, "geometry": { "type": "Point", "coordinates": [ 50.0005269922016, 36.309734045823888 ] } },
{ "type": "Feature", "properties": { "name": "درمانگاه شبانه روزی شهید پاکروان", "name:fa": null, "name:en": "Shahid Pakravan Clinic", "addr:street": "حیدری", "lon": 50.001940773920296, "lat": 36.289345475371626 }, "geometry": { "type": "Point", "coordinates": [ 50.001940773920296, 36.289345475371626 ] } },
{ "type": "Feature", "properties": { "name": "درمانگاه امام سجاد(ع)", "name:fa": null, "name:en": "Imam Sajjad Clinic", "addr:street": "حیدری", "lon": 50.001815613377651, "lat": 36.286534576709265 }, "geometry": { "type": "Point", "coordinates": [ 50.001815613377651, 36.286534576709265 ] } },
{ "type": "Feature", "properties": { "name": "مرکز خدمات جامع سلامت شماره2 (جامعه نگر)", "name:fa": null, "name:en": "Community health centre No. 2", "addr:street": null, "lon": 50.005928957899833, "lat": 36.251330179016378 }, "geometry": { "type": "Point", "coordinates": [ 50.005928957899833, 36.251330179016378 ] } },
{ "type": "Feature", "properties": { "name": "مرکز خدمات جامع سلامت شهری شماره3 (شهدا)", "name:fa": null, "name:en": "Community health centre No. 3", "addr:street": null, "lon": 50.003813555665609, "lat": 36.259713348756392 }, "geometry": { "type": "Point", "coordinates": [ 50.003813555665609, 36.259713348756392 ] } },
{ "type": "Feature", "properties": { "name": "درمانگاه و ساختمان پزشکان امام حسین", "name:fa": null, "name:en": "Imam Hussein Clinic and Doctors Building", "addr:street": null, "lon": 50.006057618769184, "lat": 36.268819752456892 }, "geometry": { "type": "Point", "coordinates": [ 50.006057618769184, 36.268819752456892 ] } },
{ "type": "Feature", "properties": { "name": "مرکز خدمات جامع سلامت شماره7 فردوسی", "name:fa": null, "name:en": "Community health centre No. 7 (Ferdosi)", "addr:street": null, "lon": 50.006283856295511, "lat": 36.274853978249091 }, "geometry": { "type": "Point", "coordinates": [ 50.006283856295511, 36.274853978249091 ] } },
{ "type": "Feature", "properties": { "name": "مرکز خدمات جامع سلامت شماره6 ولیعصر", "name:fa": null, "name:en": "Community health centre No. 6 (Valiasr)", "addr:street": null, "lon": 50.019466430411363, "lat": 36.269622844712337 }, "geometry": { "type": "Point", "coordinates": [ 50.019466430411363, 36.269622844712337 ] } },
{ "type": "Feature", "properties": { "name": "درمانگاه شبانه روزی عارف", "name:fa": null, "name:en": "Aref Clinic", "addr:street": null, "lon": 50.013678239861441, "lat": 36.274517114839199 }, "geometry": { "type": "Point", "coordinates": [ 50.013678239861441, 36.274517114839199 ] } },
{ "type": "Feature", "properties": { "name": "مرکز خدمات جامع سلامت مدنی", "name:fa": null, "name:en": "Community health centre (Madani)", "addr:street": null, "lon": 50.014714548218919, "lat": 36.294386303500076 }, "geometry": { "type": "Point", "coordinates": [ 50.014714548218919, 36.294386303500076 ] } },
{ "type": "Feature", "properties": { "name": "درمانگاه تخصصی رادمهر", "name:fa": null, "name:en": "Radmehr Specialized Clinic", "addr:street": null, "lon": 50.017036992127089, "lat": 36.298025329632722 }, "geometry": { "type": "Point", "coordinates": [ 50.017036992127089, 36.298025329632722 ] } },
{ "type": "Feature", "properties": { "name": "درمانگاه رازی", "name:fa": null, "name:en": "Razi Medical Clinic", "addr:street": null, "lon": 50.018438578330503, "lat": 36.297159022813958 }, "geometry": { "type": "Point", "coordinates": [ 50.018438578330503, 36.297159022813958 ] } },
{ "type": "Feature", "properties": { "name": " (مرکز بهداشت شماره 14 پونک) مرکز بهداشت شهید بلندیان", "name:fa": null, "name:en": "Shahid Bolandian Health Center", "addr:street": null, "lon": 50.021068384675551, "lat": 36.302696129303953 }, "geometry": { "type": "Point", "coordinates": [ 50.021068384675551, 36.302696129303953 ] } },
{ "type": "Feature", "properties": { "name": "مرکز خدمات جامع سلامت شماره11 پونک", "name:fa": null, "name:en": "Community health centre (Poonak number11)", "addr:street": null, "lon": 50.033811704194164, "lat": 36.312348830511432 }, "geometry": { "type": "Point", "coordinates": [ 50.033811704194164, 36.312348830511432 ] } },
{ "type": "Feature", "properties": { "name": "درمانگاه امیرالمومنین", "name:fa": null, "name:en": "Amir Ol-Mo'menin Clinic", "addr:street": null, "lon": 49.997050286341327, "lat": 36.324935710422025 }, "geometry": { "type": "Point", "coordinates": [ 49.997050286341327, 36.324935710422025 ] } },
{ "type": "Feature", "properties": { "name": "درمانگاه خیریه حاج ابوطالب تقوی و مرکز خدمات جامع سلامت شماره12", "name:fa": null, "name:en": "Abotaleb Taghavi Clinic", "addr:street": null, "lon": 49.989719609509486, "lat": 36.312421506231445 }, "geometry": { "type": "Point", "coordinates": [ 49.989719609509486, 36.312421506231445 ] } },
{ "type": "Feature", "properties": { "name": "درمانگاه شبانه روزی یاسین", "name:fa": null, "name:en": "Yasin clinic", "addr:street": null, "lon": 50.012262854500641, "lat": 36.308209438697979 }, "geometry": { "type": "Point", "coordinates": [ 50.012262854500641, 36.308209438697979 ] } },
{ "type": "Feature", "properties": { "name": "مرکز بهداشتی درمانی شماره8 امام حسین (موقوفه علیجانی)", "name:fa": null, "name:en": "Community health centre (Alijani No. 8)", "addr:street": null, "lon": 49.997500140541973, "lat": 36.301055921610022 }, "geometry": { "type": "Point", "coordinates": [ 49.997500140541973, 36.301055921610022 ] } },
{ "type": "Feature", "properties": { "name": "مرکز خدمات جامع سلامت شماره9 هادی آباد", "name:fa": null, "name:en": "Community health centre (HadiAbad number9)", "addr:street": null, "lon": 49.996352725075724, "lat": 36.295296198875235 }, "geometry": { "type": "Point", "coordinates": [ 49.996352725075724, 36.295296198875235 ] } },
{ "type": "Feature", "properties": { "name": "درمانگاه شهدای ناجا", "name:fa": null, "name:en": "Shohadaye Naja Clinic", "addr:street": null, "lon": 49.993322880470792, "lat": 36.280936547742783 }, "geometry": { "type": "Point", "coordinates": [ 49.993322880470792, 36.280936547742783 ] } },
{ "type": "Feature", "properties": { "name": "مرکز خدمات جامع سلامت شماره8 نواب", "name:fa": null, "name:en": "Community health centre (Navab No. 8)", "addr:street": null, "lon": 49.993704302218461, "lat": 36.275500452051986 }, "geometry": { "type": "Point", "coordinates": [ 49.993704302218461, 36.275500452051986 ] } },
{ "type": "Feature", "properties": { "name": "درمانگاه خیریه محمدزاده و مرکز جامع خدمات سلامت زعفرانیه", "name:fa": null, "name:en": "Mohamadzadeh Clinic & Community health centre (Zaferanieh) ", "addr:street": null, "lon": 49.999294063470934, "lat": 36.27647084367787 }, "geometry": { "type": "Point", "coordinates": [ 49.999294063470934, 36.27647084367787 ] } },
{ "type": "Feature", "properties": { "name": "مرکز خدمات جامع سلامت سعدی", "name:fa": null, "name:en": "Community health centre (Sadi)", "addr:street": null, "lon": 49.996905947250852, "lat": 36.271705419548347 }, "geometry": { "type": "Point", "coordinates": [ 49.996905947250852, 36.271705419548347 ] } },
{ "type": "Feature", "properties": { "name": "مرکز خدمات جامع سلامت شماره5 محله تبریز", "name:fa": null, "name:en": "Community health centre (Tabriz)", "addr:street": null, "lon": 49.989411602179693, "lat": 36.264793109764611 }, "geometry": { "type": "Point", "coordinates": [ 49.989411602179693, 36.264793109764611 ] } },
{ "type": "Feature", "properties": { "name": "درمانگاه شبانه روزی میلاد", "name:fa": null, "name:en": "Milad Clinic", "addr:street": null, "lon": 50.008883971321183, "lat": 36.276345730015038 }, "geometry": { "type": "Point", "coordinates": [ 50.008883971321183, 36.276345730015038 ] } },
{ "type": "Feature", "properties": { "name": "درمانگاه شبانه روزی مهرگان", "name:fa": null, "name:en": "Mehregan Clinic", "addr:street": null, "lon": 50.016596753006773, "lat": 36.293621599804041 }, "geometry": { "type": "Point", "coordinates": [ 50.016596753006773, 36.293621599804041 ] } },
{ "type": "Feature", "properties": { "name": "درمانگاه شبانه روزی پونک", "name:fa": null, "name:en": "Poonak Clinic", "addr:street": null, "lon": 50.032733748417513, "lat": 36.311927467862745 }, "geometry": { "type": "Point", "coordinates": [ 50.032733748417513, 36.311927467862745 ] } },
{ "type": "Feature", "properties": { "name": "درمانگاه پزشکی و ترک اعتیاد آریا", "name:fa": null, "name:en": "Aria Clinic", "addr:street": null, "lon": 50.021532642325965, "lat": 36.309749035355992 }, "geometry": { "type": "Point", "coordinates": [ 50.021532642325965, 36.309749035355992 ] } },
{ "type": "Feature", "properties": { "name": "کلینیک تخصصی محمدزاده", "name:fa": null, "name:en": "Mohammadzadeh Specialized Clinic", "addr:street": null, "lon": 50.030616463135438, "lat": 36.311840143788835 }, "geometry": { "type": "Point", "coordinates": [ 50.030616463135438, 36.311840143788835 ] } },
{ "type": "Feature", "properties": { "name": "مرکز خدمات جامع سلامت شماره13 (بانو محتشم)", "name:fa": null, "name:en": "Comprehensive Health Services Center No. 13 (Bano Mohtasham)", "addr:street": null, "lon": 50.005442045324962, "lat": 36.267749236215202 }, "geometry": { "type": "Point", "coordinates": [ 50.005442045324962, 36.267749236215202 ] } }
]
}
