{
"type": "FeatureCollection",
"crs": { "type": "name", "properties": { "name": "urn:ogc:def:crs:OGC:1.3:CRS84" } },
"features": [
{ "type": "Feature", "properties": { "name": "سینما مهتاب", "name:en": "Cinema Mahtab", "lat": 36.2682309, "lon": 50.0093756 }, "geometry": { "type": "Point", "coordinates": [ 50.0093756, 36.2682309 ] } },
{ "type": "Feature", "properties": { "name": "سینما بهمن", "name:en": "Cinema Bahman", "lat": 36.271376510104119, "lon": 50.011966809929945 }, "geometry": { "type": "Point", "coordinates": [ 50.011966809929945, 36.271376510104119 ] } }
]
}
