{
"type": "FeatureCollection",
"crs": { "type": "name", "properties": { "name": "urn:ogc:def:crs:OGC:1.3:CRS84" } },
"features": [
{ "type": "Feature", "properties": { "name": "سجادیه", "name:fa": null, "name:en": "Sajadiye Mosque", "addr:street": null, "religion": "muslim", "area_m2": 0.0 }, "geometry": { "type": "Point", "coordinates": [ 50.0107014, 36.2559632 ] } },
{ "type": "Feature", "properties": { "name": "حلیمه و رمیمه خاتون", "name:fa": null, "name:en": "Halime khatun", "addr:street": null, "religion": "muslim", "area_m2": 0.0 }, "geometry": { "type": "Point", "coordinates": [ 49.9989704, 36.2730441 ] } },
{ "type": "Feature", "properties": { "name": "مسجد حضرت فاطمه زهرا", "name:fa": null, "name:en": "Masjed Hazrate Fateme Zahra", "addr:street": null, "religion": "muslim", "area_m2": 0.0 }, "geometry": { "type": "Point", "coordinates": [ 50.001296, 36.2723514 ] } },
{ "type": "Feature", "properties": { "name": "ملاباشی", "name:fa": null, "name:en": "Molabashi", "addr:street": null, "religion": "muslim", "area_m2": 0.0 }, "geometry": { "type": "Point", "coordinates": [ 50.0023421, 36.2715494 ] } },
{ "type": "Feature", "properties": { "name": "حسینیه رضوی", "name:fa": null, "name:en": "Hoseynie Razavi", "addr:street": null, "religion": "muslim", "area_m2": 0.0 }, "geometry": { "type": "Point", "coordinates": [ 50.0000118, 36.2738423 ] } },
{ "type": "Feature", "properties": { "name": "سوخته چنار", "name:fa": null, "name:en": "Soukhte chenar Mosque", "addr:street": null, "religion": "muslim", "area_m2": 0.0 }, "geometry": { "type": "Point", "coordinates": [ 50.0037011, 36.2735336 ] } },
{ "type": "Feature", "properties": { "name": "مسجد ستوده", "name:fa": null, "name:en": "Sotudeh Mosque", "addr:street": null, "religion": "muslim", "area_m2": 0.0 }, "geometry": { "type": "Point", "coordinates": [ 50.0032387, 36.2739138 ] } },
{ "type": "Feature", "properties": { "name": "آقا سید علی", "name:fa": null, "name:en": "Agha seyed Ali Mosque", "addr:street": null, "religion": "muslim", "area_m2": 0.0 }, "geometry": { "type": "Point", "coordinates": [ 49.9985316, 36.2702232 ] } },
{ "type": "Feature", "properties": { "name": "مسجد شیشه گر", "name:fa": null, "name:en": "Shishegar Mosque", "addr:street": "بوعلی سینا", "religion": "muslim", "area_m2": 0.0 }, "geometry": { "type": "Point", "coordinates": [ 49.9985248, 36.2747812 ] } },
{ "type": "Feature", "properties": { "name": "امامزاده علی", "name:fa": null, "name:en": "Emamzadeh Ali", "addr:street": null, "religion": "muslim", "area_m2": 0.0 }, "geometry": { "type": "Point", "coordinates": [ 50.0107462, 36.2626942 ] } },
{ "type": "Feature", "properties": { "name": "مسجد فاطمه الزهرای پونک", "name:fa": null, "name:en": "Fatemeh AlZahra Mosque", "addr:street": "بلوار نخبگان", "religion": "muslim", "area_m2": 0.0 }, "geometry": { "type": "Point", "coordinates": [ 50.0314173, 36.3109377 ] } },
{ "type": "Feature", "properties": { "name": "حاج موسی", "name:fa": null, "name:en": "Haj Mousa", "addr:street": "sa'adiسعدی", "religion": "muslim", "area_m2": 0.0 }, "geometry": { "type": "Point", "coordinates": [ 49.9972016, 36.2713907 ] } },
{ "type": "Feature", "properties": { "name": "مسجد حاج کاظم", "name:fa": null, "name:en": "Haj Kazem Mosque", "addr:street": null, "religion": "muslim", "area_m2": 0.0 }, "geometry": { "type": "Point", "coordinates": [ 49.9993889, 36.2764346 ] } },
{ "type": "Feature", "properties": { "name": "مسجد امام حسن عسگری (ع)", "name:fa": null, "name:en": "Imamا Hasan Asgari Mosque", "addr:street": "بلوار رزمندگان", "religion": "muslim", "area_m2": 0.0 }, "geometry": { "type": "Point", "coordinates": [ 50.0033259, 36.3091663 ] } },
{ "type": "Feature", "properties": { "name": "مسجد شیخ الاسلام", "name:fa": null, "name:en": "Sheykhol Eslam Mosque", "addr:street": "شیخ السلام", "religion": "muslim", "area_m2": 0.0 }, "geometry": { "type": "Point", "coordinates": [ 50.0039276, 36.264069 ] } },
{ "type": "Feature", "properties": { "name": "امامزاده اسماعیل", "name:fa": null, "name:en": "Emamzadeh Esmaeil", "addr:street": null, "religion": "muslim", "area_m2": 0.0 }, "geometry": { "type": "Point", "coordinates": [ 50.0023529, 36.2648372 ] } },
{ "type": "Feature", "properties": { "name": "مسجد ثاراالله", "name:fa": null, "name:en": "Sar Allah Masque", "addr:street": null, "religion": "muslim", "area_m2": 0.0 }, "geometry": { "type": "Point", "coordinates": [ 50.0025879, 36.28029690000001 ] } },
{ "type": "Feature", "properties": { "name": "امامزاده آمنه خاتون", "name:fa": null, "name:en": "Ameneh Khatoon", "addr:street": null, "religion": "muslim", "area_m2": 0.0 }, "geometry": { "type": "Point", "coordinates": [ 50.0100324, 36.2654177 ] } },
{ "type": "Feature", "properties": { "name": "مسجد محمدیه", "name:fa": null, "name:en": "Mohammadie Mosque", "addr:street": null, "religion": "muslim", "area_m2": 0.0 }, "geometry": { "type": "Point", "coordinates": [ 50.0060046, 36.2633958 ] } },
{ "type": "Feature", "properties": { "name": "مسجد سبز", "name:fa": null, "name:en": "Sabz Mosque", "addr:street": null, "religion": "muslim", "area_m2": 0.0 }, "geometry": { "type": "Point", "coordinates": [ 49.9952259, 36.2632542 ] } },
{ "type": "Feature", "properties": { "name": "Station ۴", "name:fa": null, "name:en": null, "addr:street": null, "religion": "muslim", "area_m2": 0.0 }, "geometry": { "type": "Point", "coordinates": [ 49.9977193, 36.2782377 ] } },
{ "type": "Feature", "properties": { "name": "Station ۴ @", "name:fa": null, "name:en": null, "addr:street": null, "religion": "muslim", "area_m2": 0.0 }, "geometry": { "type": "Point", "coordinates": [ 49.9936659, 36.2841923 ] } },
{ "type": "Feature", "properties": { "name": "Station ۲", "name:fa": null, "name:en": null, "addr:street": null, "religion": "muslim", "area_m2": 0.0 }, "geometry": { "type": "Point", "coordinates": [ 49.998247, 36.2668964 ] } },
{ "type": "Feature", "properties": { "name": "مسجد امام جعفر صادق", "name:fa": null, "name:en": "Imam Jafar Sadegh Mosque", "addr:street": "بلوار دانشگاه بین‌المللی امام خمینی", "religion": "muslim", "area_m2": 0.0 }, "geometry": { "type": "Point", "coordinates": [ 50.0129348, 36.3104879 ] } },
{ "type": "Feature", "properties": { "name": "مسجد جواد الائمه", "name:fa": null, "name:en": "Javad Aemmeh Mosque", "addr:street": null, "religion": "muslim", "area_m2": 0.0 }, "geometry": { "type": "Point", "coordinates": [ 50.027772, 36.3034303 ] } },
{ "type": "Feature", "properties": { "name": "مسجد امام حسین", "name:fa": null, "name:en": "Imam Hossein Mosque", "addr:street": null, "religion": "muslim", "area_m2": 0.0 }, "geometry": { "type": "Point", "coordinates": [ 50.0123429, 36.2681785 ] } },
{ "type": "Feature", "properties": { "name": "مسجد ابوالفضل", "name:fa": null, "name:en": "Abolfazl Mosque", "addr:street": null, "religion": "muslim", "area_m2": 0.0 }, "geometry": { "type": "Point", "coordinates": [ 50.022794, 36.2723402 ] } },
{ "type": "Feature", "properties": { "name": "مکتب الزهرا", "name:fa": null, "name:en": "Maktab Zehra", "addr:street": null, "religion": null, "area_m2": 0.0 }, "geometry": { "type": "Point", "coordinates": [ 50.020388, 36.2789456 ] } },
{ "type": "Feature", "properties": { "name": "مسجد احمد بیک", "name:fa": null, "name:en": "Ahmad Beik Mosque", "addr:street": null, "religion": "muslim", "area_m2": 0.0 }, "geometry": { "type": "Point", "coordinates": [ 49.9975522, 36.2772944 ] } },
{ "type": "Feature", "properties": { "name": "مسجد المهدی", "name:fa": null, "name:en": "Almahdi Mosque", "addr:street": null, "religion": "muslim", "area_m2": 0.0 }, "geometry": { "type": "Point", "coordinates": [ 50.0082796, 36.2718099 ] } },
{ "type": "Feature", "properties": { "name": "مسجد فاطمه زهرا", "name:fa": null, "name:en": "Fateme Zahra Mosque", "addr:street": null, "religion": "muslim", "area_m2": 0.0 }, "geometry": { "type": "Point", "coordinates": [ 49.9917254, 36.2997626 ] } },
{ "type": "Feature", "properties": { "name": "مسجد راه چمان", "name:fa": null, "name:en": "Rah Chaman Mosque", "addr:street": null, "religion": "muslim", "area_m2": 0.0 }, "geometry": { "type": "Point", "coordinates": [ 50.0098543, 36.2590818 ] } },
{ "type": "Feature", "properties": { "name": "مسجد هفت درب", "name:fa": null, "name:en": "Haft Dar Mosque", "addr:street": null, "religion": "muslim", "area_m2": 0.0 }, "geometry": { "type": "Point", "coordinates": [ 50.0002068, 36.2650547 ] } },
{ "type": "Feature", "properties": { "name": "مسجد", "name:fa": null, "name:en": "Mosque", "addr:street": null, "religion": "muslim", "area_m2": 0.0 }, "geometry": { "type": "Point", "coordinates": [ 50.0178633, 36.2740592 ] } },
{ "type": "Feature", "properties": { "name": "مسجد لعل", "name:fa": null, "name:en": "Laal Mosque", "addr:street": null, "religion": "muslim", "area_m2": 0.0 }, "geometry": { "type": "Point", "coordinates": [ 49.9967591, 36.2599463 ] } },
{ "type": "Feature", "properties": { "name": "مسچد امام حسن", "name:fa": null, "name:en": "Imam Hassan Mosque", "addr:street": null, "religion": "muslim", "area_m2": 0.0 }, "geometry": { "type": "Point", "coordinates": [ 49.9985806, 36.2723771 ] } },
{ "type": "Feature", "properties": { "name": "مسجد چهارده معصوم", "name:fa": null, "name:en": "14th Masoom Mosque", "addr:street": null, "religion": "muslim", "area_m2": 0.0 }, "geometry": { "type": "Point", "coordinates": [ 49.9988891, 36.2880926 ] } },
{ "type": "Feature", "properties": { "name": "پیروان قائم آل محمد", "name:fa": null, "name:en": "Ghaem Al Mohammah Followers Mosque", "addr:street": null, "religion": "muslim", "area_m2": 0.0 }, "geometry": { "type": "Point", "coordinates": [ 49.9990266, 36.2884893 ] } },
{ "type": "Feature", "properties": { "name": "مسجد امامیه", "name:fa": null, "name:en": null, "addr:street": null, "religion": null, "area_m2": 0.0 }, "geometry": { "type": "Point", "coordinates": [ 49.9946687, 36.2601421 ] } },
{ "type": "Feature", "properties": { "name": "مسجد امام علی", "name:fa": null, "name:en": "Emam Ali Mosque", "addr:street": null, "religion": null, "area_m2": 0.0 }, "geometry": { "type": "Point", "coordinates": [ 49.9875314, 36.3266128 ] } },
{ "type": "Feature", "properties": { "name": "مسجد پیامبر اعظم", "name:fa": null, "name:en": "Great Prophet mosque", "addr:street": null, "religion": "muslim", "area_m2": 0.0 }, "geometry": { "type": "Point", "coordinates": [ 50.0095353, 36.3209397 ] } },
{ "type": "Feature", "properties": { "name": "مسجد صاحب‌الزمان عج.", "name:fa": null, "name:en": null, "addr:street": null, "religion": "muslim", "area_m2": 0.0 }, "geometry": { "type": "Point", "coordinates": [ 50.0225501, 36.2929384 ] } },
{ "type": "Feature", "properties": { "name": "درب آشپزخانه مسجد صالحيه", "name:fa": null, "name:en": null, "addr:street": null, "religion": "muslim", "area_m2": 0.0 }, "geometry": { "type": "Point", "coordinates": [ 49.9958412, 36.267204 ] } },
{ "type": "Feature", "properties": { "name": "مسجد میمنت (امام صادق(ع)", "name:fa": null, "name:en": null, "addr:street": "شهید جعفری", "religion": "muslim", "area_m2": 0.0 }, "geometry": { "type": "Point", "coordinates": [ 49.9975596, 36.2637256 ] } },
{ "type": "Feature", "properties": { "name": "Abul Fazl (AS) Mosque", "name:fa": "مسجد حضرت ابوالفضل", "name:en": null, "addr:street": null, "religion": "muslim", "area_m2": 0.0 }, "geometry": { "type": "Point", "coordinates": [ 50.0242641, 36.3085912 ] } },
{ "type": "Feature", "properties": { "name": "حسینیه مرحوم سید باقر محمدی نسب", "name:fa": null, "name:en": null, "addr:street": null, "religion": "muslim", "area_m2": 0.0 }, "geometry": { "type": "Point", "coordinates": [ 50.0002029, 36.2670014 ] } },
{ "type": "Feature", "properties": { "name": "مسجد فاطمه الزهراء", "name:fa": null, "name:en": null, "addr:street": null, "religion": "muslim", "area_m2": 0.0 }, "geometry": { "type": "Point", "coordinates": [ 50.0152014, 36.3077123 ] } },
{ "type": "Feature", "properties": { "name": "حسینیه امام علی", "name:fa": null, "name:en": null, "addr:street": null, "religion": "muslim", "area_m2": 0.0 }, "geometry": { "type": "Point", "coordinates": [ 49.9931118, 36.3202496 ] } },
{ "type": "Feature", "properties": { "name": "نمازخانه", "name:fa": null, "name:en": null, "addr:street": null, "religion": null, "area_m2": 0.0 }, "geometry": { "type": "Point", "coordinates": [ 49.9970563, 36.316509 ] } },
{ "type": "Feature", "properties": { "name": "حسینیه آیت الله سامت (ره)", "name:fa": null, "name:en": null, "addr:street": null, "religion": null, "area_m2": 0.0 }, "geometry": { "type": "Point", "coordinates": [ 50.0020811, 36.2713821 ] } },
{ "type": "Feature", "properties": { "name": "مسجد غدیر", "name:fa": null, "name:en": "Qadir mosque", "addr:street": null, "religion": "muslim", "area_m2": 1356.5987238878583 }, "geometry": { "type": "Point", "coordinates": [ 50.018706692960464, 36.299162099102659 ] } },
{ "type": "Feature", "properties": { "name": "مسجد امام رضا (علیه‌السلام)", "name:fa": null, "name:en": "Imam Reza Mosque", "addr:street": null, "religion": "muslim", "area_m2": 654.65925947408846 }, "geometry": { "type": "Point", "coordinates": [ 50.020888437656993, 36.295767395378874 ] } },
{ "type": "Feature", "properties": { "name": "مسجد ولایت", "name:fa": null, "name:en": "Velayat", "addr:street": null, "religion": "muslim", "area_m2": 875.84603169509342 }, "geometry": { "type": "Point", "coordinates": [ 50.011537891892857, 36.287888585437472 ] } },
{ "type": "Feature", "properties": { "name": "مسجد محمد رسول الله", "name:fa": null, "name:en": "Mohammad Rasolallah Mosque", "addr:street": null, "religion": "muslim", "area_m2": 902.38320947682826 }, "geometry": { "type": "Point", "coordinates": [ 50.013833123199966, 36.280060843588345 ] } },
{ "type": "Feature", "properties": { "name": "مسجد امام رضا", "name:fa": null, "name:en": "Imam Reza Mosque of Azad University", "addr:street": null, "religion": "muslim", "area_m2": 1896.3065842527108 }, "geometry": { "type": "Point", "coordinates": [ 50.033918741327952, 36.322085661647662 ] } },
{ "type": "Feature", "properties": { "name": "امامزاده حسین", "name:fa": null, "name:en": "Emamzadeh Hossein shrine", "addr:street": null, "religion": "muslim", "area_m2": 736.54822616141939 }, "geometry": { "type": "Point", "coordinates": [ 50.000666431237953, 36.257211881998124 ] } },
{ "type": "Feature", "properties": { "name": "مسجد سنجیده", "name:fa": null, "name:en": "Sanjideh Mosque", "addr:street": null, "religion": "muslim", "area_m2": 867.56509816288576 }, "geometry": { "type": "Point", "coordinates": [ 50.007836940904625, 36.255106061528835 ] } },
{ "type": "Feature", "properties": { "name": "کلیسا سنت هریپسیم", "name:fa": null, "name:en": "Saint Heripsime Church", "addr:street": null, "religion": null, "area_m2": 257.8041470490295 }, "geometry": { "type": "Point", "coordinates": [ 50.006738552211132, 36.269601626472834 ] } },
{ "type": "Feature", "properties": { "name": "مسجد پنجه علی", "name:fa": null, "name:en": "Panje Ali Mosque", "addr:street": null, "religion": "muslim", "area_m2": 2029.2688801062816 }, "geometry": { "type": "Point", "coordinates": [ 50.002347359129963, 36.266633174511746 ] } },
{ "type": "Feature", "properties": { "name": "حسینیه حضرت ابوالفضل", "name:fa": null, "name:en": "Hazrat Abolfazl", "addr:street": null, "religion": "muslim", "area_m2": 722.84590306488872 }, "geometry": { "type": "Point", "coordinates": [ 50.010519064072177, 36.300218038837841 ] } },
{ "type": "Feature", "properties": { "name": null, "name:fa": null, "name:en": null, "addr:street": null, "religion": null, "area_m2": 469.9867002969832 }, "geometry": { "type": "Point", "coordinates": [ 49.998867892991882, 36.267766703795402 ] } },
{ "type": "Feature", "properties": { "name": null, "name:fa": null, "name:en": null, "addr:street": null, "religion": "muslim", "area_m2": 1962.4221153656722 }, "geometry": { "type": "Point", "coordinates": [ 49.990624311156331, 36.281074291362017 ] } },
{ "type": "Feature", "properties": { "name": null, "name:fa": null, "name:en": null, "addr:street": null, "religion": null, "area_m2": 344.51462319554582 }, "geometry": { "type": "Point", "coordinates": [ 50.010235787603762, 36.269871559067539 ] } },
{ "type": "Feature", "properties": { "name": null, "name:fa": null, "name:en": null, "addr:street": null, "religion": null, "area_m2": 627.83568996242343 }, "geometry": { "type": "Point", "coordinates": [ 49.999168944236395, 36.268837255258497 ] } },
{ "type": "Feature", "properties": { "name": "آرامگاه چهار انبیاء", "name:fa": null, "name:en": "Tomb of The Four Prophets", "addr:street": null, "religion": "muslim", "area_m2": 2751.7326472188352 }, "geometry": { "type": "Point", "coordinates": [ 50.002946898500042, 36.268412834843147 ] } },
{ "type": "Feature", "properties": { "name": "مسجد امام خمینی", "name:fa": null, "name:en": "Emam Khomeini Mosque", "addr:street": null, "religion": null, "area_m2": 1841.3204418979608 }, "geometry": { "type": "Point", "coordinates": [ 50.00137805, 36.29689105 ] } },
{ "type": "Feature", "properties": { "name": "امامزاده سلطان سید محمد", "name:fa": null, "name:en": "Emamzadeh Soltan Seyed Mohamad", "addr:street": null, "religion": "muslim", "area_m2": 603.4435540779275 }, "geometry": { "type": "Point", "coordinates": [ 49.992042936596597, 36.263880870471759 ] } },
{ "type": "Feature", "properties": { "name": "مسجد جامع المهدی مینودر", "name:fa": null, "name:en": "Al Mahdi Mosque", "addr:street": null, "religion": "muslim", "area_m2": 1211.7403676176762 }, "geometry": { "type": "Point", "coordinates": [ 49.989584335630177, 36.311165913220734 ] } },
{ "type": "Feature", "properties": { "name": "امامزاده اسماعیل", "name:fa": null, "name:en": null, "addr:street": null, "religion": "muslim", "area_m2": 581.80239824597913 }, "geometry": { "type": "Point", "coordinates": [ 50.002405740727347, 36.264881346468144 ] } },
{ "type": "Feature", "properties": { "name": "مسجد امام جعفر صادق(ع)", "name:fa": null, "name:en": null, "addr:street": "بلوار دانشگاه بین‌المللی امام خمینی", "religion": "muslim", "area_m2": 1447.8436735679729 }, "geometry": { "type": "Point", "coordinates": [ 50.012926731752088, 36.3104528045452 ] } },
{ "type": "Feature", "properties": { "name": "مسجد پیامبر اعظم (ص)", "name:fa": null, "name:en": null, "addr:street": null, "religion": null, "area_m2": 2411.339557405096 }, "geometry": { "type": "Point", "coordinates": [ 50.00965914476771, 36.321113262390334 ] } },
{ "type": "Feature", "properties": { "name": "کلیسا کانتور", "name:fa": null, "name:en": "Kantour Church", "addr:street": null, "religion": null, "area_m2": 79.383565241602355 }, "geometry": { "type": "Point", "coordinates": [ 50.010242725681181, 36.269424089112924 ] } },
{ "type": "Feature", "properties": { "name": null, "name:fa": null, "name:en": null, "addr:street": null, "religion": "muslim", "area_m2": 328.13322845670535 }, "geometry": { "type": "Point", "coordinates": [ 50.010847095717367, 36.255981093862324 ] } },
{ "type": "Feature", "properties": { "name": "مسجد محمدیه", "name:fa": null, "name:en": null, "addr:street": "محمدیه", "religion": "muslim", "area_m2": 756.09098312423896 }, "geometry": { "type": "Point", "coordinates": [ 50.005975386004437, 36.263390020785934 ] } },
{ "type": "Feature", "properties": { "name": null, "name:fa": null, "name:en": null, "addr:street": null, "religion": null, "area_m2": 307.7296187635198 }, "geometry": { "type": "Point", "coordinates": [ 50.005862467673637, 36.263366158837066 ] } },
{ "type": "Feature", "properties": { "name": null, "name:fa": null, "name:en": null, "addr:street": null, "religion": null, "area_m2": 3622.7774559726895 }, "geometry": { "type": "Point", "coordinates": [ 50.015930943160434, 36.2872596140569 ] } },
{ "type": "Feature", "properties": { "name": "مسجدالنبی", "name:fa": null, "name:en": "Nabi Mosque", "addr:street": null, "religion": "muslim", "area_m2": 6096.9716585730939 }, "geometry": { "type": "Point", "coordinates": [ 49.999013845287706, 36.268257539421924 ] } },
{ "type": "Feature", "properties": { "name": "مسجد احمدیه", "name:fa": null, "name:en": "Ahmadiye Mosque", "addr:street": null, "religion": "muslim", "area_m2": 359.30152023460926 }, "geometry": { "type": "Point", "coordinates": [ 49.991811757654688, 36.263229672348828 ] } },
{ "type": "Feature", "properties": { "name": "مسجد جامع عتیق", "name:fa": null, "name:en": "Jameh Mosque of Qazvin", "addr:street": null, "religion": "muslim", "area_m2": 7873.0919668404067 }, "geometry": { "type": "Point", "coordinates": [ 50.001939162596805, 36.261023107386698 ] } },
{ "type": "Feature", "properties": { "name": "مسجد شیخ الاسلام", "name:fa": null, "name:en": "Sheykhol Eslam Mosque", "addr:street": null, "religion": null, "area_m2": 1394.3187521632715 }, "geometry": { "type": "Point", "coordinates": [ 50.004383322834833, 36.264307539796192 ] } },
{ "type": "Feature", "properties": { "name": "مسجد امام حسن عسگری (ع)", "name:fa": null, "name:en": null, "addr:street": null, "religion": null, "area_m2": 4298.0895112422713 }, "geometry": { "type": "Point", "coordinates": [ 50.00363669164792, 36.308985840936941 ] } }
]
}
