{
"type": "FeatureCollection",
"crs": { "type": "name", "properties": { "name": "urn:ogc:def:crs:OGC:1.3:CRS84" } },
"features": [
{ "type": "Feature", "properties": { "name": "کلینیک فرهنگیان", "name:fa": null, "name:en": "Farhangian Clinic", "addr:street": "عبیدزاکانی" }, "geometry": { "type": "Point", "coordinates": [ 50.0028658, 36.2742393 ] } },
{ "type": "Feature", "properties": { "name": "درمانگاه شبانه روزی قائم", "name:fa": null, "name:en": "Ghaem Clinic", "addr:street": null }, "geometry": { "type": "Point", "coordinates": [ 50.0045325, 36.269786 ] } },
{ "type": "Feature", "properties": { "name": "درمانگاه شبانه روزی بوعلی", "name:fa": null, "name:en": "Boo Alii Sina Clinic", "addr:street": null }, "geometry": { "type": "Point", "coordinates": [ 50.0054781, 36.270055 ] } },
{ "type": "Feature", "properties": { "name": "درمانگاه شبانه روزی امام علی", "name:fa": null, "name:en": "Emam Ali Clinic 24hours", "addr:street": null }, "geometry": { "type": "Point", "coordinates": [ 50.0038705, 36.2619818 ] } },
{ "type": "Feature", "properties": { "name": "ساختمان پزشکان دکتر جمشیدی", "name:fa": null, "name:en": "Dr Jamshidi building", "addr:street": "بلوار دهخدا" }, "geometry": { "type": "Point", "coordinates": [ 50.0078474, 36.2804677 ] } },
{ "type": "Feature", "properties": { "name": "مرکز بهداشت شهید بلندیان", "name:fa": null, "name:en": null, "addr:street": "بلوار شهید بابایی" }, "geometry": { "type": "Point", "coordinates": [ 50.0213045, 36.3026451 ] } },
{ "type": "Feature", "properties": { "name": "درمانگاه سینا", "name:fa": null, "name:en": "Sina Clinic", "addr:street": null }, "geometry": { "type": "Point", "coordinates": [ 50.0128485, 36.2959118 ] } },
{ "type": "Feature", "properties": { "name": "درمانگاه عمومی و تخصصی هلال احمر", "name:fa": null, "name:en": null, "addr:street": null }, "geometry": { "type": "Point", "coordinates": [ 50.0053826, 36.2662683 ] } },
{ "type": "Feature", "properties": { "name": "درمانگاههای تخصصی و فوق تخصصی ولایت", "name:fa": null, "name:en": "Specialized clinics", "addr:street": null }, "geometry": { "type": "Point", "coordinates": [ 49.9973325, 36.3237327 ] } },
{ "type": "Feature", "properties": { "name": "مرکز بهداشتی درمانی واحد سعدی", "name:fa": null, "name:en": "Saadi health unit(government clinic)", "addr:street": "سعدی" }, "geometry": { "type": "Point", "coordinates": [ 49.997094, 36.2716423 ] } },
{ "type": "Feature", "properties": { "name": "مجموعه درمانی آوای مهر امین", "name:fa": null, "name:en": null, "addr:street": "خیام شمالی" }, "geometry": { "type": "Point", "coordinates": [ 50.0075781, 36.2731004 ] } },
{ "type": "Feature", "properties": { "name": "درمانگاه شبانه روزی مینودر", "name:fa": null, "name:en": "24h Clinic of Minoudar", "addr:street": null }, "geometry": { "type": "Point", "coordinates": [ 49.9937511, 36.3103122 ] } },
{ "type": "Feature", "properties": { "name": "درمانگاه گوهرشاد", "name:fa": "درمانگاه گوهرشاد - پزشکی و دندانپزشکی، لیزر، حجامت و زالو درمانی", "name:en": "Goharshad Clinic", "addr:street": "بلوار سید الشهدا" }, "geometry": { "type": "Point", "coordinates": [ 49.9865971, 36.3218079 ] } },
{ "type": "Feature", "properties": { "name": "پارسیان", "name:fa": null, "name:en": "Parsian", "addr:street": null }, "geometry": { "type": "Point", "coordinates": [ 50.0194321, 36.2972397 ] } },
{ "type": "Feature", "properties": { "name": "درمانگاههای تخصصی بیمارستان ولایت", "name:fa": null, "name:en": "Specialized Clinics of Velayat Hospital", "addr:street": "هفده شهریور" }, "geometry": { "type": "Point", "coordinates": [ 49.9967713, 36.3227314 ] } },
{ "type": "Feature", "properties": { "name": "مرکز لیزر هور", "name:fa": null, "name:en": null, "addr:street": "فلسطین" }, "geometry": { "type": "Point", "coordinates": [ 50.0215216, 36.2754547 ] } },
{ "type": "Feature", "properties": { "name": "مرکز لیزر آفرینش", "name:fa": null, "name:en": null, "addr:street": "بلوار ملاصدرا" }, "geometry": { "type": "Point", "coordinates": [ 50.0281822, 36.3038324 ] } },
{ "type": "Feature", "properties": { "name": "درمانگاه دندانپزشکی ملاصدرا", "name:fa": null, "name:en": null, "addr:street": "اندیشه پانزدهم" }, "geometry": { "type": "Point", "coordinates": [ 50.0282205, 36.3038693 ] } },
{ "type": "Feature", "properties": { "name": "فيزيوتراپي رهرو", "name:fa": null, "name:en": null, "addr:street": null }, "geometry": { "type": "Point", "coordinates": [ 50.0169646, 36.2788915 ] } },
{ "type": "Feature", "properties": { "name": "مرکز لیزر و کلینیک زیبایی و پوست رزت - roset", "name:fa": null, "name:en": null, "addr:street": "خیام شمالی کوچه رفیعی" }, "geometry": { "type": "Point", "coordinates": [ 50.009609, 36.2779813 ] } },
{ "type": "Feature", "properties": { "name": "کلینیک زیبایی الیزه", "name:fa": null, "name:en": null, "addr:street": "قزوين بلوارمدرس حدفاصل كوچه گلبرگ وكوچه سيم بر،جنب بيمه سينا ،پلاك 532،طبقه دوم واحد ۵" }, "geometry": { "type": "Point", "coordinates": [ 50.014718, 36.2824838 ] } },
{ "type": "Feature", "properties": { "name": "مرکز همودیالیز بیمارستان بوعلی", "name:fa": null, "name:en": "BouAli Hemo Dialysis Center", "addr:street": null }, "geometry": { "type": "Point", "coordinates": [ 50.006955924204796, 36.275491826403091 ] } },
{ "type": "Feature", "properties": { "name": "درمانگاه شبانه روزی امام خمینی(ره)", "name:fa": null, "name:en": null, "addr:street": "شهید محلاتی" }, "geometry": { "type": "Point", "coordinates": [ 50.0005269922016, 36.309734045823888 ] } },
{ "type": "Feature", "properties": { "name": "درمانگاه شبانه روزی شهید پاکروان", "name:fa": null, "name:en": null, "addr:street": "حیدری" }, "geometry": { "type": "Point", "coordinates": [ 50.001940773920296, 36.289345475371626 ] } },
{ "type": "Feature", "properties": { "name": "درمانگاه امام سجاد(ع)", "name:fa": null, "name:en": null, "addr:street": "حیدری" }, "geometry": { "type": "Point", "coordinates": [ 50.001815613377651, 36.286534576709265 ] } },
{ "type": "Feature", "properties": { "name": "مرکز فوق تخصصی زنان و نازایی رویانا", "name:fa": null, "name:en": null, "addr:street": "فردوسی" }, "geometry": { "type": "Point", "coordinates": [ 50.005621674732268, 36.271788697667716 ] } }
]
}
